{
"type": "FeatureCollection",
"name": "madhesh_boundary_wgs84",
"crs": { "type": "name", "properties": { "name": "urn:ogc:def:crs:OGC:1.3:CRS84" } },
"features": [
{ "type": "Feature", "properties": { "Province": 2, "TARGET": "Province2", "Level": 0, "DISTRICT": "प्रदेश नं. २" }, "geometry": { "type": "Polygon", "coordinates": [ [ [ 84.565268202030353, 27.463161481585491 ], [ 84.566791969674512, 27.461517215407255 ], [ 84.567151993199104, 27.461069011254086 ], [ 84.568274732742921, 27.460389839617822 ], [ 84.573512401310765, 27.457843586753089 ], [ 84.573408686438697, 27.456738434516609 ], [ 84.573515056500696, 27.456266416093239 ], [ 84.574134606978987, 27.455880335350574 ], [ 84.575078927964753, 27.45544313920773 ], [ 84.575857290735442, 27.453982470020883 ], [ 84.577215730292806, 27.454274652186722 ], [ 84.577791778883068, 27.454283535265617 ], [ 84.58096554783134, 27.45420715354911 ], [ 84.581899170676863, 27.45439277625325 ], [ 84.582403973227812, 27.45468400785342 ], [ 84.582424580246752, 27.455471374886592 ], [ 84.582330833947054, 27.45592077054026 ], [ 84.58243630876278, 27.45650015757834 ], [ 84.583444556003769, 27.456207136965855 ], [ 84.586812263043313, 27.45477606754449 ], [ 84.588953868617168, 27.45405404047791 ], [ 84.58974664598297, 27.453678398972542 ], [ 84.593939899537219, 27.453886194971439 ], [ 84.595569357583756, 27.454599031030952 ], [ 84.598063973263919, 27.454170920505167 ], [ 84.59927564525448, 27.453148156138635 ], [ 84.599462318874956, 27.452590021689133 ], [ 84.600264793014091, 27.451670554220925 ], [ 84.600977457300971, 27.451227480044643 ], [ 84.601400777413701, 27.451169241812096 ], [ 84.601946808546288, 27.452283712563514 ], [ 84.603336482090697, 27.453189277613482 ], [ 84.606827248139538, 27.454324791932589 ], [ 84.607637770682572, 27.454077576667707 ], [ 84.607946548127785, 27.453778420824943 ], [ 84.608476682552677, 27.452898383112018 ], [ 84.614020664957664, 27.45143010069388 ], [ 84.617548322614752, 27.45145959003143 ], [ 84.618398519058047, 27.451643086673133 ], [ 84.619653044615617, 27.451434437307171 ], [ 84.620391264845807, 27.451155911245401 ], [ 84.62178181498733, 27.451973234273325 ], [ 84.621819702589804, 27.451066003896369 ], [ 84.622032312136398, 27.450413065863838 ], [ 84.62286215195823, 27.449788884783327 ], [ 84.625174468325511, 27.449927408066038 ], [ 84.625752451861203, 27.450055717967054 ], [ 84.626823553622089, 27.45039157933688 ], [ 84.628555509228406, 27.450532718422988 ], [ 84.628910233845275, 27.449423261112788 ], [ 84.630974545013771, 27.448301581325868 ], [ 84.631671286911015, 27.447190691927354 ], [ 84.63271272622687, 27.44643908806918 ], [ 84.633074495016373, 27.44622536286791 ], [ 84.634707745949441, 27.444706212130971 ], [ 84.634940969542683, 27.444477236312398 ], [ 84.636946587274849, 27.44406199213531 ], [ 84.638162742017983, 27.443900712932606 ], [ 84.639851572040385, 27.444366822165861 ], [ 84.640147478969567, 27.443925491398552 ], [ 84.641599284099101, 27.444070000867033 ], [ 84.642087975808252, 27.443742787827347 ], [ 84.642979061509209, 27.442915188473055 ], [ 84.642995823017571, 27.442208877196389 ], [ 84.642991836916693, 27.441520751464171 ], [ 84.643325315103624, 27.440373047243977 ], [ 84.643343262112836, 27.439761477470753 ], [ 84.643293912925969, 27.438768940885389 ], [ 84.643267804703271, 27.438083189594614 ], [ 84.643349865253981, 27.43762479454896 ], [ 84.645454666447947, 27.433526695285554 ], [ 84.645888832542127, 27.431672306095617 ], [ 84.646958801077062, 27.429223792605256 ], [ 84.647663771927725, 27.429141560894305 ], [ 84.651153355951777, 27.430012036668877 ], [ 84.652607529492926, 27.430481267011725 ], [ 84.656825242760718, 27.432609453590246 ], [ 84.658294057917857, 27.432124207411984 ], [ 84.658635138581843, 27.432084216283176 ], [ 84.659574512622441, 27.432172285410545 ], [ 84.659917651039493, 27.432362461137888 ], [ 84.660794528515112, 27.432699006978417 ], [ 84.661735272505453, 27.433037491134321 ], [ 84.66216047152723, 27.432766959518545 ], [ 84.662115608380518, 27.432462548669307 ], [ 84.662348458220279, 27.432172640816205 ], [ 84.662685241035959, 27.431408464674728 ], [ 84.662873165588422, 27.430796085092574 ], [ 84.662971924470995, 27.429667500498351 ], [ 84.670704725588209, 27.429084485093686 ], [ 84.677867834179551, 27.429422128223319 ], [ 84.684018812810621, 27.430470566875481 ], [ 84.685907288377024, 27.431738419774948 ], [ 84.690606026574585, 27.432529609066275 ], [ 84.702628694180845, 27.432144642646023 ], [ 84.704918936632978, 27.433026536488331 ], [ 84.709896366911323, 27.431694920840716 ], [ 84.71331614806256, 27.432548397293871 ], [ 84.719427045530338, 27.431625762558504 ], [ 84.719323552864964, 27.431951169229535 ], [ 84.719156567838979, 27.432315321434725 ], [ 84.720272925509107, 27.435247137995628 ], [ 84.720747165659191, 27.435741101004346 ], [ 84.721436642962985, 27.43863678916933 ], [ 84.722426369349066, 27.439545410449057 ], [ 84.725278593703464, 27.443948309359051 ], [ 84.725752019996733, 27.444516703170446 ], [ 84.73401106169662, 27.444065059665363 ], [ 84.734505846874242, 27.442115304961273 ], [ 84.738128237934774, 27.442369151013363 ], [ 84.739624201890692, 27.440488530669732 ], [ 84.743321869455272, 27.442075320711762 ], [ 84.749125127312283, 27.437592688553408 ], [ 84.755485572811466, 27.43573082974557 ], [ 84.757906031360434, 27.437466274118133 ], [ 84.768628743772723, 27.437211214063634 ], [ 84.770284241652931, 27.438910087337248 ], [ 84.774659230633361, 27.438662427770172 ], [ 84.779564691554739, 27.436268281693494 ], [ 84.784639788345814, 27.435366691780633 ], [ 84.78621561304908, 27.436871706255989 ], [ 84.792066394005957, 27.437287572713792 ], [ 84.792847111976045, 27.436845437087459 ], [ 84.793782985985175, 27.4369619412353 ], [ 84.794583638028243, 27.436560302285468 ], [ 84.795685751984522, 27.436068926096308 ], [ 84.796876856402903, 27.435464186472508 ], [ 84.79700721560225, 27.435391257553693 ], [ 84.797553839981262, 27.43492562038336 ], [ 84.79764190766258, 27.434067761261311 ], [ 84.797512375808537, 27.433378008652326 ], [ 84.800553414989992, 27.430005671314944 ], [ 84.801809824359239, 27.429346375102742 ], [ 84.802158158403614, 27.429087153806492 ], [ 84.802852449594099, 27.428681576046849 ], [ 84.805469142326729, 27.426714855912543 ], [ 84.806713935364883, 27.425692342115532 ], [ 84.806821734338726, 27.425655597096416 ], [ 84.807426597276418, 27.425381443644742 ], [ 84.807686752903052, 27.42525352168736 ], [ 84.80865938327743, 27.424798890175367 ], [ 84.808757283138362, 27.422871502172658 ], [ 84.808956088766408, 27.421882156561267 ], [ 84.809863190703879, 27.416944738790189 ], [ 84.810016812362832, 27.416079693811163 ], [ 84.810126112244689, 27.415986578872914 ], [ 84.810509311074341, 27.416013707421211 ], [ 84.81242585301095, 27.416895970678063 ], [ 84.813259743971955, 27.416836988991772 ], [ 84.815670444154364, 27.419067826462435 ], [ 84.816773731604385, 27.419284699234531 ], [ 84.819756834998998, 27.419407109850663 ], [ 84.821424054458816, 27.419291271292895 ], [ 84.822456486449212, 27.418989626990736 ], [ 84.82288111655842, 27.419054815276528 ], [ 84.825618244294517, 27.419593684697791 ], [ 84.827230054614404, 27.41840637892205 ], [ 84.828387419930436, 27.417476730423957 ], [ 84.828935233016523, 27.416943224354412 ], [ 84.829332064218022, 27.416503207536497 ], [ 84.830191705514309, 27.416254368299636 ], [ 84.831037025703708, 27.41654041834844 ], [ 84.831690810274097, 27.416746347592408 ], [ 84.83198157933812, 27.41700182921582 ], [ 84.833704524541872, 27.417747351763161 ], [ 84.833992807048901, 27.417334893276863 ], [ 84.834126356347099, 27.417108540673446 ], [ 84.83436626616222, 27.416904062770392 ], [ 84.837709248892153, 27.414386403420771 ], [ 84.838178062491735, 27.414358788229304 ], [ 84.838430839984184, 27.414440722331474 ], [ 84.839377394865238, 27.414825390123671 ], [ 84.839970939697096, 27.414914266432827 ], [ 84.84039869772397, 27.414810157462938 ], [ 84.841041194153618, 27.413851940976603 ], [ 84.840758367124977, 27.413312047488464 ], [ 84.840674894669363, 27.412471059129423 ], [ 84.840744577445889, 27.412242768199441 ], [ 84.841114972565805, 27.411908866446527 ], [ 84.841919301188526, 27.412041679611171 ], [ 84.842109837695901, 27.412083366351542 ], [ 84.842955097264635, 27.412274549920873 ], [ 84.84413138405786, 27.412035027307219 ], [ 84.844629152654505, 27.410922009939881 ], [ 84.845411577073364, 27.409507086605561 ], [ 84.847923715644043, 27.407829026429415 ], [ 84.848191252048451, 27.407358135354038 ], [ 84.849311755078006, 27.406031396890501 ], [ 84.850638664200758, 27.404915517740175 ], [ 84.851098675822797, 27.404411882610841 ], [ 84.851367337436386, 27.403922868176029 ], [ 84.850905590267615, 27.40370231823443 ], [ 84.850408728405654, 27.403193168629464 ], [ 84.850442983234402, 27.402716899383734 ], [ 84.850946005265001, 27.401393963409898 ], [ 84.851437097750974, 27.399746181382007 ], [ 84.851559531011219, 27.399138487800418 ], [ 84.851742266153437, 27.398665845549125 ], [ 84.853042972146298, 27.398522566246214 ], [ 84.853971031359151, 27.398812429767844 ], [ 84.854904593612076, 27.398910498077939 ], [ 84.855436773111478, 27.39892075548433 ], [ 84.855693615188784, 27.398869576592894 ], [ 84.856740541514938, 27.398761602657412 ], [ 84.858066369553939, 27.398600012895574 ], [ 84.858278341092046, 27.398623514104909 ], [ 84.859971686986924, 27.398263385401872 ], [ 84.863519490772077, 27.397122418252579 ], [ 84.86392806424891, 27.3969979983057 ], [ 84.866127700474607, 27.397543921281414 ], [ 84.868109438954946, 27.397531578414863 ], [ 84.868951508102867, 27.397894121587679 ], [ 84.870610460359146, 27.398714074034153 ], [ 84.871510455192919, 27.399288286634555 ], [ 84.871813668773385, 27.399103620443771 ], [ 84.872255996403098, 27.398541365292711 ], [ 84.872690382303603, 27.398247585941021 ], [ 84.872815428391391, 27.398242275875656 ], [ 84.876727797898241, 27.397669513520157 ], [ 84.877759552948618, 27.39683941662005 ], [ 84.878616262294926, 27.396330975633848 ], [ 84.878791434134897, 27.39595082496637 ], [ 84.878140844373988, 27.395350243628108 ], [ 84.878060237197502, 27.394985275091827 ], [ 84.881506911872677, 27.38837992134599 ], [ 84.882470169981687, 27.387854921006344 ], [ 84.883447164257475, 27.387941241072905 ], [ 84.884082827150294, 27.388101861631093 ], [ 84.884251866548141, 27.388141423232465 ], [ 84.885139679056635, 27.388535151842269 ], [ 84.886029431827112, 27.388775394244419 ], [ 84.887686022962413, 27.388907033401594 ], [ 84.888425481242521, 27.389240765068962 ], [ 84.88963538140348, 27.389370709880939 ], [ 84.890190248537664, 27.389222731844715 ], [ 84.890495031256378, 27.388690596830262 ], [ 84.891148281095667, 27.387490589653879 ], [ 84.89164203542083, 27.387133254428825 ], [ 84.89462158523969, 27.386838952518605 ], [ 84.895268701083452, 27.386137650534476 ], [ 84.895825946281263, 27.385818250404043 ], [ 84.896701274030562, 27.385521478231961 ], [ 84.897730465498171, 27.381589096882259 ], [ 84.897485012660027, 27.380839347742686 ], [ 84.897824373251481, 27.379293929093102 ], [ 84.898281391884638, 27.378456198849438 ], [ 84.898828030086889, 27.377292999183162 ], [ 84.899623563770362, 27.376595199200832 ], [ 84.900232065750714, 27.375587299081023 ], [ 84.900603337398636, 27.375171967128193 ], [ 84.900819187564011, 27.37498561221518 ], [ 84.901523727039759, 27.374604282438803 ], [ 84.90392788647182, 27.37577996475466 ], [ 84.904604478863263, 27.376073386563998 ], [ 84.906436335584786, 27.377415232519503 ], [ 84.910519395027592, 27.375583710717372 ], [ 84.911125383457971, 27.37528193477003 ], [ 84.913700648514009, 27.373119481475911 ], [ 84.914343069998111, 27.372799395240705 ], [ 84.91485550081083, 27.372877271300528 ], [ 84.916138584686863, 27.372710868843914 ], [ 84.916653020876595, 27.372502208115485 ], [ 84.916972914228225, 27.372599454419472 ], [ 84.917422795279847, 27.372449787391457 ], [ 84.919098224933961, 27.371136931336299 ], [ 84.919612408851009, 27.37104551009763 ], [ 84.921025475945811, 27.370860236375755 ], [ 84.921410988666665, 27.37080356000487 ], [ 84.923346334261481, 27.36884364101288 ], [ 84.924057888964455, 27.36764319725275 ], [ 84.926235668620706, 27.364233161994406 ], [ 84.926835089792348, 27.364217922767814 ], [ 84.92807416825697, 27.364622530961874 ], [ 84.928523421377108, 27.364626350171534 ], [ 84.929547714198065, 27.365106948187318 ], [ 84.930123567360368, 27.365529419372464 ], [ 84.932372906883813, 27.364948131771921 ], [ 84.932566634714661, 27.36477533779626 ], [ 84.933911821475846, 27.36531687289569 ], [ 84.934337445602452, 27.365681784382495 ], [ 84.94088470432456, 27.365784503011565 ], [ 84.940999096567623, 27.364143464341101 ], [ 84.940850872961079, 27.363796993055129 ], [ 84.940982367226596, 27.36320723546028 ], [ 84.941753456293767, 27.363037325295853 ], [ 84.942906420366427, 27.363480803675028 ], [ 84.945522348951911, 27.36226957829086 ], [ 84.945332697042616, 27.361733935799876 ], [ 84.944927633058938, 27.361350838757787 ], [ 84.944652116004164, 27.360890188199111 ], [ 84.947237761680128, 27.361551794550859 ], [ 84.949160309738303, 27.362093713711872 ], [ 84.951790678055417, 27.367012376884009 ], [ 84.954382411051895, 27.366374224803586 ], [ 84.956406012806241, 27.363517637540408 ], [ 84.955304452772836, 27.361257635186703 ], [ 84.957726168761468, 27.359451835028231 ], [ 84.961894180531587, 27.36265186390327 ], [ 84.964900712418142, 27.363098121216328 ], [ 84.965582274280479, 27.358572099874085 ], [ 84.968408067697155, 27.356476769509758 ], [ 84.972339949239554, 27.355188259277735 ], [ 84.975599683411204, 27.356361268006729 ], [ 84.980191849892776, 27.361552187840083 ], [ 84.983412219490603, 27.362459094814756 ], [ 84.987727852697759, 27.361688606796925 ], [ 84.994461704824417, 27.365318325283056 ], [ 84.999224136814789, 27.365421891072423 ], [ 85.00064101554895, 27.362099773452048 ], [ 85.000918353997605, 27.355775969169954 ], [ 85.004456006204506, 27.35291909326531 ], [ 85.008673413320764, 27.354761307286196 ], [ 85.013204115252876, 27.355407570863605 ], [ 85.016004338652692, 27.353873377411237 ], [ 85.022102660405963, 27.353806292130795 ], [ 85.021504609686886, 27.357197166566699 ], [ 85.02456273886709, 27.358704454862831 ], [ 85.029300226024674, 27.359350971762225 ], [ 85.031168267669869, 27.360582578477505 ], [ 85.035617992820164, 27.357442929879156 ], [ 85.039984441551468, 27.359346265936097 ], [ 85.04245549915187, 27.358912656304341 ], [ 85.044544924745395, 27.36137203161983 ], [ 85.045277383342452, 27.361738822854903 ], [ 85.048739922455582, 27.361945234107793 ], [ 85.051285494305148, 27.363449077206464 ], [ 85.052376105247248, 27.363206178700445 ], [ 85.053267459903992, 27.364605005050219 ], [ 85.053480365409399, 27.36480192828536 ], [ 85.054341934138918, 27.365059418856713 ], [ 85.05605107259376, 27.365617270941861 ], [ 85.05735267288523, 27.36450870328801 ], [ 85.060067087644853, 27.363357786774984 ], [ 85.059516310070464, 27.362109827293185 ], [ 85.060292288234322, 27.361201483393 ], [ 85.060788911148848, 27.361154807928351 ], [ 85.06147720933734, 27.360450194400293 ], [ 85.063619348553473, 27.361241594940505 ], [ 85.06549376108525, 27.362637374640325 ], [ 85.065766413152389, 27.362610506360635 ], [ 85.066041694891751, 27.362330848254363 ], [ 85.067552215752769, 27.360688144225026 ], [ 85.068233409157912, 27.362160710674072 ], [ 85.069883607949393, 27.36321970448698 ], [ 85.069374779738538, 27.364243417281781 ], [ 85.069401087875804, 27.364288351175365 ], [ 85.070113312538794, 27.363980515010006 ], [ 85.07022623408433, 27.364033824524942 ], [ 85.070816773612364, 27.364415112237989 ], [ 85.072174601922853, 27.364041417190993 ], [ 85.073108290013522, 27.364104176355436 ], [ 85.074344890574324, 27.363415570083344 ], [ 85.075333448006049, 27.363398962223634 ], [ 85.080793177654087, 27.362779229172357 ], [ 85.087061512613261, 27.360930181500315 ], [ 85.08806655902309, 27.35821500296764 ], [ 85.091340034497776, 27.356594324902378 ], [ 85.093097461061873, 27.348627753266758 ], [ 85.093026637879447, 27.343344412462351 ], [ 85.091907688049858, 27.341954394128138 ], [ 85.094900606651876, 27.332475477210799 ], [ 85.098872596497429, 27.328644945338038 ], [ 85.099341379922933, 27.326996537738552 ], [ 85.103231127680246, 27.323315428664991 ], [ 85.103918785421214, 27.32024846391376 ], [ 85.105767189471308, 27.319103470613943 ], [ 85.116795446683454, 27.317917063979408 ], [ 85.117788466398537, 27.316627632548624 ], [ 85.119020223330722, 27.314397726513779 ], [ 85.119057820117291, 27.309276060162485 ], [ 85.12060386811217, 27.306039624093032 ], [ 85.121279799561563, 27.30185813372627 ], [ 85.125075178961126, 27.301624589756685 ], [ 85.127120278533837, 27.295627095925607 ], [ 85.126637339185493, 27.292630293708648 ], [ 85.132187619642949, 27.292030497795178 ], [ 85.137459038149899, 27.289478871972811 ], [ 85.138757612370142, 27.286566902871673 ], [ 85.144783264444072, 27.282989068227032 ], [ 85.144227707731886, 27.280090068535173 ], [ 85.145562869582832, 27.272523328478687 ], [ 85.151315819207781, 27.268365416262114 ], [ 85.151794495424312, 27.265757906856919 ], [ 85.155994763924696, 27.262140546682851 ], [ 85.161441859633854, 27.262102198998889 ], [ 85.168300251222007, 27.259836385244402 ], [ 85.170109974929787, 27.255453430522753 ], [ 85.175434996147274, 27.25368736029154 ], [ 85.180959750535564, 27.254590679798557 ], [ 85.177354385386636, 27.249684685797288 ], [ 85.182147925604909, 27.247343033538701 ], [ 85.189770319630298, 27.246193257252788 ], [ 85.192901866574104, 27.24509496757554 ], [ 85.197075681384945, 27.245625611485508 ], [ 85.199745506341785, 27.249318574092602 ], [ 85.202454068494575, 27.25025647087595 ], [ 85.206739354642636, 27.248349271823219 ], [ 85.209176220961766, 27.245223839674399 ], [ 85.215196084086557, 27.246816418182313 ], [ 85.217220109884636, 27.244691640111224 ], [ 85.220357523350458, 27.243985190599002 ], [ 85.224713794611773, 27.245499374704213 ], [ 85.231797528773157, 27.243399987399147 ], [ 85.233213926757841, 27.245433765858479 ], [ 85.238954357792977, 27.248602574334896 ], [ 85.242966452661577, 27.248697879737666 ], [ 85.245566464626236, 27.246603670642816 ], [ 85.249038886375928, 27.24640799344526 ], [ 85.251555435268841, 27.243014961471829 ], [ 85.254272755488969, 27.237228583827505 ], [ 85.258094312533203, 27.234216226124047 ], [ 85.256987528851255, 27.230675087059669 ], [ 85.260823222518482, 27.226987977269118 ], [ 85.267376436503184, 27.226285894384844 ], [ 85.269731332915725, 27.228473236722234 ], [ 85.273806710634389, 27.22964550959745 ], [ 85.279537223729548, 27.228778928353087 ], [ 85.280631468396336, 27.231223477655981 ], [ 85.28788545478595, 27.231044109445385 ], [ 85.293027427966891, 27.23292571113673 ], [ 85.298115106492475, 27.231145951218711 ], [ 85.30403891372211, 27.229931341743313 ], [ 85.305233749131474, 27.230299203012581 ], [ 85.307395183874661, 27.231840225051357 ], [ 85.309873259237435, 27.230517570179863 ], [ 85.312313624847476, 27.230555605798074 ], [ 85.315810655295977, 27.227901273537064 ], [ 85.318624490047753, 27.227026584069897 ], [ 85.320960875307861, 27.226767644535904 ], [ 85.323198545580937, 27.225408676565216 ], [ 85.325628804405255, 27.224605099627514 ], [ 85.327121489523435, 27.224279652539479 ], [ 85.330387332813714, 27.223131932175576 ], [ 85.332815578149194, 27.223016356340807 ], [ 85.33411848398201, 27.222279755398876 ], [ 85.336886531392409, 27.220453025145769 ], [ 85.338825106123195, 27.219590758086593 ], [ 85.341149777240133, 27.220741630144246 ], [ 85.344116377224111, 27.22122763429104 ], [ 85.34509474454336, 27.221425757285317 ], [ 85.345985557472289, 27.221793988705606 ], [ 85.347118029321564, 27.222001925794665 ], [ 85.348386107318134, 27.222260423047246 ], [ 85.348861985018317, 27.222120505649311 ], [ 85.34983238137562, 27.220922253069396 ], [ 85.351023578866759, 27.218841957693702 ], [ 85.352867938124433, 27.21687716247207 ], [ 85.356773372905337, 27.213209427131385 ], [ 85.358467835496114, 27.213310320279888 ], [ 85.359340639862054, 27.211106655779233 ], [ 85.36001636650451, 27.210955805057274 ], [ 85.361600751257058, 27.212544438776337 ], [ 85.366746641978779, 27.212291293819163 ], [ 85.36792062297404, 27.21177223392241 ], [ 85.37052809623961, 27.21158660477418 ], [ 85.371784568626097, 27.210956118637903 ], [ 85.372400000563601, 27.210313873272479 ], [ 85.372995864244402, 27.210086965558617 ], [ 85.373335255046527, 27.21018964934418 ], [ 85.375984748557158, 27.211835420081204 ], [ 85.377371072833242, 27.211505971690148 ], [ 85.378974824847191, 27.210238047966001 ], [ 85.380024199535754, 27.20960505873617 ], [ 85.382612578369063, 27.208022928817893 ], [ 85.383837551655702, 27.207555115177623 ], [ 85.385163879707704, 27.207431459980075 ], [ 85.386541255408218, 27.207713331947797 ], [ 85.387857251260598, 27.208638833049243 ], [ 85.388101338094188, 27.208940997525971 ], [ 85.390615434317226, 27.209471115608736 ], [ 85.390866285891661, 27.208994787102231 ], [ 85.392601855542239, 27.20972206261813 ], [ 85.393045037516387, 27.210207213978016 ], [ 85.393165704777189, 27.210424821513918 ], [ 85.393950365018057, 27.209756018737025 ], [ 85.397271561970356, 27.206210263162806 ], [ 85.3965623587344, 27.202300912781613 ], [ 85.396127877559366, 27.201096013216425 ], [ 85.396276190741361, 27.200090605220634 ], [ 85.39728504406429, 27.197675586684994 ], [ 85.398141690287488, 27.197233952299666 ], [ 85.399333733376793, 27.196619651188264 ], [ 85.401346280519334, 27.196655930259034 ], [ 85.402691976036834, 27.196782378090884 ], [ 85.40512253202975, 27.196753482188946 ], [ 85.406196320854107, 27.197126278702338 ], [ 85.409279792904243, 27.19700277672667 ], [ 85.414414691092844, 27.193352747014504 ], [ 85.415937654379263, 27.191435504844325 ], [ 85.418280060048602, 27.190134970873498 ], [ 85.421403067478067, 27.191104997104571 ], [ 85.422911413169345, 27.192025939271808 ], [ 85.427319071452942, 27.19263545579626 ], [ 85.428615924814537, 27.19144901987049 ], [ 85.433689028215014, 27.190438441485338 ], [ 85.434215415724324, 27.189483285060984 ], [ 85.437765305585415, 27.187294662160738 ], [ 85.439351532538936, 27.187395741164572 ], [ 85.442457194519761, 27.187011825324387 ], [ 85.443583474400768, 27.18748755105555 ], [ 85.445711517782016, 27.186960257272247 ], [ 85.446616209916726, 27.187032140423501 ], [ 85.450051816783017, 27.184127017033383 ], [ 85.449483465263654, 27.180460147066338 ], [ 85.453382451527375, 27.177417043391422 ], [ 85.452503853489404, 27.175603315821423 ], [ 85.452924317516647, 27.168429399096045 ], [ 85.457214112163797, 27.166146921398266 ], [ 85.463189192410468, 27.16662166276253 ], [ 85.467491708764229, 27.165665254692634 ], [ 85.468719345098606, 27.16329717284664 ], [ 85.472578304578207, 27.161853488534721 ], [ 85.474073341647639, 27.162672502173319 ], [ 85.48020571808442, 27.162935077553691 ], [ 85.486202275327457, 27.164416979707035 ], [ 85.494056007427574, 27.169923865931928 ], [ 85.495184970870227, 27.173679362207309 ], [ 85.500942734407289, 27.175782205322591 ], [ 85.503139488710019, 27.173653492830535 ], [ 85.502156621908384, 27.170353770802919 ], [ 85.499667800117763, 27.168434401565062 ], [ 85.50374070008084, 27.165454857563581 ], [ 85.502682834971097, 27.162558160911082 ], [ 85.495625310990235, 27.163238486528968 ], [ 85.492129007424012, 27.160778336716213 ], [ 85.489520036871255, 27.154613406066236 ], [ 85.491223636096322, 27.154089980117163 ], [ 85.495704324389607, 27.146545536453054 ], [ 85.501036434238372, 27.14355195135369 ], [ 85.509649242961757, 27.143424851513348 ], [ 85.51259582257282, 27.141978465264444 ], [ 85.515962429065596, 27.142663771069614 ], [ 85.521228461164426, 27.140864953616578 ], [ 85.528094756090042, 27.140406980178206 ], [ 85.532352840403178, 27.142585730024699 ], [ 85.532969188495215, 27.146102489503615 ], [ 85.534680610334121, 27.148128274352107 ], [ 85.537541662355295, 27.148609277756591 ], [ 85.544674866688368, 27.14471286475581 ], [ 85.547166647618852, 27.142451106286408 ], [ 85.549343363859876, 27.142347275702544 ], [ 85.549766927620297, 27.145719857438738 ], [ 85.554627331348229, 27.146733345826707 ], [ 85.555432561136499, 27.145593335290069 ], [ 85.556453113447702, 27.145651096651985 ], [ 85.561253131956491, 27.14447102928132 ], [ 85.562720562861287, 27.144540109369547 ], [ 85.563890165917556, 27.144211407535973 ], [ 85.565620950457685, 27.143626800050885 ], [ 85.569497536367209, 27.142021693081592 ], [ 85.569415448434853, 27.140721369944249 ], [ 85.570262183921017, 27.13903122151406 ], [ 85.570026729844429, 27.138288846251463 ], [ 85.570956318900656, 27.137120652719954 ], [ 85.575273448343111, 27.139777048751718 ], [ 85.579077369654655, 27.143693699373767 ], [ 85.581862504208758, 27.14368124557684 ], [ 85.582911751862497, 27.143166183390516 ], [ 85.584176033328859, 27.142673622684693 ], [ 85.588354979130344, 27.142945853649486 ], [ 85.590215495068279, 27.14244111619028 ], [ 85.591307171961077, 27.142059542820579 ], [ 85.592377800543218, 27.141113644311638 ], [ 85.594685757105623, 27.140640598785865 ], [ 85.596488988932592, 27.14219267743831 ], [ 85.597189757166689, 27.142921623949906 ], [ 85.599709099683693, 27.143623602337147 ], [ 85.600371139459327, 27.143539933011546 ], [ 85.603034200762892, 27.141766133969231 ], [ 85.603586090876846, 27.140528565500194 ], [ 85.607667324328489, 27.13957865366265 ], [ 85.610388630396258, 27.140772029143928 ], [ 85.611104525068868, 27.141331865958257 ], [ 85.612007712919251, 27.141631853924014 ], [ 85.613278361739546, 27.141477450767976 ], [ 85.617437591516406, 27.140205443879179 ], [ 85.619680324057143, 27.138876098500781 ], [ 85.620081897405328, 27.138823672179274 ], [ 85.621087369953031, 27.139832973727213 ], [ 85.621477872330047, 27.140270003694361 ], [ 85.622507103965432, 27.140677171683375 ], [ 85.624511111501349, 27.139661294559353 ], [ 85.626585742675573, 27.138255765735803 ], [ 85.629769341541802, 27.13742957839051 ], [ 85.631556836329978, 27.138444204677231 ], [ 85.63233664614306, 27.139692606314231 ], [ 85.633458465159137, 27.141354976688476 ], [ 85.638656828531083, 27.142181612605171 ], [ 85.639905336563331, 27.142949439602177 ], [ 85.641738237150904, 27.142152727735741 ], [ 85.64793360263846, 27.14566439111929 ], [ 85.650525161668142, 27.150625617023344 ], [ 85.656065593857889, 27.1550803734319 ], [ 85.662445234286182, 27.156170130316188 ], [ 85.665593519772273, 27.161761309276095 ], [ 85.669616007880819, 27.164039797116896 ], [ 85.67107726658891, 27.166469917267161 ], [ 85.677533904350327, 27.167191958235243 ], [ 85.681717748607952, 27.169354334089885 ], [ 85.685661687713207, 27.174539749660681 ], [ 85.685990542975162, 27.176455959575158 ], [ 85.690128972994899, 27.177767035452355 ], [ 85.693738119719129, 27.181051802148687 ], [ 85.694891843581885, 27.184099237391329 ], [ 85.698359285782814, 27.186064931627246 ], [ 85.705009372574722, 27.184975887084612 ], [ 85.714551062398215, 27.187800354215636 ], [ 85.717822686596264, 27.188234119099647 ], [ 85.72085110646421, 27.19105260539822 ], [ 85.722283287101931, 27.194420454233764 ], [ 85.725520040178694, 27.194887653107219 ], [ 85.733312977352838, 27.190730275377412 ], [ 85.737771647236102, 27.190481745436607 ], [ 85.741684621477162, 27.188023965566227 ], [ 85.7475489075849, 27.188353969712814 ], [ 85.748794653467172, 27.186675264398946 ], [ 85.759088656025185, 27.184675298331523 ], [ 85.763142980597252, 27.182522681160876 ], [ 85.768422353039398, 27.182390904386317 ], [ 85.773849598302817, 27.178370663277857 ], [ 85.788596826141003, 27.173483464552056 ], [ 85.793204943417919, 27.168762709753963 ], [ 85.798491902947561, 27.167393480690588 ], [ 85.805697401534161, 27.164041459345206 ], [ 85.809251172361812, 27.161630544428434 ], [ 85.814201596727543, 27.161085861603368 ], [ 85.8200284644508, 27.163790466963839 ], [ 85.822585311372976, 27.167087903450188 ], [ 85.825337110308723, 27.168433079130811 ], [ 85.830688434264772, 27.167175966295737 ], [ 85.835290769455497, 27.16407144281327 ], [ 85.843486652620612, 27.160032998891953 ], [ 85.840607115583268, 27.155880507954716 ], [ 85.839756107184229, 27.15259516082677 ], [ 85.834582539284014, 27.149373424500784 ], [ 85.83834495308399, 27.144763708310244 ], [ 85.841216773356507, 27.144309108386405 ], [ 85.845540025735886, 27.140937916378011 ], [ 85.84894034546204, 27.140180664531893 ], [ 85.853670084100557, 27.137929379738818 ], [ 85.854814136836296, 27.134146047034452 ], [ 85.858018679134048, 27.132933519903485 ], [ 85.861980335516364, 27.127422261928697 ], [ 85.866131723034471, 27.130745347648805 ], [ 85.867075826949517, 27.131831454242089 ], [ 85.867590871547861, 27.132458282057609 ], [ 85.868301192438409, 27.133601129766344 ], [ 85.86958649970606, 27.134780171223078 ], [ 85.871684562158805, 27.136604293777062 ], [ 85.872853023536237, 27.137112267903557 ], [ 85.874543816817265, 27.139424902879789 ], [ 85.875877367038186, 27.140638129602163 ], [ 85.877010641720545, 27.141330836750605 ], [ 85.878969366422893, 27.14223091408034 ], [ 85.87953409597614, 27.142664072416562 ], [ 85.880162942483722, 27.143079733363113 ], [ 85.882249801587193, 27.145742968738634 ], [ 85.882726915687073, 27.14627011728647 ], [ 85.885214479318236, 27.145554409328948 ], [ 85.886294019733967, 27.145824653119405 ], [ 85.889777191172271, 27.142641680660912 ], [ 85.890611226963188, 27.141664593665421 ], [ 85.890875261824803, 27.141326003081229 ], [ 85.891326455673934, 27.141180648423497 ], [ 85.892542109508071, 27.141147358914569 ], [ 85.898069774758838, 27.137393720804454 ], [ 85.900746934949609, 27.136855125257359 ], [ 85.901215828529573, 27.136003708577356 ], [ 85.909054806746525, 27.132696318954736 ], [ 85.912071296198974, 27.1322210983929 ], [ 85.91391966535474, 27.129848339504775 ], [ 85.919762857789095, 27.128844275027436 ], [ 85.921355305241846, 27.127333622887612 ], [ 85.929970029638255, 27.125355378144128 ], [ 85.938129041346556, 27.121437360559003 ], [ 85.938217893053618, 27.118971955803634 ], [ 85.935898252778287, 27.11020250814386 ], [ 85.937019928145276, 27.106693525489817 ], [ 85.944129610362452, 27.092081626553405 ], [ 85.948078672572933, 27.088223783898918 ], [ 85.95048348328875, 27.088189826601766 ], [ 85.9502228551804, 27.083930387561356 ], [ 85.955603518960359, 27.084245698411408 ], [ 85.962187630065927, 27.079470668056199 ], [ 85.961792738566515, 27.076715093376208 ], [ 85.963214874124986, 27.073230675807775 ], [ 85.965335395969419, 27.073859967523401 ], [ 85.96678397580115, 27.069879344366882 ], [ 85.966134806650615, 27.067047459713439 ], [ 85.967811431564726, 27.065496249912474 ], [ 85.969690714784164, 27.061040363444139 ], [ 85.970620138170418, 27.055817154278156 ], [ 85.969810408567852, 27.053904685427671 ], [ 85.971656499840762, 27.049875010556196 ], [ 85.974868112421362, 27.04523472480917 ], [ 85.981949224628266, 27.037260610808417 ], [ 85.982485350045479, 27.03686740449886 ], [ 85.982572091838165, 27.036714544475021 ], [ 85.982484070736817, 27.035263234115842 ], [ 85.984070386642927, 27.034119424145459 ], [ 85.985760059317585, 27.033204283119922 ], [ 85.986047477594937, 27.032310617042693 ], [ 85.98610336724137, 27.031243774985153 ], [ 85.987173899290767, 27.028952370664111 ], [ 85.988144357620385, 27.027842422516585 ], [ 85.988985955464599, 27.026846774614238 ], [ 85.989822734013359, 27.02621196966421 ], [ 85.991152829940177, 27.025239952730246 ], [ 85.992607154852948, 27.024499104868077 ], [ 85.993288129985586, 27.024413811166465 ], [ 85.998318684723685, 27.0231703168823 ], [ 86.000930695246495, 27.021234906453135 ], [ 86.005244113969496, 27.022050655445224 ], [ 86.012464488295933, 27.018692259695726 ], [ 86.015304336291706, 27.020167425978187 ], [ 86.021609653131563, 27.019347227850105 ], [ 86.025493121589122, 27.020482004068342 ], [ 86.026513235637466, 27.020601885322421 ], [ 86.027537421889988, 27.02022537310555 ], [ 86.028983105196573, 27.020348136145639 ], [ 86.030170690982374, 27.020775992899665 ], [ 86.031362912190431, 27.020669147084448 ], [ 86.033109124964454, 27.02048712959288 ], [ 86.034046067486869, 27.020360406316918 ], [ 86.035152986627935, 27.020289055950592 ], [ 86.036857145164703, 27.019973549589377 ], [ 86.038304707936931, 27.019868395356411 ], [ 86.043244000552107, 27.019802732923942 ], [ 86.045456205641273, 27.020068183541341 ], [ 86.04861311971915, 27.019360798448794 ], [ 86.049063192902324, 27.019018523708599 ], [ 86.052281592979526, 27.018600301537216 ], [ 86.055265147659995, 27.018236820636815 ], [ 86.056542417094207, 27.018283712642649 ], [ 86.058669570893002, 27.018546162144602 ], [ 86.061649052580151, 27.018717196368186 ], [ 86.065648524161361, 27.018969427816536 ], [ 86.066584400064798, 27.019050123683858 ], [ 86.069905467260355, 27.018970560780126 ], [ 86.070480455257751, 27.018936010871325 ], [ 86.070714550023538, 27.018917203917376 ], [ 86.073525310219253, 27.018777887854156 ], [ 86.075418748240736, 27.018864724064024 ], [ 86.07652629234552, 27.018792998781066 ], [ 86.07674039248171, 27.018641015786788 ], [ 86.077250699493206, 27.01870076896013 ], [ 86.08199796010733, 27.018382063417018 ], [ 86.083102126021586, 27.018486260010505 ], [ 86.084584982456832, 27.019071232827358 ], [ 86.085774700882297, 27.019117373483098 ], [ 86.086709326917969, 27.019200131665539 ], [ 86.087731636489366, 27.018920173413136 ], [ 86.088494406479285, 27.019173351159104 ], [ 86.091645258493074, 27.018489713970467 ], [ 86.093178691402798, 27.018079963194669 ], [ 86.100071056285884, 27.017289335107581 ], [ 86.100583932944716, 27.016987995297054 ], [ 86.100927521230005, 27.016590786160982 ], [ 86.102461579451528, 27.016162849513709 ], [ 86.105890584101715, 27.015408535727875 ], [ 86.107255980418785, 27.014810236361559 ], [ 86.111847181386196, 27.01232796982222 ], [ 86.112188013731213, 27.012235358680798 ], [ 86.113636268701285, 27.011903787086705 ], [ 86.114999722649529, 27.011553590733101 ], [ 86.116195454163503, 27.010931603146421 ], [ 86.11747567378066, 27.010350675829947 ], [ 86.118583785786555, 27.01001691128106 ], [ 86.119588480982486, 27.009337300619269 ], [ 86.124117797289387, 27.007716206850979 ], [ 86.12577934332019, 27.007074416261062 ], [ 86.12718192998291, 27.006106087760745 ], [ 86.128459214095699, 27.005448417188344 ], [ 86.133761503868286, 27.003249574902405 ], [ 86.135102218036323, 27.00255159645199 ], [ 86.139152484359357, 27.0003381096449 ], [ 86.140729926261088, 26.999221797141043 ], [ 86.144763615874609, 26.997800052514659 ], [ 86.146171686243008, 26.997585219944614 ], [ 86.153911874005729, 26.993985667148252 ], [ 86.156768260546357, 26.993506382081861 ], [ 86.160982421919286, 26.992313120274542 ], [ 86.165097234143929, 26.990500911563892 ], [ 86.167191370505137, 26.988809721004564 ], [ 86.168532126409033, 26.98911552878544 ], [ 86.169773150654891, 26.989165670018206 ], [ 86.173177368121301, 26.987362573675483 ], [ 86.174252674497424, 26.986908569235663 ], [ 86.176388587720695, 26.986672875658208 ], [ 86.178411240502214, 26.984642713880852 ], [ 86.181015591663879, 26.984448024486646 ], [ 86.185847504888528, 26.982294107959465 ], [ 86.187362176790117, 26.982541986285064 ], [ 86.187684265327647, 26.982270828128957 ], [ 86.188517817133544, 26.977539572841408 ], [ 86.191268371854861, 26.978663206839077 ], [ 86.192347699993547, 26.977137359732101 ], [ 86.192358100152944, 26.975860285311132 ], [ 86.192392353731236, 26.975472382675964 ], [ 86.192562840240058, 26.975049172932536 ], [ 86.196176794099685, 26.972587825765476 ], [ 86.198081325980695, 26.971107238398279 ], [ 86.200187384922515, 26.970065490596124 ], [ 86.201514465206841, 26.969887965913525 ], [ 86.202339614181682, 26.969560946078047 ], [ 86.20343079766063, 26.968908271964359 ], [ 86.205982435583451, 26.967280020935153 ], [ 86.209366643050245, 26.966094119691014 ], [ 86.216281546419793, 26.96035193002459 ], [ 86.219015830526132, 26.956558310883988 ], [ 86.224825477237033, 26.952075366434464 ], [ 86.225581354823333, 26.950206669159765 ], [ 86.22871509066313, 26.949235557247903 ], [ 86.232585308438189, 26.950520258326577 ], [ 86.23515893621726, 26.949248101180018 ], [ 86.235281778570439, 26.947039735836093 ], [ 86.240850814389162, 26.940390916155316 ], [ 86.246115433041737, 26.937686680411893 ], [ 86.247553820295138, 26.93708057046344 ], [ 86.249884915097482, 26.935915212317102 ], [ 86.250676689849811, 26.935763676422514 ], [ 86.251690205884472, 26.934638605216183 ], [ 86.25300274599644, 26.933483541650144 ], [ 86.254299903179088, 26.932806685591299 ], [ 86.25548625920193, 26.932280439380602 ], [ 86.255589445131335, 26.931707866671267 ], [ 86.256051895248291, 26.931202606516663 ], [ 86.256586966831946, 26.930411185346465 ], [ 86.256999870541307, 26.929443090237321 ], [ 86.257834668388696, 26.927910864490862 ], [ 86.257207695234939, 26.927551073293138 ], [ 86.257276246027359, 26.924676765760619 ], [ 86.256879879597818, 26.923747341215027 ], [ 86.256972699054387, 26.922829423820577 ], [ 86.257246189479716, 26.921571789439142 ], [ 86.25855799283454, 26.919784844129108 ], [ 86.259684484088865, 26.919143169596488 ], [ 86.25925263789361, 26.914454388878223 ], [ 86.256460058567882, 26.911754580630681 ], [ 86.25240171719247, 26.911572966439085 ], [ 86.246246884721415, 26.915116613361295 ], [ 86.244303703009876, 26.912005918115639 ], [ 86.241960328109613, 26.905661939167075 ], [ 86.236111639459608, 26.903360482365496 ], [ 86.224523326821597, 26.903996795606172 ], [ 86.222113616686698, 26.899159370096498 ], [ 86.223958444955869, 26.892804211897431 ], [ 86.223240855356835, 26.889582671853368 ], [ 86.220997920446138, 26.888507541930768 ], [ 86.21810126201143, 26.890276337569169 ], [ 86.216329877599833, 26.892845581261987 ], [ 86.215899363412504, 26.896245836388161 ], [ 86.207932089109633, 26.89936711570628 ], [ 86.203690565690565, 26.900081107095136 ], [ 86.199966501600656, 26.905536313403861 ], [ 86.191945576775709, 26.904197735730268 ], [ 86.186856944014238, 26.906485824052279 ], [ 86.181231083603819, 26.91108794905141 ], [ 86.178532240828417, 26.914486166517676 ], [ 86.171075601502253, 26.919966183484551 ], [ 86.163186913188994, 26.924504588940795 ], [ 86.158529365792702, 26.92599762965488 ], [ 86.157488794257276, 26.929987509801329 ], [ 86.157089169606579, 26.929472923637604 ], [ 86.156246477100837, 26.925970531638427 ], [ 86.157378396935414, 26.922694277431653 ], [ 86.157812857470788, 26.921857483584194 ], [ 86.157483171704186, 26.920833381097736 ], [ 86.155990208986552, 26.919393920996932 ], [ 86.156006906563917, 26.918800598697729 ], [ 86.15690275531226, 26.917431859504276 ], [ 86.157426570582004, 26.917010842898343 ], [ 86.158431201621866, 26.916416537085158 ], [ 86.159037814557479, 26.916190067165097 ], [ 86.160296178552628, 26.91481664689816 ], [ 86.160769375492123, 26.914393004682452 ], [ 86.16182405302898, 26.914257096700872 ], [ 86.163640447248994, 26.91394296711373 ], [ 86.164322295784586, 26.913937978877062 ], [ 86.168619556086398, 26.913496276767418 ], [ 86.168793624650149, 26.912102840255731 ], [ 86.169405581342758, 26.910330694468282 ], [ 86.170513697474235, 26.909804696837941 ], [ 86.172001400967787, 26.908701006542607 ], [ 86.173941283363476, 26.908179897296986 ], [ 86.178515979893874, 26.90000238307006 ], [ 86.180093095841485, 26.899546699514016 ], [ 86.181744687225319, 26.89980901628552 ], [ 86.183108426870348, 26.900764642046532 ], [ 86.18473009465076, 26.900543813496064 ], [ 86.186466713178589, 26.898956295055182 ], [ 86.186597015316025, 26.898634450643438 ], [ 86.186622793573335, 26.897104773659425 ], [ 86.1867049770498, 26.896780241184487 ], [ 86.187114676622997, 26.89663144863243 ], [ 86.187049600149635, 26.89469505605015 ], [ 86.189224508180459, 26.894475174107807 ], [ 86.192622195017236, 26.894208066662756 ], [ 86.19455644519752, 26.894074610598246 ], [ 86.198372608203741, 26.892318391611653 ], [ 86.199160898051815, 26.89145866812796 ], [ 86.199802898487292, 26.890406271722828 ], [ 86.200045824024571, 26.889450922612518 ], [ 86.200244367295994, 26.889127142000685 ], [ 86.200540952368328, 26.889185266799615 ], [ 86.201256725283926, 26.889602304378929 ], [ 86.203208239940821, 26.888661044931656 ], [ 86.204438083885279, 26.888442334691515 ], [ 86.205984268585823, 26.887882409838099 ], [ 86.207789544292169, 26.887330676071336 ], [ 86.208918097382167, 26.886705250056536 ], [ 86.20968344252357, 26.886339482577121 ], [ 86.211393047863979, 26.885563766994686 ], [ 86.212932805303751, 26.88455025707967 ], [ 86.213801384440444, 26.884306855515344 ], [ 86.21407297633165, 26.884193307557108 ], [ 86.214877946111017, 26.883595311237535 ], [ 86.217054308858366, 26.882537878289487 ], [ 86.218079178350479, 26.882378846878957 ], [ 86.223345996241193, 26.882114520352513 ], [ 86.224204390948145, 26.88178756349901 ], [ 86.224758008120958, 26.881693581008776 ], [ 86.22664109092976, 26.880914118652605 ], [ 86.227682276406881, 26.880484361416318 ], [ 86.228278218536389, 26.879521893787878 ], [ 86.229235299161985, 26.878649361731583 ], [ 86.230069897426091, 26.877697209662482 ], [ 86.230884745750728, 26.87686673402418 ], [ 86.231915758191931, 26.87580284508368 ], [ 86.232533438098798, 26.875293962778319 ], [ 86.23417798389913, 26.87478840977397 ], [ 86.234250417961789, 26.874497749131837 ], [ 86.234222682049108, 26.873992168289313 ], [ 86.235312503613486, 26.872720923622801 ], [ 86.237340783534563, 26.870563460284597 ], [ 86.238582837321417, 26.869191477035365 ], [ 86.241060570923523, 26.866438448721425 ], [ 86.242259433938258, 26.865497239233743 ], [ 86.243999098279275, 26.864705525559302 ], [ 86.246865616930435, 26.863847586494444 ], [ 86.250232595682334, 26.867798418977301 ], [ 86.251561661514742, 26.8683153955036 ], [ 86.254789025667208, 26.869625396190994 ], [ 86.257574092717604, 26.872977271849003 ], [ 86.258523648468085, 26.873354566885727 ], [ 86.261811250759109, 26.874856489169336 ], [ 86.262547957532462, 26.875318398195297 ], [ 86.264191897966469, 26.876886162271635 ], [ 86.265715878963775, 26.877252842833016 ], [ 86.266566453724806, 26.877336224662457 ], [ 86.267243486827979, 26.877506720911132 ], [ 86.267578814283738, 26.877688960424035 ], [ 86.268604154047679, 26.878962365164 ], [ 86.269971609884507, 26.881525974262605 ], [ 86.272656542596678, 26.882941081693218 ], [ 86.274523980132656, 26.883241711331646 ], [ 86.278404882656176, 26.884613217590076 ], [ 86.282414421122667, 26.884649406343048 ], [ 86.283207806387978, 26.885188247044795 ], [ 86.285544043544064, 26.886172574205641 ], [ 86.28579613313353, 26.88629344275077 ], [ 86.286427670162695, 26.88656061722407 ], [ 86.286936664353846, 26.88665118023485 ], [ 86.288557077334971, 26.886677392490416 ], [ 86.2894996444452, 26.886551294363453 ], [ 86.290739173053396, 26.886413077267907 ], [ 86.29185578345114, 26.886118621905592 ], [ 86.292759046436885, 26.885836474393216 ], [ 86.293190743806377, 26.885658122343287 ], [ 86.293777049545369, 26.885309162930188 ], [ 86.298832256726044, 26.885699837942173 ], [ 86.299281525890763, 26.884964222855285 ], [ 86.307197934942423, 26.881738202312849 ], [ 86.308775028775827, 26.882357424054465 ], [ 86.309910996562152, 26.882789467435003 ], [ 86.312356592424237, 26.880867615378396 ], [ 86.313630639228734, 26.879639557520502 ], [ 86.315196692759685, 26.879261304580421 ], [ 86.316756089914634, 26.880433164789736 ], [ 86.318669852647815, 26.879835437031957 ], [ 86.319599052925511, 26.879402115801149 ], [ 86.320143614940733, 26.879014409111729 ], [ 86.320746290754158, 26.878800688047061 ], [ 86.322790086624835, 26.878799222372368 ], [ 86.323970925116626, 26.879156835587054 ], [ 86.325583398505842, 26.879336034264373 ], [ 86.326013595340797, 26.87919367902078 ], [ 86.327021781275533, 26.878954779466508 ], [ 86.328208747960474, 26.8791206597013 ], [ 86.329058761178416, 26.879163045190197 ], [ 86.33096788691067, 26.879172138845803 ], [ 86.332376076077452, 26.879273590971792 ], [ 86.336528771580831, 26.879884294137696 ], [ 86.339329649318216, 26.880213312024676 ], [ 86.341926072931841, 26.879620720280467 ], [ 86.343441015708052, 26.878880873410388 ], [ 86.344564942053282, 26.878378374057061 ], [ 86.346298922595906, 26.877454484588309 ], [ 86.350112787006225, 26.878081305710072 ], [ 86.353110468611135, 26.877594148909839 ], [ 86.353799320983427, 26.877367117976764 ], [ 86.355762268367982, 26.876602155838242 ], [ 86.357361148396706, 26.875350355529587 ], [ 86.358003633801943, 26.875028332196699 ], [ 86.358769659419011, 26.875002472318105 ], [ 86.359448506563197, 26.875089101059086 ], [ 86.360129105128522, 26.875096611806754 ], [ 86.362259206405227, 26.874898664974939 ], [ 86.36534360536244, 26.872439496038186 ], [ 86.367008683068022, 26.873284074488563 ], [ 86.367320696794266, 26.873671358071988 ], [ 86.369682161242778, 26.875590853423898 ], [ 86.368698509466569, 26.877032834772002 ], [ 86.369491465244408, 26.880186382488386 ], [ 86.370736093903304, 26.881216375041145 ], [ 86.371224828058132, 26.881915759066505 ], [ 86.372075890056166, 26.882610024623194 ], [ 86.372629059136486, 26.883029934375763 ], [ 86.372749853607715, 26.883138801802303 ], [ 86.373570368583941, 26.883282302917117 ], [ 86.373922379388631, 26.883559159409959 ], [ 86.374319675715753, 26.887839163632727 ], [ 86.374485387265921, 26.888645407810547 ], [ 86.377027982649579, 26.892138329943855 ], [ 86.377064248936449, 26.897116204014399 ], [ 86.382952298419809, 26.90285310940585 ], [ 86.382679534155557, 26.908226755819737 ], [ 86.394851756736017, 26.90832007720822 ], [ 86.396528447401792, 26.909663049447502 ], [ 86.401154311497478, 26.908227378886934 ], [ 86.404016095763566, 26.909656488482398 ], [ 86.407444825305376, 26.907182076916175 ], [ 86.413607090163495, 26.906887394115437 ], [ 86.423366898661143, 26.902996839029253 ], [ 86.42824339739316, 26.902531524688239 ], [ 86.433387566997396, 26.898213117113418 ], [ 86.438414912538249, 26.895175657113363 ], [ 86.440292546404763, 26.894998079406335 ], [ 86.445320588971953, 26.891504597116661 ], [ 86.451919473903061, 26.88874363922324 ], [ 86.456872667423468, 26.887463023110886 ], [ 86.467080473248089, 26.886903932052192 ], [ 86.470936826366525, 26.887814291883267 ], [ 86.478352549798473, 26.887683866039719 ], [ 86.480126089058103, 26.886708856907177 ], [ 86.477404710897147, 26.882919207439166 ], [ 86.479632193587889, 26.875864679174327 ], [ 86.479558637418293, 26.873041551686367 ], [ 86.481720234178098, 26.869894990399018 ], [ 86.487795415528439, 26.868193180360084 ], [ 86.49287746647046, 26.863985136854346 ], [ 86.493209191737009, 26.860125482446268 ], [ 86.493338750979987, 26.859476041839553 ], [ 86.494469175683435, 26.859022038410924 ], [ 86.4955599421627, 26.857419322994097 ], [ 86.496094888838371, 26.85663821332453 ], [ 86.50120326776144, 26.857488912136635 ], [ 86.503764389976453, 26.856608907891161 ], [ 86.50457160461373, 26.856259764773366 ], [ 86.505293417899935, 26.854718850176379 ], [ 86.505344480184732, 26.854412128052324 ], [ 86.505550044207155, 26.853063500298408 ], [ 86.505727840394002, 26.85273690706364 ], [ 86.505720980308254, 26.852068965772741 ], [ 86.50530073071296, 26.84870306759985 ], [ 86.506297824676707, 26.846969049637121 ], [ 86.508257643219807, 26.84642531810843 ], [ 86.509046541836994, 26.846358087349515 ], [ 86.511469343298842, 26.846732032833781 ], [ 86.511904673195858, 26.846178463931775 ], [ 86.512073673235605, 26.845127496830429 ], [ 86.510971983867606, 26.843122217301335 ], [ 86.511350447883288, 26.842487154611344 ], [ 86.514202542459529, 26.841120510607603 ], [ 86.515544503578738, 26.843575754585686 ], [ 86.518538455057296, 26.842191427046597 ], [ 86.519953964128234, 26.838928800717404 ], [ 86.51973258807368, 26.83737555872931 ], [ 86.520594920808847, 26.834036617250895 ], [ 86.52006269828253, 26.833053257333578 ], [ 86.519804809739028, 26.832321317414859 ], [ 86.519635410230563, 26.831562506355716 ], [ 86.522588024187016, 26.831628925372847 ], [ 86.52437033850714, 26.832390888399832 ], [ 86.525109177905421, 26.832479080616562 ], [ 86.526691165221322, 26.832197819600839 ], [ 86.53062823081585, 26.831437015591359 ], [ 86.535520776760933, 26.831638205561287 ], [ 86.536370972246331, 26.83193650617341 ], [ 86.53738852774201, 26.831910525659936 ], [ 86.537373012796778, 26.832718266796579 ], [ 86.537441925483179, 26.833472201595882 ], [ 86.538043722049622, 26.833474149097597 ], [ 86.540469667594692, 26.835898789179463 ], [ 86.54271236529317, 26.836382159553057 ], [ 86.544573495501695, 26.836494181167087 ], [ 86.547508859000899, 26.836690900999599 ], [ 86.548376311673167, 26.836540241434953 ], [ 86.551580914905543, 26.835557569645147 ], [ 86.552019926928821, 26.835238542653478 ], [ 86.552217324544046, 26.832939810823614 ], [ 86.551409009649745, 26.832115869669821 ], [ 86.553399763073273, 26.831510644116591 ], [ 86.554188512963918, 26.829601887955373 ], [ 86.553629951136458, 26.827084100096638 ], [ 86.552756461206741, 26.826070487027781 ], [ 86.552699977530864, 26.825643773626279 ], [ 86.552417337198492, 26.825150999713316 ], [ 86.551837669516544, 26.824826455971479 ], [ 86.551867136412838, 26.823244783165684 ], [ 86.552328154532617, 26.82249929406812 ], [ 86.551896419766805, 26.821475751841501 ], [ 86.551991329329866, 26.819242137505967 ], [ 86.553494898364207, 26.815559736967693 ], [ 86.553281070847177, 26.814624878113275 ], [ 86.551728540105429, 26.813812110882068 ], [ 86.55077785285269, 26.813743663333018 ], [ 86.55028398643266, 26.813421620821693 ], [ 86.550117827973139, 26.813069149027807 ], [ 86.549867002334125, 26.812274027252098 ], [ 86.546975727539873, 26.807573516981659 ], [ 86.544815910425839, 26.806305217081622 ], [ 86.545094519627142, 26.805329057677024 ], [ 86.545429774950819, 26.802994643731054 ], [ 86.542028464687874, 26.800167585005536 ], [ 86.541843375398997, 26.799614130572408 ], [ 86.540926494718292, 26.799617927253955 ], [ 86.540730340964245, 26.79922683334976 ], [ 86.540383968183036, 26.798291597282059 ], [ 86.539980263542645, 26.798635497708862 ], [ 86.539799528714653, 26.799034334567335 ], [ 86.538890264470766, 26.799399224610049 ], [ 86.537598789667484, 26.800256939839379 ], [ 86.536680834990761, 26.800815812668105 ], [ 86.534495180140866, 26.797929342228549 ], [ 86.535390255463781, 26.797720188240199 ], [ 86.535991310523997, 26.797322733355461 ], [ 86.536192731476277, 26.796860902387593 ], [ 86.533556194728234, 26.794121848860669 ], [ 86.53238724246232, 26.793143165233996 ], [ 86.530411402936551, 26.791798500190772 ], [ 86.530127827176344, 26.791210859604181 ], [ 86.530340304267995, 26.79098363317966 ], [ 86.531082841457959, 26.79055962051104 ], [ 86.53127597750769, 26.78883177577362 ], [ 86.536744749084335, 26.786627124497326 ], [ 86.536310977307892, 26.784396250914927 ], [ 86.548167359872338, 26.78194791639536 ], [ 86.550990586591311, 26.78639319808504 ], [ 86.55633222959834, 26.78813401020172 ], [ 86.557562650054351, 26.79024765758053 ], [ 86.565384361967361, 26.788209406546798 ], [ 86.565021707889926, 26.782909991489618 ], [ 86.568482784645695, 26.781607289550053 ], [ 86.570792800237129, 26.784403395204709 ], [ 86.573230532393183, 26.785022256996744 ], [ 86.577944558581422, 26.784314273976179 ], [ 86.576981359202406, 26.781921780576873 ], [ 86.577225706739725, 26.775759951532091 ], [ 86.572641491479004, 26.769777650040844 ], [ 86.568850708431711, 26.768060236986852 ], [ 86.567816172692233, 26.764263865790511 ], [ 86.566112849797861, 26.763410224570844 ], [ 86.563284803494241, 26.759326285859547 ], [ 86.558184708748158, 26.753768438371623 ], [ 86.557814362287814, 26.751722861947464 ], [ 86.55326780028831, 26.747125626865515 ], [ 86.55611873241557, 26.744584648317144 ], [ 86.563016652675799, 26.744321787809739 ], [ 86.567188763927291, 26.742926418368501 ], [ 86.569736917048516, 26.740670972109765 ], [ 86.573924332425889, 26.739582388470357 ], [ 86.571732189092543, 26.733187538444398 ], [ 86.572925403174835, 26.730472047204085 ], [ 86.571745053731675, 26.724644351857791 ], [ 86.57357815142025, 26.720524932226603 ], [ 86.577476491982964, 26.718839646067178 ], [ 86.579851040449626, 26.716693937142772 ], [ 86.580355924007165, 26.713145882351114 ], [ 86.58304590220699, 26.712397868452292 ], [ 86.581203355729912, 26.708152397786428 ], [ 86.583161182012958, 26.704281458322615 ], [ 86.583271096654343, 26.70170249918819 ], [ 86.585728922367522, 26.700725876427395 ], [ 86.588334152288027, 26.697436584258089 ], [ 86.595662457674024, 26.697026681420638 ], [ 86.598790598390607, 26.697739671612236 ], [ 86.600875282634505, 26.699871144632187 ], [ 86.604938078928569, 26.693315913850974 ], [ 86.607205956551951, 26.691043089205419 ], [ 86.611118108120337, 26.689354678509186 ], [ 86.613498826905996, 26.693969063582784 ], [ 86.616555530533631, 26.695107890234521 ], [ 86.621251641609206, 26.693470925812285 ], [ 86.625094389216429, 26.690615303960769 ], [ 86.627594194731913, 26.690348869604058 ], [ 86.628208031229804, 26.694342341891492 ], [ 86.631198322335564, 26.694702110866459 ], [ 86.634230534563258, 26.698564198081648 ], [ 86.643478360957971, 26.69718410070065 ], [ 86.649541353408651, 26.689757105254269 ], [ 86.652229589504856, 26.691634360976963 ], [ 86.656730753666352, 26.691663372130975 ], [ 86.657617091163971, 26.693915314476374 ], [ 86.658150887213637, 26.694370158591369 ], [ 86.659349764643679, 26.695760869323188 ], [ 86.659906304132392, 26.696387261266125 ], [ 86.659866488756862, 26.696770789426733 ], [ 86.660104257491255, 26.697382864727132 ], [ 86.661218894306458, 26.698847755020822 ], [ 86.661519096065021, 26.699286284112173 ], [ 86.661798300935175, 26.69970662694427 ], [ 86.663725875731316, 26.702067077397857 ], [ 86.664112063506138, 26.702638908744664 ], [ 86.664457563479132, 26.703476903537155 ], [ 86.664760318535969, 26.704337395629935 ], [ 86.665819683349355, 26.704215736762066 ], [ 86.666538657687639, 26.703962458680181 ], [ 86.66815717634212, 26.701982722393808 ], [ 86.668896712120073, 26.701652826385342 ], [ 86.669073043929487, 26.69964256832888 ], [ 86.66982772123103, 26.69843256232673 ], [ 86.670192971653734, 26.696151956190789 ], [ 86.670241883283595, 26.694105386645933 ], [ 86.670367060570001, 26.693816851591151 ], [ 86.670703960746735, 26.693508509362335 ], [ 86.671402871555244, 26.693428903192324 ], [ 86.672205277010136, 26.69296364512363 ], [ 86.672539248506808, 26.692253588101206 ], [ 86.678523950126063, 26.690247615577384 ], [ 86.679301618810712, 26.689306148879805 ], [ 86.684127138056851, 26.688281195627845 ], [ 86.68482536350578, 26.688104535468188 ], [ 86.687183103669426, 26.688858821756373 ], [ 86.688902995249862, 26.689327497295906 ], [ 86.691833719894078, 26.690250028550583 ], [ 86.692966420843106, 26.691525248363174 ], [ 86.693653682417789, 26.692670784499345 ], [ 86.694549425421556, 26.693410609774965 ], [ 86.695232635506954, 26.694057439605817 ], [ 86.696427021572561, 26.695064184027334 ], [ 86.697131727624907, 26.695769759068927 ], [ 86.697281890803779, 26.695997991588833 ], [ 86.698719780398633, 26.698302813731306 ], [ 86.70247758387832, 26.699278729378978 ], [ 86.702955304146371, 26.700710361854391 ], [ 86.704023524450932, 26.704431428433789 ], [ 86.704917086203267, 26.70488684114089 ], [ 86.705235169078861, 26.704923655812024 ], [ 86.705808778044783, 26.705112086517019 ], [ 86.705815197793598, 26.705915453620882 ], [ 86.705671268128526, 26.706431905850931 ], [ 86.705737315244036, 26.706754753638457 ], [ 86.705922724023296, 26.70697405004136 ], [ 86.708373647085224, 26.707369431973621 ], [ 86.709009067783157, 26.707212769017236 ], [ 86.709898955864148, 26.707034174808836 ], [ 86.710407454761992, 26.706915506362211 ], [ 86.712893623864488, 26.707281641471198 ], [ 86.71370656349157, 26.70809789614998 ], [ 86.71466306026295, 26.708282583695858 ], [ 86.715446587941599, 26.708067553382392 ], [ 86.719201479013364, 26.707869697064751 ], [ 86.720983436757223, 26.707780672668097 ], [ 86.721910596640924, 26.709303429797732 ], [ 86.722360156001329, 26.709645094957185 ], [ 86.7225511312176, 26.709643160873892 ], [ 86.723438336204325, 26.709272583479166 ], [ 86.724461569878372, 26.709667191247938 ], [ 86.725609480074425, 26.70981382289947 ], [ 86.728413423708247, 26.710022289789798 ], [ 86.733125521567615, 26.711902017489248 ], [ 86.738388587836369, 26.711884671064418 ], [ 86.74008160311989, 26.709617648805345 ], [ 86.739663614637394, 26.705722046011665 ], [ 86.742056193150489, 26.705035896927892 ], [ 86.742366410489595, 26.7017103189858 ], [ 86.753147396086035, 26.695232758226823 ], [ 86.752827909777778, 26.690626594332784 ], [ 86.7539842410566, 26.68853898462315 ], [ 86.756560387604495, 26.689425763187774 ], [ 86.760391510309177, 26.6955611027551 ], [ 86.763726340906985, 26.694901029944823 ], [ 86.769130603439038, 26.699529091051971 ], [ 86.771523434257332, 26.698736388857153 ], [ 86.775601512757817, 26.702479817503239 ], [ 86.781518383998602, 26.70176691841068 ], [ 86.784424503337291, 26.704867383516667 ], [ 86.789501969454705, 26.707781464523389 ], [ 86.792482635543948, 26.708212352588973 ], [ 86.79485484150868, 26.710494942857061 ], [ 86.797786769760407, 26.710650354273241 ], [ 86.799955757616047, 26.712673026385175 ], [ 86.805251138513015, 26.712369018479926 ], [ 86.808228133476092, 26.709098793655567 ], [ 86.813320060854323, 26.707850927579141 ], [ 86.815438309230146, 26.709688302628315 ], [ 86.818753948528368, 26.709331515578278 ], [ 86.823361307298072, 26.714292721724359 ], [ 86.834688836270317, 26.711318676260593 ], [ 86.836513802781027, 26.710560336479666 ], [ 86.83776528662159, 26.709550821413902 ], [ 86.83766313029507, 26.708706768680507 ], [ 86.837571147080695, 26.708478724603729 ], [ 86.837529042053674, 26.707794908845845 ], [ 86.838440876829807, 26.707053551951127 ], [ 86.838692097971204, 26.706875571854955 ], [ 86.839287793166605, 26.705811175376532 ], [ 86.839934927795682, 26.704340565393675 ], [ 86.839976070421173, 26.703257473563852 ], [ 86.840107693538641, 26.702540038719786 ], [ 86.839998932634884, 26.700773066783906 ], [ 86.840579048968877, 26.697627977450583 ], [ 86.8413604586502, 26.697100849529448 ], [ 86.841819239825199, 26.695767724251546 ], [ 86.84045962554103, 26.691799111417453 ], [ 86.84089788345365, 26.69168900356404 ], [ 86.841752408448855, 26.691170938591963 ], [ 86.842045882712412, 26.6905868698116 ], [ 86.84223891855963, 26.690661491571039 ], [ 86.843094521348704, 26.692363919462409 ], [ 86.844839402222703, 26.693189501931375 ], [ 86.84620152625024, 26.693734789928264 ], [ 86.84695868306126, 26.693491949168585 ], [ 86.847589192415498, 26.692136391285398 ], [ 86.850879243654859, 26.693148608839351 ], [ 86.851162949432663, 26.693496395706301 ], [ 86.850498065994216, 26.695018875866289 ], [ 86.850482487090105, 26.695887674437508 ], [ 86.850748940464484, 26.696454316822432 ], [ 86.85267432028806, 26.696223932466662 ], [ 86.853938280096529, 26.69627263732805 ], [ 86.85926312051339, 26.700655781734856 ], [ 86.861617103429978, 26.70177959852284 ], [ 86.864072866005586, 26.700883844104379 ], [ 86.864813331461562, 26.700925165663797 ], [ 86.865157912468746, 26.700889424698588 ], [ 86.865667851262785, 26.700652954162013 ], [ 86.865445998056131, 26.706869592876398 ], [ 86.866144305828186, 26.708707131241511 ], [ 86.866422195102714, 26.709278273429454 ], [ 86.866765189891467, 26.710368558717906 ], [ 86.867150757327039, 26.710720909432645 ], [ 86.87062514580299, 26.712380448475454 ], [ 86.872672114217039, 26.713120231201643 ], [ 86.873102503675966, 26.712750520992884 ], [ 86.876680047500699, 26.712351992262779 ], [ 86.877772703676371, 26.713029951559925 ], [ 86.881808087855447, 26.711465032950027 ], [ 86.883030058596674, 26.711256197213679 ], [ 86.88495141594349, 26.712108467952461 ], [ 86.886089722733203, 26.714241862951965 ], [ 86.8865792750248, 26.714671021227016 ], [ 86.888777729759681, 26.718066636256527 ], [ 86.889866351105283, 26.720405324901048 ], [ 86.894279821403927, 26.724233565019823 ], [ 86.898221824098783, 26.726479498291983 ], [ 86.904090317302789, 26.732093419380604 ], [ 86.903557630029212, 26.735328939031827 ], [ 86.910551199408189, 26.739305085585702 ], [ 86.911393677046419, 26.741083819100226 ], [ 86.908827837428404, 26.746258758688274 ], [ 86.908629797248068, 26.752276914996415 ], [ 86.909449745317147, 26.755576514707741 ], [ 86.908971039230735, 26.759360487083622 ], [ 86.910328673082475, 26.759467438557788 ], [ 86.911470451404313, 26.759975851107537 ], [ 86.913439872537339, 26.760468966741374 ], [ 86.915214183800586, 26.761440412067333 ], [ 86.919991528891131, 26.765972096812568 ], [ 86.920750982357205, 26.76645769229426 ], [ 86.921704981246236, 26.766559762266823 ], [ 86.922771231034432, 26.765937460209916 ], [ 86.923390597809998, 26.765482010822911 ], [ 86.925058162855592, 26.764000356992884 ], [ 86.925678281562199, 26.763450103432657 ], [ 86.927833815964462, 26.757511911345361 ], [ 86.924883825801118, 26.751582380553213 ], [ 86.924798495666863, 26.750000517800427 ], [ 86.93250975462864, 26.740729900892685 ], [ 86.93851187888518, 26.736458628673038 ], [ 86.944462367852793, 26.732986035534129 ], [ 86.946317132686517, 26.732720403256888 ], [ 86.948829567519667, 26.732202366932828 ], [ 86.95313074010275, 26.733088425854085 ], [ 86.956138576435279, 26.734170257850959 ], [ 86.961109403921185, 26.735437669923762 ], [ 86.962891164557632, 26.735812730261216 ], [ 86.966066186519072, 26.735966958977503 ], [ 86.968902615147044, 26.733774200066168 ], [ 86.969934635303133, 26.732411462293143 ], [ 86.970990112887577, 26.729974569057941 ], [ 86.972058106392311, 26.723794066584222 ], [ 86.97422720942204, 26.720420899552305 ], [ 86.975650362551079, 26.719234090576055 ], [ 86.978174688660999, 26.717887377092836 ], [ 86.981482475102197, 26.716563237640262 ], [ 86.982195899045578, 26.715789317747113 ], [ 86.982778965827194, 26.714972524361386 ], [ 86.983861145028285, 26.711714140981918 ], [ 86.983657237354691, 26.705709288502483 ], [ 86.984528420820681, 26.703531869254199 ], [ 86.988110717127128, 26.700081920693947 ], [ 86.990892014062368, 26.698543103423006 ], [ 86.991326612345773, 26.703002157860606 ], [ 86.994882404827834, 26.70281729787391 ], [ 87.000531071214212, 26.707517858602653 ], [ 87.003175012535195, 26.708828851897909 ], [ 87.007779348395331, 26.709020477086604 ], [ 87.013014346257378, 26.700740730104261 ], [ 87.013974867515472, 26.696843525467568 ], [ 87.014299923741575, 26.689322252166242 ], [ 87.011683511661516, 26.686472456541338 ], [ 87.01072796071125, 26.682961247478548 ], [ 87.012121527574664, 26.677222648919802 ], [ 87.013300977428884, 26.675333772119497 ], [ 87.012843836058352, 26.670100784819212 ], [ 87.007022969428675, 26.667023266352924 ], [ 87.004454604691702, 26.661657004304779 ], [ 87.002621441505738, 26.65994662242554 ], [ 87.002289811673791, 26.656331558121366 ], [ 86.994909066825869, 26.654095189244259 ], [ 86.991114092567472, 26.649595392747511 ], [ 86.991089319101079, 26.644982858500072 ], [ 86.988522922935459, 26.641067469488217 ], [ 86.988526908417711, 26.635856988015089 ], [ 86.985465906887327, 26.63402884533776 ], [ 86.985455890428199, 26.628992098384558 ], [ 86.978839890975024, 26.625236250778478 ], [ 86.979689132071499, 26.623415299697889 ], [ 86.986880105721013, 26.613132760349373 ], [ 86.989102438007293, 26.607468918967609 ], [ 86.988870310971038, 26.603102296903764 ], [ 86.984417798257581, 26.595578315953578 ], [ 86.982506155686849, 26.590421734081765 ], [ 86.98223431411661, 26.587564854241691 ], [ 86.983433296308633, 26.584026559223112 ], [ 86.991724886186176, 26.576264505225961 ], [ 86.992426002576011, 26.572389918489353 ], [ 86.989067427251584, 26.569950324107733 ], [ 86.981112362297253, 26.562701196317335 ], [ 86.973877522884806, 26.558092037668008 ], [ 86.972129144582581, 26.554196723192586 ], [ 86.968751200241627, 26.551587393385695 ], [ 86.966283310893544, 26.546712464700878 ], [ 86.961780898492947, 26.543572349548 ], [ 86.956842370472117, 26.542659282306541 ], [ 86.950904878538978, 26.537297836795343 ], [ 86.945660004301914, 26.53690103175807 ], [ 86.938643023783413, 26.534659607676975 ], [ 86.933289552246322, 26.533619169608919 ], [ 86.923615152807074, 26.523129983609856 ], [ 86.921140260749027, 26.518407729057397 ], [ 86.918614453945409, 26.515881094252997 ], [ 86.915972917273436, 26.510145487901177 ], [ 86.916077856201653, 26.509432427001784 ], [ 86.917859666129786, 26.504527510990744 ], [ 86.917347256091034, 26.503410162379154 ], [ 86.916341908043634, 26.502382797496921 ], [ 86.916357795819181, 26.501678734284745 ], [ 86.914015325654049, 26.49984047994986 ], [ 86.91256789569097, 26.499487486110635 ], [ 86.911461356282146, 26.499265674124079 ], [ 86.911015850627123, 26.499308287805018 ], [ 86.910712278235451, 26.498678587648378 ], [ 86.910899387490289, 26.498274688628193 ], [ 86.91078442087975, 26.497396763374187 ], [ 86.909905364907559, 26.496561258887436 ], [ 86.909877133060306, 26.495872943544491 ], [ 86.909659297557511, 26.495337986570217 ], [ 86.906596437509165, 26.492702539622876 ], [ 86.907004044777111, 26.491035129744972 ], [ 86.906339644099248, 26.490407360768437 ], [ 86.904094665804607, 26.488352314555325 ], [ 86.89318765524979, 26.487719496578727 ], [ 86.891623016047774, 26.486149919572316 ], [ 86.890142798576775, 26.481836333735881 ], [ 86.892637802200483, 26.478173446192738 ], [ 86.8917131921079, 26.47721813890897 ], [ 86.894580123195368, 26.468764613615065 ], [ 86.894055077142326, 26.462294419787863 ], [ 86.891428373588823, 26.461410077340858 ], [ 86.883791247380145, 26.460975297939576 ], [ 86.881697069989798, 26.458534163044817 ], [ 86.878089988341586, 26.457894720084013 ], [ 86.873546902462081, 26.454300456806518 ], [ 86.866500178207659, 26.454894285247427 ], [ 86.864377832849101, 26.457656695421633 ], [ 86.860249270191744, 26.456355114008229 ], [ 86.856995047537652, 26.451315061496089 ], [ 86.856047353277603, 26.44854972444341 ], [ 86.851782987464688, 26.44764041900855 ], [ 86.849689674802192, 26.448665044002645 ], [ 86.845913796898685, 26.448295387244109 ], [ 86.845539186565006, 26.443941886141648 ], [ 86.842908790751665, 26.440319345433711 ], [ 86.839239618363607, 26.441414250107748 ], [ 86.833429107607159, 26.439085542531732 ], [ 86.804456710361222, 26.446385164300551 ], [ 86.792550239084136, 26.450087389398153 ], [ 86.770716774176464, 26.458270492659114 ], [ 86.766285700939591, 26.459364572162286 ], [ 86.762543070783494, 26.455910248373499 ], [ 86.764128461539684, 26.451288991555394 ], [ 86.76040556225945, 26.451625774255255 ], [ 86.760249404365808, 26.448177385504529 ], [ 86.757153064616148, 26.447756932482175 ], [ 86.752756745228055, 26.445449872419363 ], [ 86.753062588357807, 26.442074422578838 ], [ 86.749262361786165, 26.440600987237101 ], [ 86.74725396286965, 26.436244459086517 ], [ 86.746453676387418, 26.430969156579248 ], [ 86.747182436010377, 26.428968781160872 ], [ 86.744224780933607, 26.427817144432048 ], [ 86.740734799946836, 26.424617677680157 ], [ 86.737364944143266, 26.42366601655603 ], [ 86.732579549827079, 26.424376998819227 ], [ 86.728402855659496, 26.426697975656527 ], [ 86.725069172665926, 26.426229023001241 ], [ 86.720139631039203, 26.434934616662215 ], [ 86.704884451647487, 26.436512971929321 ], [ 86.700323215033663, 26.437268454152324 ], [ 86.698547454671441, 26.442840937121431 ], [ 86.695820715843908, 26.444286139899948 ], [ 86.69607077447327, 26.448930863006165 ], [ 86.693366264785865, 26.451242677865267 ], [ 86.690281545692727, 26.450965212735905 ], [ 86.657940767183106, 26.458762612217907 ], [ 86.639610734156747, 26.463542261359091 ], [ 86.63848414985614, 26.465617748369791 ], [ 86.634442349007742, 26.466239313664403 ], [ 86.629523619456961, 26.468914309586417 ], [ 86.62613567084135, 26.46955763396312 ], [ 86.627602539289313, 26.475769427495827 ], [ 86.629270722213192, 26.477606169751361 ], [ 86.625861283229085, 26.480937071036465 ], [ 86.621592132109356, 26.481794549362764 ], [ 86.61853980185893, 26.483675333545204 ], [ 86.596905903931273, 26.490627174773657 ], [ 86.588611859389871, 26.493473911561644 ], [ 86.580649757875946, 26.493974296886908 ], [ 86.570268990183848, 26.496545335455085 ], [ 86.569378935471505, 26.498736003714502 ], [ 86.56462879599917, 26.502065945080528 ], [ 86.56359866708793, 26.505702671820369 ], [ 86.561376748488058, 26.509676536560573 ], [ 86.555169310443773, 26.515445489817097 ], [ 86.555631753716696, 26.518306059453906 ], [ 86.554431286080998, 26.524280015970486 ], [ 86.551698028029634, 26.523705083093535 ], [ 86.550372004049322, 26.527148946649554 ], [ 86.550619532638422, 26.530254803645143 ], [ 86.547911669882083, 26.53156183128646 ], [ 86.541839876904262, 26.538537930805756 ], [ 86.5314306823838, 26.540810307466995 ], [ 86.528169062881133, 26.542904881811719 ], [ 86.521763256954273, 26.543549280694062 ], [ 86.515721817987313, 26.539268429952262 ], [ 86.497300960296542, 26.542370725252557 ], [ 86.492559874084037, 26.546120129854639 ], [ 86.473895145119684, 26.556662893804489 ], [ 86.455490988197951, 26.56815864093986 ], [ 86.430443083033722, 26.572998048899827 ], [ 86.394976507509455, 26.585190638515005 ], [ 86.397225207857701, 26.591610987268805 ], [ 86.395993202737117, 26.59357348197457 ], [ 86.355866263528455, 26.604407176177642 ], [ 86.340911175615517, 26.606071719228147 ], [ 86.33902118441766, 26.608490975342963 ], [ 86.340579912293776, 26.611862704996575 ], [ 86.343048233468153, 26.614056115763901 ], [ 86.34253067606447, 26.617086528430484 ], [ 86.329380712866921, 26.61951409691174 ], [ 86.307860315892782, 26.620049630545356 ], [ 86.292875154777789, 26.613319223855697 ], [ 86.27563106650031, 26.617393517946603 ], [ 86.253274529590826, 26.61485443412483 ], [ 86.251101179953594, 26.615228865313462 ], [ 86.247843606169624, 26.612072901455036 ], [ 86.248397102785276, 26.608711393584755 ], [ 86.245262187139801, 26.609267917913154 ], [ 86.24019527715204, 26.603504965872332 ], [ 86.237696014127863, 26.601715769411477 ], [ 86.23517581626777, 26.596866529078728 ], [ 86.234306435527571, 26.593506497564995 ], [ 86.22882667584814, 26.5921929601808 ], [ 86.226889524485529, 26.590530699354037 ], [ 86.223741604111382, 26.591402633346245 ], [ 86.217285254146589, 26.588492470276165 ], [ 86.212971320087291, 26.591354710151943 ], [ 86.2074822413052, 26.593495056631461 ], [ 86.205718910562098, 26.596459267022826 ], [ 86.201875760228205, 26.5946596744643 ], [ 86.196711707946861, 26.593423385668697 ], [ 86.196586810469086, 26.601464801634961 ], [ 86.194986184918662, 26.608658455270135 ], [ 86.191545918540498, 26.609983782104369 ], [ 86.190201367129134, 26.611900966382724 ], [ 86.192253604273091, 26.614748999703281 ], [ 86.186590773075523, 26.615061941478441 ], [ 86.182475835709738, 26.613756738558475 ], [ 86.175972210066462, 26.615495041195597 ], [ 86.173814771242434, 26.614015823315768 ], [ 86.171554876165757, 26.617184319971305 ], [ 86.167691436216558, 26.614397564064468 ], [ 86.160882128871108, 26.614741171926276 ], [ 86.155070857505564, 26.609995306394691 ], [ 86.145776093707298, 26.608755137859003 ], [ 86.142178944990093, 26.605303694907562 ], [ 86.136035594097379, 26.606600042581658 ], [ 86.139499999068107, 26.616748081717073 ], [ 86.140937301839401, 26.61723737476493 ], [ 86.138694046197003, 26.628822006188585 ], [ 86.119387286576284, 26.630091515116611 ], [ 86.100740698966931, 26.637139089092749 ], [ 86.077537754354424, 26.647961131229842 ], [ 86.07347886271296, 26.650222740628799 ], [ 86.069919438838383, 26.657027395626582 ], [ 86.067987234975604, 26.657930846926753 ], [ 86.052876094299521, 26.660337825128572 ], [ 86.027002276878491, 26.666735900989153 ], [ 86.026554176757216, 26.665306832072083 ], [ 86.022348755033818, 26.663838330250783 ], [ 86.018744466548725, 26.661175755965289 ], [ 86.013657391735151, 26.660601286024782 ], [ 86.009819213858393, 26.65397461969205 ], [ 86.005872430763645, 26.656345658913189 ], [ 85.999811374294922, 26.654965056686247 ], [ 85.986822840298586, 26.65698954156856 ], [ 85.97604240829709, 26.658275127647485 ], [ 85.972994000234138, 26.654843755374142 ], [ 85.970026195861124, 26.655045689258777 ], [ 85.967627445273095, 26.65199791877701 ], [ 85.964392852563776, 26.652728051794611 ], [ 85.960763848765865, 26.651600467107034 ], [ 85.959059303103388, 26.649394758743522 ], [ 85.956626183911837, 26.649352097925533 ], [ 85.953352538161184, 26.643660046260326 ], [ 85.953944986185945, 26.639298315212784 ], [ 85.95244903018137, 26.637493449918498 ], [ 85.955582003835829, 26.630916642774011 ], [ 85.951426179218416, 26.624292908754427 ], [ 85.94946036337133, 26.624779271474569 ], [ 85.946148178978802, 26.62124615391534 ], [ 85.947714559062661, 26.617047299215852 ], [ 85.945585483895385, 26.612836948001867 ], [ 85.93999511417428, 26.614650072553875 ], [ 85.938039711718147, 26.616269210693883 ], [ 85.932738769801716, 26.613575986920996 ], [ 85.930651366714258, 26.616085232018655 ], [ 85.926398509708946, 26.611691550082245 ], [ 85.927160012608795, 26.60971173682713 ], [ 85.921831263572898, 26.610043808679457 ], [ 85.915281335582875, 26.608545397016975 ], [ 85.912493534516784, 26.604293413903463 ], [ 85.90964127308051, 26.604718392767207 ], [ 85.906348974289756, 26.603634872395471 ], [ 85.900274465545479, 26.599950786081234 ], [ 85.901242378129695, 26.598011035113739 ], [ 85.900445980961933, 26.594942979970021 ], [ 85.895999272260852, 26.593757824911574 ], [ 85.892252800684673, 26.594897476420471 ], [ 85.888332861420025, 26.586182243184759 ], [ 85.888028141019646, 26.583564718798986 ], [ 85.885459812317308, 26.582375844494738 ], [ 85.87981070495799, 26.583965113228508 ], [ 85.878243892734559, 26.581669352621024 ], [ 85.87575110147155, 26.581241350050483 ], [ 85.872294604894691, 26.578612400778251 ], [ 85.86905991458832, 26.577975217171662 ], [ 85.86854447280227, 26.575297382203495 ], [ 85.86424034544828, 26.57223283264209 ], [ 85.860112485443793, 26.570277438258255 ], [ 85.856853624126458, 26.572103787334317 ], [ 85.853252559342408, 26.570702977635413 ], [ 85.852344527255283, 26.568849938701739 ], [ 85.849080013178721, 26.568972562768995 ], [ 85.848333326915224, 26.57692916239322 ], [ 85.857759712959577, 26.589911420814921 ], [ 85.850995285184595, 26.608580041664659 ], [ 85.84605248369374, 26.609031984543957 ], [ 85.831204312412254, 26.611365664291892 ], [ 85.83100030401026, 26.603726334309336 ], [ 85.830399423586798, 26.601663631409117 ], [ 85.81751289497079, 26.602813884843396 ], [ 85.803329191124334, 26.614987770739823 ], [ 85.801396381976673, 26.624339665064539 ], [ 85.788984151271904, 26.626281043996375 ], [ 85.781913723429057, 26.628212947324442 ], [ 85.769293523265404, 26.629997336922479 ], [ 85.759687777361989, 26.636290127397938 ], [ 85.7491129228343, 26.63870649426427 ], [ 85.745426537362846, 26.641442443652203 ], [ 85.737739463597848, 26.648495197858097 ], [ 85.736807668414883, 26.650601059561513 ], [ 85.732223823029756, 26.654077741620469 ], [ 85.734938148598772, 26.657587912937014 ], [ 85.735637337329862, 26.662357065755099 ], [ 85.731991684382606, 26.665709023817413 ], [ 85.729923515744474, 26.665776297150451 ], [ 85.725378075968891, 26.6706067977251 ], [ 85.724902685871285, 26.674485572669887 ], [ 85.725250251294128, 26.684612496659049 ], [ 85.723456232975423, 26.687888303578017 ], [ 85.725203026089233, 26.693088809933702 ], [ 85.724487853724966, 26.703289647565981 ], [ 85.726414846678608, 26.706684566214228 ], [ 85.724931476516531, 26.709895446250037 ], [ 85.726194721723814, 26.711258283693823 ], [ 85.727877429201001, 26.718028587726778 ], [ 85.725917689765907, 26.720939611530387 ], [ 85.731422650841523, 26.730672715262433 ], [ 85.729544395123895, 26.733864278028946 ], [ 85.730473173901515, 26.735731752980868 ], [ 85.734065545773575, 26.737408662675261 ], [ 85.728737244890397, 26.749790607664664 ], [ 85.73258961336191, 26.765555588841522 ], [ 85.735089462570798, 26.77861216241379 ], [ 85.734433263900641, 26.795929620569797 ], [ 85.728555331036105, 26.802873536570399 ], [ 85.728705142474297, 26.808183756802112 ], [ 85.721238630075092, 26.82011051869106 ], [ 85.714200394102036, 26.824814113920098 ], [ 85.704276043409052, 26.832259294944855 ], [ 85.693244079791683, 26.836988323453287 ], [ 85.679402130872433, 26.84375237654541 ], [ 85.649571447893877, 26.851263481055948 ], [ 85.642360038922035, 26.853292685313907 ], [ 85.634401950943129, 26.872287249850441 ], [ 85.623466418434091, 26.87364089150423 ], [ 85.60741520916055, 26.857941149384818 ], [ 85.605830187259969, 26.856912465057231 ], [ 85.587978997648221, 26.848881764992289 ], [ 85.584764762203037, 26.850455949002189 ], [ 85.586366258437593, 26.85266496649032 ], [ 85.582498954734277, 26.858819296734321 ], [ 85.57817419365675, 26.856436251026178 ], [ 85.578165881839027, 26.859592471250465 ], [ 85.575327660847464, 26.861109353845464 ], [ 85.572058608507618, 26.856994978498289 ], [ 85.565704071546364, 26.841009355436757 ], [ 85.55763781697587, 26.844074579762317 ], [ 85.553402752007813, 26.834375183754261 ], [ 85.544216948812576, 26.837834292909729 ], [ 85.542426312919943, 26.837603784701209 ], [ 85.519802484968636, 26.814471722531369 ], [ 85.507490050064746, 26.816866938987122 ], [ 85.501933818273457, 26.814822906488839 ], [ 85.497789481966521, 26.811873414231652 ], [ 85.497058869475126, 26.803442149433504 ], [ 85.495535043842963, 26.801556417191769 ], [ 85.496910530977914, 26.799418878420539 ], [ 85.49558693334464, 26.79731891833454 ], [ 85.480380638220851, 26.802336106902874 ], [ 85.479151992097869, 26.802060174297399 ], [ 85.478868670611689, 26.794902241326696 ], [ 85.477938020931518, 26.792829597604356 ], [ 85.473670193974797, 26.790216386196558 ], [ 85.463870513989889, 26.788364144504889 ], [ 85.453655298802275, 26.781547648520515 ], [ 85.451630938305797, 26.781579676048967 ], [ 85.432580576767407, 26.790175487348606 ], [ 85.429010558326709, 26.786294899523394 ], [ 85.424335736719115, 26.786116403728538 ], [ 85.417811506204615, 26.790445979243266 ], [ 85.407712187645302, 26.791293494153695 ], [ 85.402772561541866, 26.782938343741364 ], [ 85.39777561471746, 26.778558902674771 ], [ 85.392097420895652, 26.775386281438646 ], [ 85.384228849629721, 26.774220260337017 ], [ 85.377072769859097, 26.762352573662213 ], [ 85.371105060599902, 26.758705802487132 ], [ 85.365302430528175, 26.759483829476189 ], [ 85.361605842938189, 26.76315407098317 ], [ 85.355015267352016, 26.760040555357051 ], [ 85.347847453079225, 26.753823118170622 ], [ 85.334318840661624, 26.741532993818002 ], [ 85.325150096645416, 26.745129655882799 ], [ 85.322107241501485, 26.74532502819455 ], [ 85.319352219047488, 26.748958287948316 ], [ 85.315277306894359, 26.749397747407272 ], [ 85.305541153645322, 26.752165911515519 ], [ 85.290574908477964, 26.753135590384453 ], [ 85.279373182151275, 26.753487508287449 ], [ 85.260305146402345, 26.755280550178767 ], [ 85.254108962761677, 26.758277624847565 ], [ 85.247778188131022, 26.760436334236321 ], [ 85.234397774002872, 26.762658552576596 ], [ 85.222518129154054, 26.760202959320573 ], [ 85.219150534983072, 26.758821716597886 ], [ 85.211783455218708, 26.75795311587969 ], [ 85.205902718563735, 26.761570453156608 ], [ 85.200506470850968, 26.768928841209355 ], [ 85.197516662526411, 26.76959261059903 ], [ 85.191654436909118, 26.782186901801758 ], [ 85.193572427402216, 26.782597145393567 ], [ 85.194763833531169, 26.785822627875916 ], [ 85.192077950444826, 26.791506206623733 ], [ 85.186611740403237, 26.790965481632373 ], [ 85.185992918258336, 26.79564336938704 ], [ 85.182391908370903, 26.794728144303942 ], [ 85.179429792989396, 26.798150731793008 ], [ 85.182441531896544, 26.800907596725793 ], [ 85.176759793408323, 26.809731787254382 ], [ 85.177009279450274, 26.81520118069129 ], [ 85.184875046196836, 26.822341982372183 ], [ 85.186885901317922, 26.825867450885571 ], [ 85.188994346018092, 26.827341228059204 ], [ 85.191181294903899, 26.831282474916879 ], [ 85.192737192849307, 26.838881949594956 ], [ 85.190701235909913, 26.847181743249266 ], [ 85.19102215651094, 26.852305230808899 ], [ 85.192841896358729, 26.863022807500897 ], [ 85.192592043290901, 26.866786094331857 ], [ 85.189872397241373, 26.870146003248369 ], [ 85.182905316766607, 26.869886354601697 ], [ 85.168043106261038, 26.868543366092052 ], [ 85.159632068694165, 26.86940009581566 ], [ 85.153735442778256, 26.870684764410452 ], [ 85.140019670947694, 26.871197691833743 ], [ 85.136290880298915, 26.869535531242267 ], [ 85.135146125006315, 26.867893096790446 ], [ 85.125131144594675, 26.87022492062971 ], [ 85.123717495006886, 26.871393607197586 ], [ 85.111153310546854, 26.872510561779745 ], [ 85.110811189241346, 26.871414466352789 ], [ 85.104821423329639, 26.870895106551846 ], [ 85.099502554697793, 26.871130627658196 ], [ 85.096098829532338, 26.867113806582438 ], [ 85.089124985076211, 26.867641525981107 ], [ 85.085833000409735, 26.866581568893139 ], [ 85.08570143121571, 26.864592556121586 ], [ 85.089423466572171, 26.8601212614826 ], [ 85.086674102436518, 26.858838270169322 ], [ 85.087451477299055, 26.856801650765711 ], [ 85.084560140768147, 26.855054948454921 ], [ 85.074432013664122, 26.856064138592956 ], [ 85.071334637689318, 26.854523977267281 ], [ 85.066458162370566, 26.854041944239476 ], [ 85.066029768210058, 26.851477477983416 ], [ 85.062851279688346, 26.849843011306923 ], [ 85.061738526664229, 26.854325595624612 ], [ 85.064660530611562, 26.856902912007858 ], [ 85.062710447873343, 26.858264510657687 ], [ 85.05675058056309, 26.853090440345579 ], [ 85.057419067514402, 26.849222669481993 ], [ 85.043488361562936, 26.851054477716602 ], [ 85.028472899464347, 26.854120222077022 ], [ 85.022025230723216, 26.85492961257529 ], [ 85.022164623387027, 26.856304992468733 ], [ 85.028762447749159, 26.859364072911379 ], [ 85.026610716163461, 26.866577335712577 ], [ 85.029909951928573, 26.867528052411011 ], [ 85.027877021715781, 26.871270313108159 ], [ 85.028937687115913, 26.87490875605873 ], [ 85.031543790039777, 26.874506207332733 ], [ 85.036844761666771, 26.875516574852782 ], [ 85.042100139058434, 26.875245555627675 ], [ 85.04273672452473, 26.879430818388389 ], [ 85.045388140659114, 26.878684675957082 ], [ 85.051759201154638, 26.880758340661831 ], [ 85.052112699659588, 26.884895978252427 ], [ 85.054248428017317, 26.884435552423763 ], [ 85.055823460027099, 26.881779438103543 ], [ 85.058154209239845, 26.885376592031335 ], [ 85.051352553264877, 26.887931821471017 ], [ 85.053197225687157, 26.889107183156419 ], [ 85.043493220909468, 26.890636771160853 ], [ 85.028975040325065, 26.891954865717466 ], [ 85.022530639671501, 26.891818902679216 ], [ 85.017567134104326, 26.893513174881129 ], [ 85.005322844483629, 26.894731251428844 ], [ 84.992724334530308, 26.903308605343973 ], [ 84.992982073386784, 26.905368988516226 ], [ 84.996581889876566, 26.906555313815733 ], [ 85.000377929197583, 26.904576798767849 ], [ 85.001756832818288, 26.909891909754474 ], [ 84.999519831620148, 26.912231729325903 ], [ 84.982661002020691, 26.914586133212154 ], [ 84.971686799063562, 26.915648056048752 ], [ 84.970277135421398, 26.920777390155187 ], [ 84.971845397993192, 26.922397832730866 ], [ 84.96941497912934, 26.925034185380298 ], [ 84.971838505318587, 26.926599271137647 ], [ 84.970175989350139, 26.929036153431113 ], [ 84.973402515588148, 26.931604224854539 ], [ 84.976218637150225, 26.932029230702032 ], [ 84.97821261220507, 26.935927852070613 ], [ 84.975359559054993, 26.938684562378196 ], [ 84.978275893586371, 26.940343022478647 ], [ 84.967118186868703, 26.955808034768619 ], [ 84.962650561507573, 26.960355685430709 ], [ 84.956839061598629, 26.961090217355505 ], [ 84.953086516137148, 26.959872392630796 ], [ 84.947543822241911, 26.962351085912534 ], [ 84.933509999189013, 26.967864377288414 ], [ 84.929289787494426, 26.968736109251651 ], [ 84.924036000167817, 26.96761762754209 ], [ 84.917248428504152, 26.969020334990507 ], [ 84.90994603324306, 26.96802968526239 ], [ 84.901675702383528, 26.970307541873989 ], [ 84.900029741353919, 26.969792312334956 ], [ 84.896577326413947, 26.97273405930915 ], [ 84.892079800726435, 26.972340649845655 ], [ 84.888734545829777, 26.975978648922311 ], [ 84.888657276315257, 26.977520197837407 ], [ 84.87810811857716, 26.979901322610939 ], [ 84.864770477574766, 26.984250603955612 ], [ 84.861900736861514, 26.987156238120885 ], [ 84.858865494612786, 26.988025363788054 ], [ 84.854886617979986, 26.992591582763342 ], [ 84.857820850571727, 26.99291447425804 ], [ 84.8575669120425, 26.997954395951179 ], [ 84.853166174846166, 26.99815937224756 ], [ 84.851219648853601, 27.003083215621832 ], [ 84.85469915348672, 27.008271994093075 ], [ 84.838463115907189, 27.014118722030073 ], [ 84.832486217296477, 27.017265724108825 ], [ 84.829726911422284, 27.019563164099253 ], [ 84.822616063029514, 27.021367081017583 ], [ 84.81675228252675, 27.020852911507504 ], [ 84.811232042213277, 27.015891519102059 ], [ 84.808665837118454, 27.018131029770259 ], [ 84.806930380820134, 27.014736180927951 ], [ 84.810730943646092, 27.014696305515468 ], [ 84.809861567173769, 27.010969312122008 ], [ 84.807706518097518, 27.012028621934142 ], [ 84.805563347800728, 27.006296225326437 ], [ 84.799073942146734, 27.003564556643539 ], [ 84.794764844698179, 26.999121449207792 ], [ 84.793818342128262, 26.995974652851856 ], [ 84.788556921143766, 26.998648645930995 ], [ 84.786307093736909, 26.998577805166274 ], [ 84.7888449406028, 27.0086991287322 ], [ 84.784103699511434, 27.008199850375497 ], [ 84.782522717153682, 27.011620270888631 ], [ 84.78264265185453, 27.014203104772822 ], [ 84.773359681558247, 27.017742708720988 ], [ 84.770971192931285, 27.017257152846192 ], [ 84.767265743701245, 27.013980888284056 ], [ 84.764711098552411, 27.01301999729257 ], [ 84.760852686277218, 27.005597162911904 ], [ 84.756761964144715, 27.002898028467598 ], [ 84.733071313255152, 27.013813253528735 ], [ 84.729111187352657, 27.014993587477626 ], [ 84.727609912421983, 27.013564129560791 ], [ 84.723417836296818, 27.013739112211649 ], [ 84.719712671145672, 27.015217923452845 ], [ 84.718912106287448, 27.017591199339591 ], [ 84.714059107638647, 27.021544334609743 ], [ 84.709600133200155, 27.021512644157792 ], [ 84.701436602692567, 27.027070397974867 ], [ 84.686310966872369, 27.030549793359743 ], [ 84.679919088513586, 27.032288915309216 ], [ 84.652086988545506, 27.043079776228524 ], [ 84.642849516499282, 27.046477519167262 ], [ 84.643155390841315, 27.050959560881655 ], [ 84.646337775032507, 27.051421068228393 ], [ 84.644359461910213, 27.058582898090172 ], [ 84.643103284949277, 27.060161300363944 ], [ 84.645292170761707, 27.06412929169883 ], [ 84.644721636257259, 27.066607186543518 ], [ 84.647166199466014, 27.075889956753535 ], [ 84.65211081085728, 27.078466427043008 ], [ 84.652491846986507, 27.080490939415064 ], [ 84.656602141495426, 27.07923530199054 ], [ 84.657303947892601, 27.081255944618427 ], [ 84.655545119774615, 27.084400574143114 ], [ 84.659032153535549, 27.0847384722741 ], [ 84.666225084389154, 27.087786809857967 ], [ 84.667588292874726, 27.093635557917345 ], [ 84.670177113359642, 27.098246560362544 ], [ 84.673419041383625, 27.09599724858704 ], [ 84.675427859055304, 27.101484101365298 ], [ 84.673793188495139, 27.105332294791168 ], [ 84.674218371440432, 27.109172832940803 ], [ 84.670865973715678, 27.107334133470346 ], [ 84.669911289828633, 27.110459214432886 ], [ 84.672453951045398, 27.113906070197608 ], [ 84.676991826961412, 27.115244895038821 ], [ 84.677015685538223, 27.119202416535821 ], [ 84.675269383845816, 27.120873740311996 ], [ 84.675611850437249, 27.123523321126481 ], [ 84.678910839432746, 27.127485329904783 ], [ 84.677838065144144, 27.129613748105225 ], [ 84.681428081193829, 27.139939504668792 ], [ 84.683578163320476, 27.143681327979813 ], [ 84.682714690573391, 27.148198223186032 ], [ 84.680721520573144, 27.151217859962479 ], [ 84.686441048388602, 27.15930159960433 ], [ 84.684362166955637, 27.160900174650887 ], [ 84.681523696398827, 27.159339083225692 ], [ 84.67674950306828, 27.163152793695073 ], [ 84.677220011723605, 27.16597998544929 ], [ 84.680441743304684, 27.167586703660035 ], [ 84.678841087948868, 27.170401364712799 ], [ 84.675470884875807, 27.171586394407971 ], [ 84.680811483718699, 27.175308393367587 ], [ 84.682326927922077, 27.177564089789769 ], [ 84.681503487681454, 27.180108724407809 ], [ 84.684964189369964, 27.181626204289294 ], [ 84.68138093840966, 27.183514167745709 ], [ 84.679477445975138, 27.186434064654236 ], [ 84.681816351332799, 27.188306745489616 ], [ 84.683533204150663, 27.197179290196644 ], [ 84.680641949822004, 27.200995279130463 ], [ 84.683254560506242, 27.203308799696252 ], [ 84.684274188383753, 27.205909895015829 ], [ 84.687288853116613, 27.209151026225381 ], [ 84.684635071823323, 27.212738039235379 ], [ 84.687671374733483, 27.215144183024659 ], [ 84.690784155978164, 27.214905502309733 ], [ 84.689391254292261, 27.219346020769336 ], [ 84.68956858741511, 27.223548709672801 ], [ 84.687329125464473, 27.223941015062575 ], [ 84.685241101727001, 27.226503128477336 ], [ 84.68570161654857, 27.229066343519865 ], [ 84.683276613097988, 27.232884589224099 ], [ 84.676493119564086, 27.246588507280961 ], [ 84.652992215197898, 27.289141331982364 ], [ 84.643021327100854, 27.306265518040046 ], [ 84.632124065979028, 27.323163022209979 ], [ 84.622772624733315, 27.335580826688094 ], [ 84.61882691466441, 27.337865935919442 ], [ 84.60869971832706, 27.336439345624569 ], [ 84.604310038993972, 27.336936733487466 ], [ 84.593517083259144, 27.340568241682067 ], [ 84.586487247225321, 27.341367374450826 ], [ 84.578029436213939, 27.344182366893438 ], [ 84.575246361504767, 27.344451112540686 ], [ 84.565037400786721, 27.347597423418385 ], [ 84.562382441397318, 27.347490829752669 ], [ 84.553499646339233, 27.349162168464098 ], [ 84.547705296809184, 27.348681810256309 ], [ 84.541589653458075, 27.349441148354131 ], [ 84.538299817856981, 27.350516688878773 ], [ 84.533604070239562, 27.350184959234753 ], [ 84.520806882293257, 27.353723820525961 ], [ 84.518147504026146, 27.352682248361887 ], [ 84.512684465429629, 27.353264237512892 ], [ 84.510754696341451, 27.354532594086528 ], [ 84.503733808693127, 27.35473184382084 ], [ 84.485890782564866, 27.358590162087854 ], [ 84.485704921633868, 27.35913910993894 ], [ 84.485661037086757, 27.359940287301082 ], [ 84.485304059254219, 27.361247914385739 ], [ 84.48412366651857, 27.363799417148943 ], [ 84.484538432312192, 27.366634168824827 ], [ 84.486005531042608, 27.367660224062313 ], [ 84.486292984855012, 27.368085690231631 ], [ 84.486519886381643, 27.368396228300668 ], [ 84.487164539108576, 27.369021244501152 ], [ 84.487614762522682, 27.370560738074218 ], [ 84.487705739459415, 27.371135750305115 ], [ 84.488414445822883, 27.371780828182008 ], [ 84.492987812789963, 27.373238142166251 ], [ 84.493671144906287, 27.374018707487163 ], [ 84.494024450673948, 27.375190732591953 ], [ 84.49383815964849, 27.375356089887099 ], [ 84.494520055274947, 27.376093721542855 ], [ 84.495343559771456, 27.376695492570796 ], [ 84.495556655768922, 27.376737617045105 ], [ 84.496970472791929, 27.376525032767368 ], [ 84.499282162683272, 27.376746985685546 ], [ 84.500500255248298, 27.376553021745259 ], [ 84.501068491307663, 27.376618712036599 ], [ 84.502182025409923, 27.376935075650305 ], [ 84.502413734460276, 27.377471218527599 ], [ 84.502552854952825, 27.38000230575523 ], [ 84.504081692577941, 27.381179098421388 ], [ 84.506068180368999, 27.381147069201578 ], [ 84.506393015014496, 27.381010523941235 ], [ 84.509961546905544, 27.38080122237076 ], [ 84.511196603026747, 27.382387411272052 ], [ 84.516247851820211, 27.383449580697445 ], [ 84.519872922400097, 27.384090453650284 ], [ 84.522007024628095, 27.3835929060469 ], [ 84.527317911290197, 27.382201112466426 ], [ 84.530453581030059, 27.381054263553612 ], [ 84.532491004778706, 27.384002279958381 ], [ 84.533489868108433, 27.384237649129378 ], [ 84.539754250593631, 27.386253251634457 ], [ 84.539526631273077, 27.387522196647524 ], [ 84.535870476035939, 27.391491533961293 ], [ 84.534944542658678, 27.397639029925219 ], [ 84.53445163483461, 27.399484294062177 ], [ 84.534553406063381, 27.400927915907886 ], [ 84.534728866040695, 27.401800465196352 ], [ 84.535823065094007, 27.40341852409211 ], [ 84.53745827805318, 27.40384319852604 ], [ 84.538686676287512, 27.403933209290926 ], [ 84.540791402488665, 27.403690450910151 ], [ 84.542029364310153, 27.403658535281522 ], [ 84.545873539658871, 27.40384207780972 ], [ 84.546888826767471, 27.404675206040658 ], [ 84.546380983204713, 27.406529594115753 ], [ 84.54640422582402, 27.406752886908365 ], [ 84.545501105495987, 27.409466254219378 ], [ 84.544962041643402, 27.409994073510319 ], [ 84.540222273686979, 27.411036844522524 ], [ 84.539526042124081, 27.411617156682805 ], [ 84.539262325128817, 27.411715206322679 ], [ 84.53411555305567, 27.412524804559308 ], [ 84.532437118159265, 27.414185004593378 ], [ 84.53728156606148, 27.416054973397092 ], [ 84.538097864410574, 27.4176695908181 ], [ 84.538779572916923, 27.418384412041203 ], [ 84.539526026861708, 27.418891440434429 ], [ 84.540660186057167, 27.419058567831417 ], [ 84.541721037053279, 27.419505668941063 ], [ 84.543434839864858, 27.417971520644485 ], [ 84.544409650449197, 27.417863920288305 ], [ 84.547363822789549, 27.417825281643488 ], [ 84.548047919515128, 27.417838415973556 ], [ 84.547817465273837, 27.426762922834364 ], [ 84.549933184442494, 27.43004422292023 ], [ 84.550846136582607, 27.432739182215599 ], [ 84.550994862342051, 27.436210997420879 ], [ 84.551691739659674, 27.437787553915566 ], [ 84.553051842050834, 27.439345872248428 ], [ 84.555475112304265, 27.441107376170887 ], [ 84.556195788050644, 27.443248007320825 ], [ 84.556584371855152, 27.445951707736377 ], [ 84.557081403889967, 27.447357651486421 ], [ 84.557331331433872, 27.449394097246621 ], [ 84.557188347948554, 27.449518708842863 ], [ 84.556581044684606, 27.449965659313186 ], [ 84.55684509683951, 27.451925299689112 ], [ 84.557835249124466, 27.453433054366222 ], [ 84.558332712388562, 27.45515934430966 ], [ 84.558056668246977, 27.456099068066603 ], [ 84.557820237579747, 27.457363513234462 ], [ 84.557679423540478, 27.458406479786785 ], [ 84.557786150211186, 27.458882126160805 ], [ 84.561653057976557, 27.463036187170648 ], [ 84.563001010204786, 27.462744234183173 ], [ 84.565268202030353, 27.463161481585491 ] ] ] } }
]
}
