{
"type": "FeatureCollection",
"name": "gandaki_boundary_wgs84",
"crs": { "type": "name", "properties": { "name": "urn:ogc:def:crs:OGC:1.3:CRS84" } },
"features": [
{ "type": "Feature", "properties": { "Province": 4, "TARGET": "Province4", "Level": 0, "DISTRICT": "गण्डकी प्रदेश" }, "geometry": { "type": "Polygon", "coordinates": [ [ [ 85.107955381635662, 28.346603977806012 ], [ 85.103119047016747, 28.3455649303828 ], [ 85.09515524908754, 28.344742562102926 ], [ 85.091146651440383, 28.345036344804114 ], [ 85.088368243298163, 28.346371490615446 ], [ 85.080549294179249, 28.345883219491913 ], [ 85.067370748586143, 28.339284915534385 ], [ 85.06605583446499, 28.337567174990802 ], [ 85.052993105733051, 28.327014357140662 ], [ 85.046657472881904, 28.325867482854278 ], [ 85.042135368777835, 28.317754020594105 ], [ 85.042652161676088, 28.315392680860935 ], [ 85.040095542720977, 28.310431277002341 ], [ 85.033245341083671, 28.303860074272297 ], [ 85.032727819359167, 28.302205965964106 ], [ 85.037082379454517, 28.295495583380021 ], [ 85.037992958258798, 28.291890550346327 ], [ 85.035091125539438, 28.287385099399604 ], [ 85.034868137966853, 28.285207605843205 ], [ 85.031825353811271, 28.27926390807955 ], [ 85.031236564272461, 28.272902288145779 ], [ 85.026942121797859, 28.261522250603338 ], [ 85.021403071228974, 28.260313895142048 ], [ 85.017234793976286, 28.258229016502273 ], [ 85.009703533800078, 28.255796614772283 ], [ 85.005906417624729, 28.255619319181896 ], [ 85.000776167427347, 28.252370155614809 ], [ 85.002690689081192, 28.248078950931482 ], [ 84.999129987395335, 28.244473095195794 ], [ 84.997781437080363, 28.240471936210149 ], [ 84.994115102467291, 28.243968184624663 ], [ 84.991604421202013, 28.244706076968601 ], [ 84.989602475161419, 28.242886522039029 ], [ 84.984443439464727, 28.23548610960826 ], [ 84.98255977272872, 28.234509292672033 ], [ 84.977061977403324, 28.226722972257384 ], [ 84.969148184428263, 28.222274247563334 ], [ 84.96725369146904, 28.219000763758068 ], [ 84.964732873021276, 28.217364996304045 ], [ 84.962081008465148, 28.212747809593392 ], [ 84.966924391852928, 28.205345809094279 ], [ 84.967531068690406, 28.201948626909651 ], [ 84.970629964946809, 28.199115808856096 ], [ 84.971132380186091, 28.193921412869866 ], [ 84.973498249118947, 28.191080208682834 ], [ 84.973352621218709, 28.189127633315309 ], [ 84.967976102902995, 28.18528102003825 ], [ 84.964076157219097, 28.177473664632874 ], [ 84.965377624294888, 28.173701715010807 ], [ 84.961909807948018, 28.168959338763194 ], [ 84.960591563461293, 28.162018071477885 ], [ 84.960924999072049, 28.15995376391362 ], [ 84.957244516418655, 28.155548916118128 ], [ 84.957166214370872, 28.149462966261968 ], [ 84.957923146620374, 28.147862685959119 ], [ 84.954199668770599, 28.143496396449258 ], [ 84.957023132418016, 28.139163334526479 ], [ 84.958483798701408, 28.133783970364007 ], [ 84.95691723013303, 28.132044352667801 ], [ 84.957163858776667, 28.127223918251016 ], [ 84.951830941793361, 28.124215542242975 ], [ 84.948420193536734, 28.124902425059645 ], [ 84.942476531210247, 28.122576914921233 ], [ 84.940931250058057, 28.124969798294813 ], [ 84.935439008628933, 28.126627184711101 ], [ 84.931498681069229, 28.125471850916867 ], [ 84.92881695766323, 28.126320293390478 ], [ 84.920767738720386, 28.116008472915905 ], [ 84.921582161909711, 28.108362053552266 ], [ 84.921279065643589, 28.105871149263656 ], [ 84.916296416683764, 28.10275078924564 ], [ 84.912891050606902, 28.103053207129175 ], [ 84.908988848311651, 28.1046898087085 ], [ 84.903640485514117, 28.105237360698915 ], [ 84.900086867329335, 28.106609804320154 ], [ 84.896978385224827, 28.10454337907013 ], [ 84.892449455574578, 28.099970720524365 ], [ 84.889205503990965, 28.103414106589803 ], [ 84.885381656975937, 28.105512042706454 ], [ 84.884107369708147, 28.109513409803672 ], [ 84.880995591953024, 28.112768502500391 ], [ 84.878267248354419, 28.113690625191662 ], [ 84.871483444196627, 28.117663843912894 ], [ 84.869368105689688, 28.120470180719209 ], [ 84.863020614591449, 28.121577353622612 ], [ 84.859042236771117, 28.120072738691299 ], [ 84.85469238741112, 28.122660496993163 ], [ 84.849597398916814, 28.118538913857133 ], [ 84.844376942812247, 28.116712183290144 ], [ 84.842097861195398, 28.114118319348197 ], [ 84.842458632495706, 28.110716320883839 ], [ 84.840336387789506, 28.108967382888611 ], [ 84.837149659690326, 28.104143268995546 ], [ 84.837846876790564, 28.101203983952811 ], [ 84.837016936096617, 28.094495265958436 ], [ 84.831809603582627, 28.089568191545084 ], [ 84.831511183508908, 28.084512082281105 ], [ 84.829037405558594, 28.080540652482572 ], [ 84.828248164059687, 28.076055983572562 ], [ 84.824999106909601, 28.069359413183776 ], [ 84.824396490734685, 28.066712268297639 ], [ 84.820925149421441, 28.063150535439569 ], [ 84.820647323759061, 28.056375144552298 ], [ 84.818486027663454, 28.054321483528927 ], [ 84.818501527771502, 28.048047426862194 ], [ 84.812130165178516, 28.042957348622405 ], [ 84.809500677735357, 28.037989381489886 ], [ 84.809468061972012, 28.034659619916042 ], [ 84.812616332073617, 28.031523204009495 ], [ 84.813414246968208, 28.027401214847053 ], [ 84.812376744049615, 28.025092719772399 ], [ 84.813107575157773, 28.022462344498628 ], [ 84.810078935471623, 28.018365229583114 ], [ 84.810155328434419, 28.013884323841548 ], [ 84.813283504867158, 28.009331223200856 ], [ 84.81132914362081, 28.002944707502348 ], [ 84.803852125338508, 28.000428003734651 ], [ 84.797416003735734, 28.002369600651761 ], [ 84.79690646923234, 27.998144724860147 ], [ 84.790765720701685, 27.998238806209258 ], [ 84.788068451021104, 27.995292154979662 ], [ 84.787783801534374, 27.989085149598164 ], [ 84.784871360710568, 27.986741940341936 ], [ 84.784066224571831, 27.983299301535197 ], [ 84.778826830442966, 27.981571624648044 ], [ 84.777284360036361, 27.977864623049292 ], [ 84.771461733837214, 27.97598876285749 ], [ 84.775159675276143, 27.973123143288564 ], [ 84.774721018383559, 27.971392917854793 ], [ 84.769150465798489, 27.96729788743772 ], [ 84.760711275890614, 27.967222947905807 ], [ 84.758235538569153, 27.96429917316749 ], [ 84.754501010808511, 27.962377350348028 ], [ 84.74654522845205, 27.960597760326639 ], [ 84.746532888060059, 27.955844315141704 ], [ 84.745568883689245, 27.953101672975261 ], [ 84.742064866159424, 27.949140850793292 ], [ 84.73981239953136, 27.943700057277926 ], [ 84.739548630391937, 27.937052841802984 ], [ 84.734439309073906, 27.933932980667592 ], [ 84.734204895033201, 27.931197599339392 ], [ 84.736433089686599, 27.928548311643592 ], [ 84.733109175551732, 27.927580159154303 ], [ 84.734231988864551, 27.916975135838612 ], [ 84.735099154385537, 27.915443100558907 ], [ 84.733226125535396, 27.907455293140465 ], [ 84.734007963717588, 27.904107608126466 ], [ 84.737626562030584, 27.897047053509411 ], [ 84.735718888463467, 27.893391103834592 ], [ 84.736679366507673, 27.891238126093437 ], [ 84.741502376335546, 27.889980440924006 ], [ 84.748838284565579, 27.886500246318619 ], [ 84.748465700031417, 27.883826544549034 ], [ 84.745919291461902, 27.880532926955887 ], [ 84.746955880188665, 27.878591618746146 ], [ 84.752539083629927, 27.875113896164144 ], [ 84.755092981980241, 27.86949813138126 ], [ 84.754232866392869, 27.865360616586837 ], [ 84.756033261644234, 27.861774843946336 ], [ 84.759344682305567, 27.859392298964142 ], [ 84.763732960921871, 27.860092242560381 ], [ 84.765660871846379, 27.858003711668683 ], [ 84.765350122435365, 27.853786525160945 ], [ 84.768038931761055, 27.85172975340004 ], [ 84.767560341510773, 27.843791025283466 ], [ 84.769932170191439, 27.84287089583794 ], [ 84.770357930095827, 27.839549764961141 ], [ 84.775958021150885, 27.83534467061552 ], [ 84.773116452983899, 27.829474405737415 ], [ 84.773717916063504, 27.824200828832474 ], [ 84.777421225525885, 27.818532961456683 ], [ 84.781935994192452, 27.815777593965269 ], [ 84.782391657993628, 27.813938579650749 ], [ 84.779348335667308, 27.812737452504649 ], [ 84.774845766735652, 27.808539385330761 ], [ 84.76928358234764, 27.810903271693327 ], [ 84.769437039974079, 27.815137141948515 ], [ 84.764643607499664, 27.818561444696272 ], [ 84.760119989984062, 27.81693945725538 ], [ 84.756647382317126, 27.8141000338127 ], [ 84.756258785340052, 27.809012424438645 ], [ 84.753847968351877, 27.806469428478259 ], [ 84.750512811227622, 27.805192553672192 ], [ 84.747575316682585, 27.805655215625119 ], [ 84.744929442387289, 27.804415098382801 ], [ 84.738573607613063, 27.803934854135143 ], [ 84.736748451607454, 27.798818662216579 ], [ 84.731868348785341, 27.795688305464544 ], [ 84.729509965273479, 27.796133915635885 ], [ 84.727276121446138, 27.800037528126825 ], [ 84.721958179408304, 27.801170904660694 ], [ 84.719221246503452, 27.803484215279401 ], [ 84.713826584339444, 27.800486776056616 ], [ 84.710225056599413, 27.800767006647082 ], [ 84.707960883755618, 27.802565496193616 ], [ 84.707133159719191, 27.806784164800508 ], [ 84.696696636021059, 27.808470598544982 ], [ 84.693085345588671, 27.809458952578531 ], [ 84.68505951807019, 27.810342746754241 ], [ 84.676865058359581, 27.815867806672173 ], [ 84.671133546270468, 27.817014863143669 ], [ 84.668033177464864, 27.81854148912139 ], [ 84.667453226794535, 27.823083632246831 ], [ 84.661291120009253, 27.828737837315693 ], [ 84.661097413111179, 27.83101069144362 ], [ 84.663277584239069, 27.836146449149929 ], [ 84.663986089349393, 27.840594370891075 ], [ 84.660715418812046, 27.849014121249866 ], [ 84.658724704056965, 27.851106088459726 ], [ 84.654834444127744, 27.852437657077139 ], [ 84.649132321001105, 27.852701481280601 ], [ 84.646881259076409, 27.85513516351838 ], [ 84.649872235851205, 27.858336046130589 ], [ 84.646315350162467, 27.860626908268355 ], [ 84.641908888658961, 27.859828536321668 ], [ 84.635969609616964, 27.86009291930171 ], [ 84.633732155367355, 27.863311468282376 ], [ 84.633807846838579, 27.868901776590555 ], [ 84.628494009682498, 27.871062685421894 ], [ 84.626778252438754, 27.873461941602823 ], [ 84.627375660932444, 27.877222485946834 ], [ 84.624857634599849, 27.879654726544739 ], [ 84.619877278677336, 27.880534506430305 ], [ 84.617954487580946, 27.879728674170096 ], [ 84.614231307148728, 27.875948270191969 ], [ 84.613076150106437, 27.872695546222687 ], [ 84.608136265922681, 27.871578069918929 ], [ 84.604899245012518, 27.872253333186809 ], [ 84.604021370020092, 27.874982635142093 ], [ 84.601686095347247, 27.876111871472137 ], [ 84.596040591508, 27.876303328313007 ], [ 84.589965705430885, 27.879740734901976 ], [ 84.584402204373077, 27.876089165652335 ], [ 84.580537188877514, 27.874395383419643 ], [ 84.576947234358343, 27.870931453093156 ], [ 84.57699373530393, 27.864253120266319 ], [ 84.573428014634985, 27.861438756571783 ], [ 84.567428361092198, 27.858936701653242 ], [ 84.558787278183786, 27.857965717112915 ], [ 84.556982727329185, 27.853690825535654 ], [ 84.558216684757326, 27.847544650528761 ], [ 84.556748809007928, 27.838460511458102 ], [ 84.555175757615146, 27.835815851029761 ], [ 84.549943948321967, 27.832858724338866 ], [ 84.545687472765067, 27.831763319563802 ], [ 84.541110798470228, 27.833396663127669 ], [ 84.532247232778516, 27.83304311961427 ], [ 84.525035558399864, 27.833415911201648 ], [ 84.520766288967664, 27.831462458924999 ], [ 84.52017726960274, 27.826893800333735 ], [ 84.520501137279155, 27.821901881674233 ], [ 84.518022192382233, 27.81677386922285 ], [ 84.512704486304898, 27.815496402080736 ], [ 84.508033641698162, 27.816896702940003 ], [ 84.502976508250597, 27.819706120416082 ], [ 84.495992475754718, 27.820863969809068 ], [ 84.492794241461226, 27.81942017571501 ], [ 84.488575023184694, 27.820885915222643 ], [ 84.480532514933671, 27.821609037593515 ], [ 84.474341735277918, 27.823629446410209 ], [ 84.465405225566485, 27.824115576452829 ], [ 84.466117215046125, 27.819826412861065 ], [ 84.464927640524209, 27.818936974863856 ], [ 84.454135045029844, 27.820439421864091 ], [ 84.445802348709705, 27.823171670790575 ], [ 84.443757143969108, 27.821971310210131 ], [ 84.441106146558283, 27.817483175112695 ], [ 84.438487966033534, 27.815740729706246 ], [ 84.435340143411068, 27.815274660685979 ], [ 84.432210616228062, 27.812360438366074 ], [ 84.430651961856455, 27.8020748444129 ], [ 84.430970382373346, 27.800778841521051 ], [ 84.429984272854767, 27.790694488079332 ], [ 84.431274550758658, 27.786888727072284 ], [ 84.43412681167456, 27.782929254058203 ], [ 84.439336581584527, 27.77847711196268 ], [ 84.448401315732099, 27.778443442551954 ], [ 84.455355055867358, 27.776462354088366 ], [ 84.460012231876192, 27.774183944507808 ], [ 84.467368328974672, 27.767201189278484 ], [ 84.4705600277467, 27.76092943033261 ], [ 84.471981972464846, 27.754097319578936 ], [ 84.468626086240562, 27.751886404926601 ], [ 84.464750262590002, 27.753205788317143 ], [ 84.460299144476096, 27.757514267759692 ], [ 84.457101217029148, 27.759541910134494 ], [ 84.449858750688634, 27.759060279264553 ], [ 84.447852115509903, 27.757223476744958 ], [ 84.441804326409894, 27.749134114289514 ], [ 84.43861653558001, 27.7440880835019 ], [ 84.433065578510551, 27.741222131811355 ], [ 84.427572096281878, 27.742464372380876 ], [ 84.422234512676994, 27.741431633422081 ], [ 84.423518077000097, 27.735791663000015 ], [ 84.425741507000026, 27.730629413000102 ], [ 84.427439811000042, 27.722695844000128 ], [ 84.430748557000072, 27.713195940000141 ], [ 84.431360294000143, 27.709676580000092 ], [ 84.430666710000139, 27.705888224 ], [ 84.427954736000103, 27.70376006200021 ], [ 84.408199188000125, 27.696457667000146 ], [ 84.394500711000106, 27.689121744000062 ], [ 84.386959656000101, 27.68555107600012 ], [ 84.380489154000131, 27.681598021000159 ], [ 84.378115975000142, 27.681322509000012 ], [ 84.372912385000191, 27.682900162000163 ], [ 84.369678341000125, 27.684767944000072 ], [ 84.363920622000052, 27.690349352000027 ], [ 84.362616818000177, 27.695600795000214 ], [ 84.360415126000092, 27.698045539999988 ], [ 84.354678827000015, 27.701198730000115 ], [ 84.348672898000203, 27.703185958000049 ], [ 84.343118470000164, 27.702064912000107 ], [ 84.337364794000166, 27.698976728000119 ], [ 84.32993420200016, 27.696566957000218 ], [ 84.326044009000071, 27.694489148000073 ], [ 84.324066064000107, 27.692264631000135 ], [ 84.32381692300001, 27.688370916000199 ], [ 84.32065048100003, 27.684443410000043 ], [ 84.309658130000102, 27.677904958000127 ], [ 84.305771370000031, 27.675986759000221 ], [ 84.297005576000032, 27.670556991000112 ], [ 84.292371671000041, 27.668366993000099 ], [ 84.275647422000148, 27.66358192100013 ], [ 84.270228348000117, 27.662568242000102 ], [ 84.261495324000165, 27.655852341000159 ], [ 84.258535551000151, 27.651473941000088 ], [ 84.256209806000186, 27.651054131000169 ], [ 84.250761782000069, 27.654186703000189 ], [ 84.241054553000069, 27.651855204000103 ], [ 84.234988532000074, 27.649297967000081 ], [ 84.230598301, 27.646148810000021 ], [ 84.22522735800014, 27.644510564 ], [ 84.218175437000113, 27.643605851000114 ], [ 84.212176852000184, 27.640688712000067 ], [ 84.20591378900005, 27.63841707199996 ], [ 84.201046452000114, 27.634313306000053 ], [ 84.194979586000144, 27.630186212 ], [ 84.190828670000059, 27.628479491000085 ], [ 84.184085468000077, 27.623766190000104 ], [ 84.174618090000124, 27.617751902000037 ], [ 84.167980860000029, 27.610458773000207 ], [ 84.159793327000173, 27.603627392000035 ], [ 84.149776338000123, 27.597404427000111 ], [ 84.141659328000159, 27.588877450000066 ], [ 84.135268070000166, 27.584590053000152 ], [ 84.129117346, 27.576863596 ], [ 84.126195088000159, 27.571369986000022 ], [ 84.125646948000096, 27.566122389000064 ], [ 84.11980002700011, 27.560042225000053 ], [ 84.11940021100007, 27.556407672000066 ], [ 84.114713579000082, 27.553347565 ], [ 84.107303155000139, 27.551769534000087 ], [ 84.100685181000031, 27.553906741000084 ], [ 84.090269486000039, 27.554721637000096 ], [ 84.083470020000021, 27.557686142000065 ], [ 84.074662154000094, 27.559568402000107 ], [ 84.070870823000192, 27.557435913000145 ], [ 84.067019003000169, 27.551815113000128 ], [ 84.064427167000119, 27.551398924000154 ], [ 84.057777233000039, 27.554962315000026 ], [ 84.052506591000039, 27.556564091999952 ], [ 84.049757460000038, 27.556341696000025 ], [ 84.045743910000141, 27.554134209999987 ], [ 84.043153190000183, 27.550854342999948 ], [ 84.041787538000165, 27.545349382000012 ], [ 84.038854267000033, 27.540582643000139 ], [ 84.036488553000041, 27.538769209000108 ], [ 84.031175099000052, 27.53726557800022 ], [ 84.025383745000141, 27.537151689000122 ], [ 84.019598682000122, 27.538152138000122 ], [ 84.014364033000163, 27.539881154000096 ], [ 84.008102661000081, 27.544019686000215 ], [ 84.005561234000211, 27.544823075999986 ], [ 83.997928611000091, 27.545452655000119 ], [ 83.992012934000101, 27.543478183000087 ], [ 83.986515846000017, 27.543748514000161 ], [ 83.981409559000028, 27.545270988000098 ], [ 83.974649562000167, 27.549633556000103 ], [ 83.969196831000119, 27.550591326000212 ], [ 83.957757266000129, 27.548451661000101 ], [ 83.954893050000109, 27.543608744000053 ], [ 83.947964222000053, 27.540181263000058 ], [ 83.939418946000174, 27.542138522000087 ], [ 83.932345137000112, 27.545379810999954 ], [ 83.924451325000135, 27.54464244800014 ], [ 83.920002043000068, 27.54118557000011 ], [ 83.918772858000054, 27.533084721000062 ], [ 83.920054561000143, 27.526442840000115 ], [ 83.922125564000169, 27.524966129000145 ], [ 83.922009269000057, 27.518122683000129 ], [ 83.925645286000076, 27.514785288000127 ], [ 83.930107600000156, 27.513097632000111 ], [ 83.935386203000192, 27.513544669999973 ], [ 83.941928604000168, 27.515788127000146 ], [ 83.94766107400001, 27.520163129000114 ], [ 83.950933395000135, 27.526515854000117 ], [ 83.956536327000094, 27.527131444000158 ], [ 83.96488366600002, 27.523259668 ], [ 83.969394638000054, 27.516110505000174 ], [ 83.968726783000122, 27.509767818000203 ], [ 83.966530077000087, 27.506265477000142 ], [ 83.957784160000045, 27.500421498999955 ], [ 83.941147241000095, 27.493908215 ], [ 83.938754290000077, 27.491587702000103 ], [ 83.938547939000145, 27.488433234000048 ], [ 83.940111364000089, 27.484627538000112 ], [ 83.941363305000024, 27.478872137999971 ], [ 83.943655475000142, 27.473582025000137 ], [ 83.944602930000116, 27.465847674000127 ], [ 83.942931857000133, 27.461555412000077 ], [ 83.939355888000108, 27.455177497000122 ], [ 83.935016544000078, 27.450904318000052 ], [ 83.933309776000073, 27.450614693999981 ], [ 83.916583332000087, 27.442620480000052 ], [ 83.908775605000045, 27.439986978000114 ], [ 83.8955577750001, 27.437822915000115 ], [ 83.892661409000084, 27.441216504000149 ], [ 83.889099339000055, 27.443555803000081 ], [ 83.887747337000093, 27.446573698000204 ], [ 83.887109826000199, 27.455144978 ], [ 83.889802659000154, 27.461717612000175 ], [ 83.883737796000077, 27.464054686000011 ], [ 83.885890864000061, 27.468510503000093 ], [ 83.886577509000119, 27.472667263000034 ], [ 83.885124609000158, 27.481030299000192 ], [ 83.881947012000055, 27.482067784000058 ], [ 83.878070160000092, 27.484988588000231 ], [ 83.874758137000057, 27.489723986000087 ], [ 83.880300661, 27.492553750000098 ], [ 83.883656897000051, 27.496198283000112 ], [ 83.886371485000126, 27.495609376000147 ], [ 83.890361645000041, 27.498825581999981 ], [ 83.897252140000049, 27.500288427000136 ], [ 83.891881750000138, 27.505857470000045 ], [ 83.886886426, 27.508540778000018 ], [ 83.880843181000117, 27.507750573000095 ], [ 83.875681501000074, 27.510658922000214 ], [ 83.876544411000069, 27.516047760000134 ], [ 83.87831678200007, 27.520401830000058 ], [ 83.881537646000112, 27.521492092000116 ], [ 83.882743138000208, 27.52337937700004 ], [ 83.88208915300001, 27.527275515 ], [ 83.878827490000049, 27.532432875999952 ], [ 83.875583688000063, 27.534889419000169 ], [ 83.871932763000061, 27.54015232600015 ], [ 83.869717462000168, 27.541896635999969 ], [ 83.862026174000079, 27.545176664000198 ], [ 83.858428952000168, 27.545829614000223 ], [ 83.853895776000073, 27.55070304400013 ], [ 83.850693859000089, 27.55905474200015 ], [ 83.847035633000104, 27.560411315000039 ], [ 83.841619617000148, 27.556291982000086 ], [ 83.842512529000132, 27.551247952000185 ], [ 83.841872338000016, 27.549299993000126 ], [ 83.83681737900018, 27.546282004000172 ], [ 83.837312652000037, 27.551580407000159 ], [ 83.832652618000111, 27.559837404999982 ], [ 83.833214076000033, 27.561476139999947 ], [ 83.831631645000101, 27.565722857000047 ], [ 83.839537352000079, 27.571970847000088 ], [ 83.841040611000025, 27.57420866600015 ], [ 83.836183478000052, 27.58580254600011 ], [ 83.833124906000108, 27.588019176000017 ], [ 83.831125684000071, 27.587366893000048 ], [ 83.827772393, 27.59006353699997 ], [ 83.823726268000158, 27.59209810500009 ], [ 83.820133300000052, 27.59254476200001 ], [ 83.814057418000047, 27.589332775000081 ], [ 83.808182710000153, 27.588749491000137 ], [ 83.809972506000094, 27.593654887000113 ], [ 83.80850259000016, 27.596276940000081 ], [ 83.806218319000067, 27.596964157000098 ], [ 83.80113375900001, 27.596201151000205 ], [ 83.798655542000049, 27.598699763000084 ], [ 83.790565687000111, 27.60511143900008 ], [ 83.789897871000093, 27.60669884800015 ], [ 83.794301353000108, 27.609771760000029 ], [ 83.797902869000026, 27.610029726999969 ], [ 83.799965985000199, 27.612568778 ], [ 83.797245733000196, 27.618710994 ], [ 83.798791671000032, 27.621048430000123 ], [ 83.805156703000165, 27.620861229 ], [ 83.804969181000104, 27.62340605800015 ], [ 83.801042965000136, 27.629474326000064 ], [ 83.802597579000164, 27.63239396000014 ], [ 83.804703294000035, 27.632658654000103 ], [ 83.809710329000168, 27.635276116000135 ], [ 83.810341595000168, 27.639994823000031 ], [ 83.808638236, 27.64120412600008 ], [ 83.806951587000171, 27.647848750000076 ], [ 83.809962800000179, 27.648450802000152 ], [ 83.812480755000067, 27.652996115000089 ], [ 83.80999417000011, 27.655210628 ], [ 83.811854975000159, 27.662415128000223 ], [ 83.806258648000124, 27.662915125000026 ], [ 83.799719469000053, 27.66555922700022 ], [ 83.793933474000141, 27.6664058150001 ], [ 83.784108771, 27.666970743000125 ], [ 83.775472559000079, 27.666253056000162 ], [ 83.768328753000162, 27.666615793000155 ], [ 83.763165852000114, 27.661277825000091 ], [ 83.759983126000023, 27.662619344000156 ], [ 83.758293198000175, 27.667469630000014 ], [ 83.755628936000178, 27.667022756000076 ], [ 83.744792069000155, 27.666872360000156 ], [ 83.740761365000068, 27.669739291000134 ], [ 83.733270620000141, 27.66932571800011 ], [ 83.731346224000077, 27.670763746999988 ], [ 83.727030981000169, 27.671041909000088 ], [ 83.725189074000099, 27.672504811000159 ], [ 83.720459064000067, 27.669941287000061 ], [ 83.71590754000006, 27.663467869000197 ], [ 83.709588926000038, 27.661065369000099 ], [ 83.705905018000053, 27.65895031900007 ], [ 83.703032278000208, 27.662206669000028 ], [ 83.69527019000013, 27.661998074000088 ], [ 83.698856627000126, 27.670017837000088 ], [ 83.699377004000112, 27.676291339000198 ], [ 83.700635232000124, 27.678541279000196 ], [ 83.704468342000013, 27.682141509000097 ], [ 83.700942634000157, 27.688352144000156 ], [ 83.694781721000126, 27.694254581000205 ], [ 83.691933952000127, 27.695475678000076 ], [ 83.689774189000047, 27.698225710000063 ], [ 83.689978195000052, 27.706540396000129 ], [ 83.682794248000107, 27.718233981 ], [ 83.681983555000087, 27.720966658000052 ], [ 83.691644683000092, 27.718813558000161 ], [ 83.694405299000067, 27.716331011000101 ], [ 83.701390184000061, 27.716125133000119 ], [ 83.70644502500005, 27.715362089000134 ], [ 83.715242479000011, 27.715326284000103 ], [ 83.718751447000088, 27.712061944000105 ], [ 83.721020456000147, 27.712156781000047 ], [ 83.723266820000035, 27.710074253000045 ], [ 83.72949518700014, 27.709617261000158 ], [ 83.732323287000014, 27.714223260000054 ], [ 83.739430387000084, 27.715082912000216 ], [ 83.745207228000126, 27.719179688000079 ], [ 83.751143341000031, 27.721029358000088 ], [ 83.756375659000057, 27.72021963400006 ], [ 83.759344598000126, 27.72237048300012 ], [ 83.763029745000125, 27.721681912000079 ], [ 83.768075124000049, 27.722324491000133 ], [ 83.773332582000208, 27.723892239000087 ], [ 83.777556581000027, 27.723941984000117 ], [ 83.782331736000145, 27.725095763000102 ], [ 83.786630045000081, 27.724743671000013 ], [ 83.792340962000182, 27.721914012000099 ], [ 83.796535274000121, 27.722159427000154 ], [ 83.801440198000051, 27.721365571000106 ], [ 83.804663638000136, 27.718335519000131 ], [ 83.809297309000101, 27.716349705000049 ], [ 83.810931253000106, 27.714355159999954 ], [ 83.815707695000071, 27.713540367000217 ], [ 83.821067971000033, 27.710727076000147 ], [ 83.825292782000091, 27.714148391000077 ], [ 83.833609115000115, 27.714039087000092 ], [ 83.838823604000183, 27.710933883000205 ], [ 83.842847632000058, 27.710864074000114 ], [ 83.846283074000098, 27.709538994999988 ], [ 83.848860629000114, 27.711658154000091 ], [ 83.844755099000054, 27.715762283000206 ], [ 83.844144780000093, 27.72711274600001 ], [ 83.841901252000099, 27.731178219000036 ], [ 83.84531028700016, 27.735112476000129 ], [ 83.851711593000104, 27.733312234000124 ], [ 83.859898793000184, 27.734496248000124 ], [ 83.866737205000049, 27.734006644000115 ], [ 83.869094565000054, 27.734724114000059 ], [ 83.875687713000062, 27.733351649000188 ], [ 83.878913248000046, 27.735251963000124 ], [ 83.880553562000046, 27.733509395000095 ], [ 83.883552508000022, 27.735095796000081 ], [ 83.884554598000165, 27.733183297000025 ], [ 83.887456979000049, 27.732274172000032 ], [ 83.888762343000053, 27.730253625000184 ], [ 83.893106682000067, 27.731335529000173 ], [ 83.895954764000166, 27.730099058000096 ], [ 83.89851751300003, 27.731926306000027 ], [ 83.90201876400009, 27.730360688000161 ], [ 83.904053776000069, 27.731905452999989 ], [ 83.904347478000034, 27.735711862000162 ], [ 83.907636495000119, 27.734793557000032 ], [ 83.906486395000172, 27.731638576000112 ], [ 83.913131770000135, 27.731126221 ], [ 83.915978816000163, 27.728470129000144 ], [ 83.919013391000149, 27.729597760000186 ], [ 83.921478366000088, 27.726796926000169 ], [ 83.924178068000174, 27.726863897000115 ], [ 83.924988075000144, 27.730699937000075 ], [ 83.928252262000129, 27.734212417000176 ], [ 83.944973097000101, 27.744249071000166 ], [ 83.951990554000119, 27.746683892 ], [ 83.960508389000125, 27.748349369000053 ], [ 83.964740786000107, 27.747143479000197 ], [ 83.971066456000173, 27.749829892999983 ], [ 83.972145721000032, 27.748056695000084 ], [ 83.976763615000024, 27.747588244000138 ], [ 83.981362034000099, 27.749278910000136 ], [ 83.98591476300011, 27.748099397000065 ], [ 83.994339264000203, 27.751538525000136 ], [ 83.992351426000042, 27.753636742000104 ], [ 83.994166253000188, 27.766510916000037 ], [ 83.999204614000064, 27.774732684000142 ], [ 84.000115002000072, 27.780817834000032 ], [ 83.999366593000062, 27.784542860000133 ], [ 84.000437183, 27.788773305000042 ], [ 84.005124553000059, 27.795672750000072 ], [ 84.012377044000161, 27.801256478000042 ], [ 84.013488597000034, 27.80381945 ], [ 84.015082797000133, 27.81173182000018 ], [ 84.020299715000121, 27.815625420000018 ], [ 84.022183649000041, 27.819070449000133 ], [ 84.024734387000052, 27.818277997000024 ], [ 84.026503876000177, 27.826163183 ], [ 84.026627167000171, 27.829687366 ], [ 84.025024461000072, 27.835283084000068 ], [ 84.022819539000068, 27.8367906020001 ], [ 84.020268238000099, 27.840892816000146 ], [ 84.022322851000183, 27.843557042999961 ], [ 84.022473924000167, 27.848498160000229 ], [ 84.026584916000132, 27.852944381000139 ], [ 84.028214256883146, 27.856484084820238 ], [ 84.022802700661089, 27.861168953254762 ], [ 84.017369108349712, 27.861354729449189 ], [ 84.015883761909024, 27.857126778052116 ], [ 84.021648290614948, 27.854691585848407 ], [ 84.020963762466479, 27.851120086944142 ], [ 84.015991355229843, 27.851486291265232 ], [ 84.007329448562359, 27.854650186257718 ], [ 83.999275762699625, 27.855101648989983 ], [ 83.99752920882743, 27.857017136432599 ], [ 83.997461023527975, 27.857378102661595 ], [ 83.99733594568292, 27.859056761000062 ], [ 83.996702055565549, 27.864277590326608 ], [ 83.995749351607415, 27.865240988574985 ], [ 83.995382520828684, 27.865484648444156 ], [ 83.994647857211191, 27.866087020229319 ], [ 83.994281589934417, 27.866274247726736 ], [ 83.993359147611898, 27.866416345942685 ], [ 83.987192098334248, 27.866199335276715 ], [ 83.986293970697631, 27.866057084663382 ], [ 83.98321388857245, 27.865661886661236 ], [ 83.981929623891986, 27.865571500535363 ], [ 83.979095928176932, 27.866135219249383 ], [ 83.977613868673188, 27.866500413816148 ], [ 83.975247478749623, 27.867429606406308 ], [ 83.974038185182465, 27.868331818851061 ], [ 83.973536861807204, 27.869128176549335 ], [ 83.973507164081326, 27.869872733541307 ], [ 83.973392791297556, 27.870556357287985 ], [ 83.971935885399319, 27.872525719166358 ], [ 83.970038591691306, 27.871686016828207 ], [ 83.969850875470343, 27.871225680778039 ], [ 83.966431845520162, 27.870464573430848 ], [ 83.962964400550433, 27.872144556346562 ], [ 83.960133397162807, 27.872439299543522 ], [ 83.959099901720691, 27.872867682633679 ], [ 83.958048101974015, 27.872993717887912 ], [ 83.957600415710573, 27.872779230625117 ], [ 83.956580065289629, 27.872063717726054 ], [ 83.955558087937277, 27.871461007066628 ], [ 83.953088006162957, 27.870063596772926 ], [ 83.951615400327114, 27.869514811954716 ], [ 83.950267333443122, 27.869331558337102 ], [ 83.948593178534196, 27.869488893914912 ], [ 83.947948574101872, 27.869637558242783 ], [ 83.947689543631029, 27.869768354982622 ], [ 83.947042623361938, 27.870108751875517 ], [ 83.946393012004251, 27.870656754886753 ], [ 83.941039347535352, 27.877382564058845 ], [ 83.936706358101432, 27.877613040590127 ], [ 83.932201430544666, 27.872505124113673 ], [ 83.925735434257732, 27.868318782094587 ], [ 83.924556466213474, 27.868327201152216 ], [ 83.920616806616962, 27.87146785702021 ], [ 83.913825530418407, 27.871141159883578 ], [ 83.911043687635441, 27.872513431134255 ], [ 83.910630045551386, 27.873025378464384 ], [ 83.910412069213777, 27.87330941191501 ], [ 83.910320259146943, 27.873826051140632 ], [ 83.9115072679176, 27.874907533252408 ], [ 83.912335144377693, 27.875602982526843 ], [ 83.91337098399373, 27.876779141280256 ], [ 83.911949191944927, 27.879099846794947 ], [ 83.910134036292746, 27.880289961548183 ], [ 83.90752536845055, 27.881109410562249 ], [ 83.902399028836953, 27.882317536574991 ], [ 83.899963970924759, 27.882712839210861 ], [ 83.898233691491328, 27.883244140057823 ], [ 83.892380854079548, 27.886150101061297 ], [ 83.889722028293605, 27.885766721069366 ], [ 83.889147548631271, 27.885436867421681 ], [ 83.885634806529453, 27.883347004613096 ], [ 83.884246756214765, 27.882574241511588 ], [ 83.883478174136968, 27.882417869211057 ], [ 83.882073048888358, 27.882421285379206 ], [ 83.881512625147437, 27.882339534418627 ], [ 83.880281963175818, 27.883053701160726 ], [ 83.880291005959677, 27.884030612588212 ], [ 83.880324549836601, 27.884777420275814 ], [ 83.880459009034681, 27.885984625165111 ], [ 83.877814693172851, 27.888274565159271 ], [ 83.877423493281171, 27.888382549501273 ], [ 83.873307343964399, 27.885642049309162 ], [ 83.862184376217456, 27.883036744644979 ], [ 83.860274415477051, 27.881207319744167 ], [ 83.861195614744318, 27.877397554463851 ], [ 83.860392965857841, 27.874405064205593 ], [ 83.857760959543526, 27.873463735375243 ], [ 83.851743617805312, 27.874465929535969 ], [ 83.850869895918294, 27.875834479719281 ], [ 83.851863753801666, 27.879648523198192 ], [ 83.850556830591557, 27.881497210798706 ], [ 83.845955061861133, 27.881882482118975 ], [ 83.844173242103977, 27.878302218178192 ], [ 83.847369905726751, 27.873549634967038 ], [ 83.845509686160909, 27.868525250951176 ], [ 83.839342254557621, 27.868728078047184 ], [ 83.831446376728366, 27.871669755697187 ], [ 83.823669197443607, 27.876504075748926 ], [ 83.820112214652454, 27.87754180350181 ], [ 83.816056381098122, 27.874195109553884 ], [ 83.806359749254867, 27.873522963745717 ], [ 83.803061765818654, 27.876081369786604 ], [ 83.802214923837226, 27.877005148275419 ], [ 83.801229532776304, 27.878197275325739 ], [ 83.800213329968528, 27.87956757323084 ], [ 83.799783319042916, 27.879873789016369 ], [ 83.79952553658984, 27.880103576807031 ], [ 83.798642945174336, 27.88125064697477 ], [ 83.797975581896353, 27.882034815809792 ], [ 83.797395150262673, 27.882514576090983 ], [ 83.796987263216835, 27.882723801015658 ], [ 83.795700364683498, 27.883130244946791 ], [ 83.794283174943004, 27.88332895581242 ], [ 83.793510589991172, 27.883354879465067 ], [ 83.790225884710779, 27.884329117102652 ], [ 83.788721752163113, 27.885425557621563 ], [ 83.78859626728773, 27.885511110482803 ], [ 83.788087450516613, 27.886022493955881 ], [ 83.787815920074749, 27.886243157370089 ], [ 83.787326538849157, 27.886720731703413 ], [ 83.785332006948451, 27.889264845896417 ], [ 83.784250363167786, 27.891284771282749 ], [ 83.784035195194036, 27.891771723837916 ], [ 83.783767221636737, 27.892265424994406 ], [ 83.783294083489224, 27.892995664106962 ], [ 83.781417770744667, 27.896340894737509 ], [ 83.775066610713807, 27.903360974856767 ], [ 83.770374749045459, 27.906020038445195 ], [ 83.770110407237027, 27.906130149508485 ], [ 83.768729269561589, 27.906630958463591 ], [ 83.767571297215312, 27.906728244911911 ], [ 83.766529743477392, 27.907004016869003 ], [ 83.765378756521244, 27.907827799891066 ], [ 83.763874496521481, 27.909059353099725 ], [ 83.762270817901097, 27.909992931914424 ], [ 83.761012421211575, 27.910103590659968 ], [ 83.759202858442706, 27.90966272885122 ], [ 83.758569568424861, 27.909636784302489 ], [ 83.756226137961221, 27.90927159519136 ], [ 83.756140527654466, 27.909097797217836 ], [ 83.756217976303745, 27.907956339623258 ], [ 83.756762054808746, 27.906569723740077 ], [ 83.757204694999558, 27.905945537048233 ], [ 83.758009944281483, 27.903596012558602 ], [ 83.757726860285061, 27.903424023986773 ], [ 83.757112572565163, 27.903140978090807 ], [ 83.755094269258009, 27.903676586940524 ], [ 83.750714413986927, 27.907111709681715 ], [ 83.744744631616001, 27.907982916883828 ], [ 83.742879075209046, 27.90427703856761 ], [ 83.745967678665238, 27.903450284543435 ], [ 83.746293139795995, 27.899883863536029 ], [ 83.742753105733044, 27.900222467741326 ], [ 83.73498993263658, 27.904686259355444 ], [ 83.733244524786329, 27.908850042462102 ], [ 83.727351020767045, 27.911002196926166 ], [ 83.722930802296688, 27.914106911633446 ], [ 83.720459854196591, 27.918916562697088 ], [ 83.717316001127514, 27.920121719020624 ], [ 83.711128579793382, 27.916638944042699 ], [ 83.70076111754895, 27.918419441129089 ], [ 83.698158928363938, 27.917033028690902 ], [ 83.695745289199394, 27.91830244003663 ], [ 83.690207425944848, 27.923763548945097 ], [ 83.687721523523606, 27.922923151104268 ], [ 83.686053460279282, 27.91817005870984 ], [ 83.683487273982578, 27.916372934202144 ], [ 83.68104651771543, 27.917416365725817 ], [ 83.679710128980375, 27.920998332698982 ], [ 83.682164389526193, 27.922964627647801 ], [ 83.679209841515586, 27.926560881866841 ], [ 83.675660547251056, 27.927524929206399 ], [ 83.67002692169558, 27.924328136728999 ], [ 83.665865186766183, 27.919814798272963 ], [ 83.65769369150361, 27.907710716007411 ], [ 83.654976838822918, 27.902512461162438 ], [ 83.649183363956666, 27.902414322149877 ], [ 83.644770712301494, 27.898567606921393 ], [ 83.640518272356161, 27.902319828018957 ], [ 83.633342146469658, 27.900112485549172 ], [ 83.631475894030316, 27.91024216173707 ], [ 83.63332079352331, 27.912476173209416 ], [ 83.632503359172176, 27.914804636860108 ], [ 83.626994534603753, 27.914672505226562 ], [ 83.622393428323946, 27.916444588759987 ], [ 83.621682969147571, 27.919339564929885 ], [ 83.626746378509765, 27.924806579631362 ], [ 83.624686062644827, 27.926330598118504 ], [ 83.619761833781411, 27.926939782658117 ], [ 83.616870088149298, 27.930649902487165 ], [ 83.614696770828616, 27.929714268120382 ], [ 83.610789251814211, 27.925202308644742 ], [ 83.603192420680813, 27.923623840488915 ], [ 83.599645580442669, 27.923697094155425 ], [ 83.596984672504234, 27.927761622668651 ], [ 83.592963332611873, 27.931217561537597 ], [ 83.574627674143983, 27.930266441162249 ], [ 83.573601965177858, 27.932063637528731 ], [ 83.57629229909945, 27.935111024678644 ], [ 83.576409680909236, 27.937259205876281 ], [ 83.573246897227264, 27.941615075423293 ], [ 83.57102622937775, 27.943063410962704 ], [ 83.567627795439037, 27.940399541046229 ], [ 83.567171363448608, 27.936664186862753 ], [ 83.564603312957772, 27.9343006768006 ], [ 83.559868559252934, 27.934899302825706 ], [ 83.55279366550414, 27.929590369787721 ], [ 83.548295668257737, 27.928140810783248 ], [ 83.545222932378934, 27.929288098812716 ], [ 83.538494108481302, 27.927819508896462 ], [ 83.53633664461978, 27.93129572335204 ], [ 83.537228694139458, 27.935673400398059 ], [ 83.53552018754246, 27.938221580879613 ], [ 83.531012771471666, 27.939203612940616 ], [ 83.530008365136766, 27.938020143478187 ], [ 83.530629765919954, 27.932160811014434 ], [ 83.524086788481171, 27.924158381218817 ], [ 83.52190179744116, 27.925933187683544 ], [ 83.523051331396914, 27.929301085410202 ], [ 83.516370073565213, 27.937408936973135 ], [ 83.509062737591037, 27.940767211784795 ], [ 83.506072957378834, 27.940345956416873 ], [ 83.503369485569479, 27.93808231050971 ], [ 83.503683866429583, 27.935500175223321 ], [ 83.506991024696376, 27.933470283399981 ], [ 83.508738272224548, 27.931125584926914 ], [ 83.50593050694809, 27.92858421275572 ], [ 83.501293091031485, 27.927125777759393 ], [ 83.495680208910173, 27.927504723752467 ], [ 83.492658206752154, 27.929174402588725 ], [ 83.489581376619071, 27.928700525802114 ], [ 83.486219417355116, 27.923753864609807 ], [ 83.483878186478563, 27.922736610556814 ], [ 83.467528198336524, 27.928698266717372 ], [ 83.465168340800574, 27.931288183960351 ], [ 83.460502218714169, 27.934433079530891 ], [ 83.452970129128261, 27.932871424493428 ], [ 83.450337291787932, 27.929578311055842 ], [ 83.448105231563289, 27.928684984906255 ], [ 83.442792752444007, 27.932156091424027 ], [ 83.440293887847517, 27.932755062992904 ], [ 83.440365270205504, 27.935225838988615 ], [ 83.445249050857825, 27.938835081353592 ], [ 83.442921907563502, 27.943130343708983 ], [ 83.444113143627689, 27.945416090342196 ], [ 83.449901070028517, 27.948121865686598 ], [ 83.455931794502888, 27.949851483532701 ], [ 83.462393402248381, 27.954777129059622 ], [ 83.464099697469848, 27.960272965777516 ], [ 83.46614280078883, 27.963572569981604 ], [ 83.475470412642224, 27.97457314140685 ], [ 83.478281460248553, 27.975335113053429 ], [ 83.480960381589398, 27.980486932777232 ], [ 83.485359513699905, 27.982094038154809 ], [ 83.493116174459544, 27.978181445614986 ], [ 83.500147006107625, 27.977027216156841 ], [ 83.508565884036827, 27.970126655549382 ], [ 83.50928775438787, 27.968547747447875 ], [ 83.52274272869424, 27.963976798363483 ], [ 83.526532051564303, 27.966437754743318 ], [ 83.531033668098232, 27.964792658063903 ], [ 83.534408146950312, 27.968567363742419 ], [ 83.539786462988531, 27.970058681800086 ], [ 83.541151817289446, 27.971441763359589 ], [ 83.546245575059331, 27.971390967738369 ], [ 83.549974787964928, 27.976826964865648 ], [ 83.554332336957231, 27.976489184626757 ], [ 83.556151198178512, 27.974247977972183 ], [ 83.560456941758062, 27.973903072639711 ], [ 83.568509452011682, 27.975981626684415 ], [ 83.572834375344215, 27.975916133741258 ], [ 83.576818559697131, 27.974351459833308 ], [ 83.579080534337791, 27.976260319269869 ], [ 83.580103582716077, 27.979737892613738 ], [ 83.585414620797124, 27.979860022154973 ], [ 83.583991300806019, 27.987095654707911 ], [ 83.584958406388566, 27.987908532408085 ], [ 83.59340431126023, 27.989463390179775 ], [ 83.596600535721677, 27.991386012160952 ], [ 83.603320339629391, 27.997300822479637 ], [ 83.604100868475129, 28.000204444508498 ], [ 83.603112399128932, 28.002284052999244 ], [ 83.605003764325303, 28.005998555029471 ], [ 83.604919849364009, 28.01206731343186 ], [ 83.603275221072863, 28.013966803614338 ], [ 83.598819981425876, 28.015172128076532 ], [ 83.596808029047395, 28.020312442545809 ], [ 83.594872635452148, 28.021768656310226 ], [ 83.591152135689825, 28.021611053303491 ], [ 83.590581579558062, 28.025343204799164 ], [ 83.588141323984985, 28.02637151260749 ], [ 83.584295031119723, 28.026077920156872 ], [ 83.580680691064202, 28.029988010536705 ], [ 83.57793841839802, 28.034088033937405 ], [ 83.573922984196784, 28.032539240928273 ], [ 83.564637008629191, 28.034116460386866 ], [ 83.561560639008803, 28.035769451913811 ], [ 83.563951818657316, 28.039145429384455 ], [ 83.563694377433066, 28.041184114748358 ], [ 83.559166061945589, 28.04364013666309 ], [ 83.561720360108708, 28.049534449404184 ], [ 83.561672179221247, 28.052864332595057 ], [ 83.564026328819267, 28.058103702060716 ], [ 83.561178489035271, 28.063209257039063 ], [ 83.563224309471437, 28.064862698911814 ], [ 83.566595676322464, 28.064584648963681 ], [ 83.568624252608259, 28.066048482886202 ], [ 83.571599605988027, 28.072647862446892 ], [ 83.580678988942026, 28.077461057475389 ], [ 83.576677951876277, 28.08130671018349 ], [ 83.575642794404899, 28.087083667989926 ], [ 83.572644719976438, 28.08910481437556 ], [ 83.567164378354505, 28.089753236850829 ], [ 83.562842465983238, 28.092577665432156 ], [ 83.562204264612816, 28.094536164847156 ], [ 83.565221396623627, 28.099299337312139 ], [ 83.565044329872322, 28.100787823896795 ], [ 83.560359073646126, 28.104545036950363 ], [ 83.555124981199739, 28.106820377114111 ], [ 83.554159856464494, 28.113687048769748 ], [ 83.554513313844666, 28.116767710344387 ], [ 83.549135668891324, 28.119538753106038 ], [ 83.544298853004932, 28.120903369716327 ], [ 83.537583144993903, 28.119926609850893 ], [ 83.532244295758403, 28.116655204762292 ], [ 83.524763404458724, 28.120918330435657 ], [ 83.521435991077993, 28.12004717345426 ], [ 83.51573077471545, 28.122310257873767 ], [ 83.510350844047736, 28.127019936232628 ], [ 83.505819407364868, 28.125988401228192 ], [ 83.504645300402288, 28.123403244968554 ], [ 83.500356758562859, 28.119572656601161 ], [ 83.499083034796314, 28.117260036492947 ], [ 83.494549782651347, 28.116397361110351 ], [ 83.489069633432663, 28.113464485827894 ], [ 83.485668714354489, 28.113424689506633 ], [ 83.4837880353505, 28.116406889632678 ], [ 83.480401151208639, 28.117743280387892 ], [ 83.47783937421508, 28.117469580263371 ], [ 83.474103155905411, 28.119124749297914 ], [ 83.47610384042666, 28.121677295609032 ], [ 83.478253519263021, 28.130154740596897 ], [ 83.473708399259905, 28.132346036243522 ], [ 83.46689681480396, 28.132150516599314 ], [ 83.462612116509845, 28.129977027211645 ], [ 83.458449813752182, 28.132521233797231 ], [ 83.456151260005726, 28.131796953728955 ], [ 83.451146529757366, 28.126452743408542 ], [ 83.445246969684021, 28.125106904851322 ], [ 83.438757040458796, 28.131041017804076 ], [ 83.435866270380728, 28.129411561787471 ], [ 83.431232583529706, 28.129130707086286 ], [ 83.426608198091742, 28.126022923244992 ], [ 83.4237121513098, 28.125864145367125 ], [ 83.420168207007521, 28.128218066012639 ], [ 83.420180027793734, 28.131044932972888 ], [ 83.418530332101952, 28.136635210673461 ], [ 83.41361484326589, 28.137821217912457 ], [ 83.411527882109922, 28.140675301640744 ], [ 83.411249730408869, 28.1441099837695 ], [ 83.40728304716842, 28.145559293329153 ], [ 83.406136395934453, 28.148503007588349 ], [ 83.400424186001118, 28.150517614969267 ], [ 83.394784715472071, 28.155938849611356 ], [ 83.393763518614776, 28.160432923963658 ], [ 83.388915356295442, 28.167109555347508 ], [ 83.384223670505961, 28.163848847322232 ], [ 83.376140695161098, 28.173698203885106 ], [ 83.369964818600536, 28.177947350203997 ], [ 83.370365073704804, 28.181509217887374 ], [ 83.369165509688955, 28.183511517287791 ], [ 83.364211619216007, 28.186430553025804 ], [ 83.364411175655107, 28.188678412888851 ], [ 83.362665969077185, 28.192196440688239 ], [ 83.352745818771453, 28.197830530579132 ], [ 83.350478682148207, 28.194629790230369 ], [ 83.345082048274833, 28.193670111763097 ], [ 83.33816935385218, 28.190085901262968 ], [ 83.33087966137586, 28.18911644618009 ], [ 83.327393501767219, 28.189216698718361 ], [ 83.32499911096302, 28.19052241941224 ], [ 83.321042838987125, 28.189970412281834 ], [ 83.316522311832827, 28.190405869132235 ], [ 83.314035533648834, 28.193048778680069 ], [ 83.310673463340464, 28.194180188747481 ], [ 83.307856963775507, 28.197665016466228 ], [ 83.306303667504352, 28.19790759667033 ], [ 83.30153328375944, 28.19578978351251 ], [ 83.297436074659615, 28.192867491264412 ], [ 83.287483787628943, 28.192662740333979 ], [ 83.285257431674694, 28.190875621482142 ], [ 83.28011876606007, 28.189768085667083 ], [ 83.278063205168252, 28.19106349980402 ], [ 83.27389020427897, 28.187567196587832 ], [ 83.270691364477656, 28.191956123618617 ], [ 83.270817599880317, 28.195209952741912 ], [ 83.266956988709481, 28.198794381231313 ], [ 83.260942468859412, 28.1995403506968 ], [ 83.258996711144732, 28.200547292825856 ], [ 83.258560704926751, 28.204046216308093 ], [ 83.255531077036423, 28.205893253325115 ], [ 83.25391575751064, 28.211228866568966 ], [ 83.251805423049149, 28.214202063825805 ], [ 83.247325410694714, 28.216943247937593 ], [ 83.24422107126378, 28.217255549333803 ], [ 83.242132802646907, 28.219890215378069 ], [ 83.239871795339312, 28.219785192212438 ], [ 83.233780823785338, 28.221869600609789 ], [ 83.233318314348978, 28.225738239728532 ], [ 83.228289076870865, 28.231128798294808 ], [ 83.22591593141685, 28.2325524460528 ], [ 83.226092422333224, 28.235145523668276 ], [ 83.221898444854844, 28.237316764078585 ], [ 83.220056126820452, 28.240845914200857 ], [ 83.215799329870237, 28.243853577089467 ], [ 83.215814816774525, 28.247833150333918 ], [ 83.211927508468165, 28.248774132841742 ], [ 83.205474995125869, 28.252382396399284 ], [ 83.205003707879129, 28.254439326156206 ], [ 83.201134164600788, 28.25782552243567 ], [ 83.198103491552175, 28.258759767978553 ], [ 83.193235184944825, 28.26336033853249 ], [ 83.18908151958064, 28.265273603131153 ], [ 83.185429793983886, 28.270187912506056 ], [ 83.181350609384708, 28.269218317349448 ], [ 83.177908337609267, 28.264951971008173 ], [ 83.173577980405156, 28.261611839468642 ], [ 83.167643528633121, 28.258126510580123 ], [ 83.16567553802949, 28.261775897766434 ], [ 83.162919504122698, 28.263340464595949 ], [ 83.161463063085591, 28.267358387868974 ], [ 83.1553941894568, 28.270792860485678 ], [ 83.152564751933411, 28.267662169058333 ], [ 83.14862693559499, 28.266029199384896 ], [ 83.145262257812277, 28.26287462744132 ], [ 83.138313968404972, 28.254560789126199 ], [ 83.135099330751217, 28.251522083748387 ], [ 83.130819805256081, 28.250157147169158 ], [ 83.127768203040276, 28.250800919226865 ], [ 83.126003518884943, 28.256709227378835 ], [ 83.118647946444469, 28.256565009685936 ], [ 83.116499529547013, 28.254130514374282 ], [ 83.11153179784742, 28.252009324790123 ], [ 83.105738445791914, 28.252269280140347 ], [ 83.101069260207694, 28.255672213622546 ], [ 83.095806835433436, 28.256014231628818 ], [ 83.094256337012851, 28.25705523892918 ], [ 83.095549332588618, 28.264871541044862 ], [ 83.0954677681964, 28.268979038334624 ], [ 83.097493970260658, 28.273795250940065 ], [ 83.096913232935151, 28.277353541359535 ], [ 83.093208601711581, 28.277554594648041 ], [ 83.089757061317911, 28.28117265078442 ], [ 83.08481513573031, 28.289443633798189 ], [ 83.079135050915895, 28.291361313784286 ], [ 83.076091409939139, 28.297481333747093 ], [ 83.070339305031993, 28.301026925878098 ], [ 83.068778219944392, 28.303468429494178 ], [ 83.068841004097294, 28.311366643353558 ], [ 83.061209161773675, 28.317777570513986 ], [ 83.058654383734336, 28.317574989900457 ], [ 83.051269911983269, 28.319015001723574 ], [ 83.047979918241296, 28.322330775231425 ], [ 83.043499915029159, 28.324659184754747 ], [ 83.040065232663892, 28.322279853812432 ], [ 83.033808146137829, 28.321723627598988 ], [ 83.029461256717582, 28.323691509668375 ], [ 83.024060267921215, 28.325171108947561 ], [ 83.01824385061208, 28.325797093139599 ], [ 83.013644283470967, 28.332506786374395 ], [ 83.010295336354019, 28.333721064435519 ], [ 83.006666219540023, 28.332605052404464 ], [ 83.003369089945863, 28.333165266268384 ], [ 83.001094461858031, 28.336381313467601 ], [ 82.997769470936674, 28.343235011638196 ], [ 82.997163127635687, 28.345957877955946 ], [ 82.993501269826083, 28.351428448214072 ], [ 82.989002342499759, 28.353186284897664 ], [ 82.982942338463047, 28.356946852830184 ], [ 82.98008411486019, 28.359429458934166 ], [ 82.971909786765153, 28.358865018865259 ], [ 82.967380480161339, 28.357666814167487 ], [ 82.961287448443414, 28.359774845975711 ], [ 82.954789939529576, 28.360192152329805 ], [ 82.956734912745389, 28.364450288969184 ], [ 82.954714915940542, 28.372305413498061 ], [ 82.951105432695357, 28.374012392609455 ], [ 82.948124252989686, 28.378428881748214 ], [ 82.948226260927697, 28.380665177727721 ], [ 82.950341786515565, 28.38421638164434 ], [ 82.94726533195157, 28.387274119212286 ], [ 82.945902248367261, 28.391621825199515 ], [ 82.942135072415539, 28.394780106127676 ], [ 82.943624429952209, 28.398452852353401 ], [ 82.938355012432908, 28.398529207559026 ], [ 82.935904338748216, 28.402135153617753 ], [ 82.933189594155891, 28.401304066240968 ], [ 82.927398606249881, 28.402235397958226 ], [ 82.922706505084761, 28.401273481917094 ], [ 82.917847959536843, 28.401916228518637 ], [ 82.915917503447901, 28.403468620776579 ], [ 82.918307256302796, 28.406241962413898 ], [ 82.919207706489658, 28.409181642509157 ], [ 82.918311078158339, 28.412549257607939 ], [ 82.918203676495395, 28.418223984326247 ], [ 82.914158128968282, 28.423258276186253 ], [ 82.912258553440481, 28.427702840366059 ], [ 82.914245477092749, 28.434350757350785 ], [ 82.910353524785393, 28.436464882358553 ], [ 82.906065731628502, 28.443048965569723 ], [ 82.899061459716435, 28.447961976185482 ], [ 82.894036577928432, 28.447727238603754 ], [ 82.886347276421361, 28.452473879771961 ], [ 82.886622725283743, 28.4566673728674 ], [ 82.882867271503173, 28.461290206459594 ], [ 82.882822687390586, 28.466225501674852 ], [ 82.880609826120818, 28.468099860134227 ], [ 82.878919918968379, 28.475475844709525 ], [ 82.883022997813512, 28.478548120460839 ], [ 82.885759178458144, 28.479281154528419 ], [ 82.886182928883997, 28.479555322840294 ], [ 82.893750239314457, 28.47862907858984 ], [ 82.89655732700075, 28.477088635437248 ], [ 82.900517380696385, 28.475753689838562 ], [ 82.90361540612831, 28.475476447099751 ], [ 82.907125612305762, 28.475951328544319 ], [ 82.90943771647558, 28.477154250882592 ], [ 82.910876631252236, 28.478054501100342 ], [ 82.9118091209791, 28.478585278082885 ], [ 82.912112127518427, 28.479413331210907 ], [ 82.912062066189478, 28.479717490004347 ], [ 82.911385131619738, 28.481121913580715 ], [ 82.905678915814278, 28.483670222500152 ], [ 82.902551775509878, 28.487024181623294 ], [ 82.897360644579081, 28.491394455196456 ], [ 82.896615232935375, 28.492051634055166 ], [ 82.89240802926922, 28.496574032655037 ], [ 82.89136669034923, 28.498850683193794 ], [ 82.890022831003478, 28.501054836078804 ], [ 82.88839382317245, 28.506640361058583 ], [ 82.880156949341981, 28.512559448411906 ], [ 82.87763630995569, 28.514823766412384 ], [ 82.879477613275284, 28.515432236668076 ], [ 82.88191978656431, 28.515307970484244 ], [ 82.882028646883825, 28.51530884695816 ], [ 82.887994101400324, 28.514866097936803 ], [ 82.890114124990603, 28.51504804897202 ], [ 82.890892021658388, 28.51496869239471 ], [ 82.891238349334799, 28.515005381465159 ], [ 82.894613761508026, 28.515450201244924 ], [ 82.896364195433662, 28.516420886883992 ], [ 82.897801117318963, 28.516942421902719 ], [ 82.898646370399646, 28.517382268485875 ], [ 82.899037187197592, 28.51768549615214 ], [ 82.901162007262201, 28.518706495020879 ], [ 82.903854731961417, 28.520756094801264 ], [ 82.909626204427227, 28.524168238175779 ], [ 82.914066480710503, 28.52760548521362 ], [ 82.911755661794814, 28.531293237519279 ], [ 82.912539567466567, 28.534083116808645 ], [ 82.913420826791992, 28.537320456273591 ], [ 82.91336181995915, 28.538125256305452 ], [ 82.912012468479531, 28.543338756787179 ], [ 82.9134890065191, 28.547449336807368 ], [ 82.913526868205338, 28.547896233684384 ], [ 82.913471039315382, 28.549197363030871 ], [ 82.914008571952621, 28.550282208300487 ], [ 82.914298273299451, 28.550805601737878 ], [ 82.913672519836098, 28.555580527901054 ], [ 82.915335255941073, 28.557748039549175 ], [ 82.915849216713852, 28.559513884234228 ], [ 82.915986625445541, 28.563469334286346 ], [ 82.916242572909468, 28.564450372569311 ], [ 82.918509996825478, 28.565567052196212 ], [ 82.919334189883983, 28.566022459556656 ], [ 82.921848765546173, 28.567271880506468 ], [ 82.928419195253682, 28.56713217514541 ], [ 82.932518479598457, 28.565817792573473 ], [ 82.934928314486797, 28.563939625195228 ], [ 82.935700728748415, 28.56294416548954 ], [ 82.940835453068289, 28.560710507478987 ], [ 82.943065074231626, 28.55818339728437 ], [ 82.947722605826343, 28.556333822046781 ], [ 82.951524101001965, 28.555936788230824 ], [ 82.953717029105604, 28.553982187270005 ], [ 82.957418516053664, 28.55137373070486 ], [ 82.957678354684091, 28.55144785261276 ], [ 82.96005833970915, 28.551820290020785 ], [ 82.96214552470714, 28.550266213150039 ], [ 82.963332929834607, 28.550126430594375 ], [ 82.964753193708404, 28.549167289345107 ], [ 82.96672989745079, 28.547404792577552 ], [ 82.969007626733486, 28.545448255503953 ], [ 82.973814911438112, 28.542346922723144 ], [ 82.975720233969227, 28.544831346365157 ], [ 82.977217250651407, 28.546548022328849 ], [ 82.97708250666139, 28.547205709827622 ], [ 82.978155149633878, 28.548562725302901 ], [ 82.978509408496308, 28.548883450867052 ], [ 82.980433050638766, 28.550846922745205 ], [ 82.980507971663357, 28.551192641987239 ], [ 82.981626770234115, 28.55732321852113 ], [ 82.982430121150216, 28.559535401355291 ], [ 82.984135591739687, 28.562223490847622 ], [ 82.98558767440872, 28.564075091230151 ], [ 82.985708362832156, 28.569907180801074 ], [ 82.981868091478972, 28.572001120097696 ], [ 82.979492979746709, 28.575069178265661 ], [ 82.972640649703948, 28.575245313356618 ], [ 82.961784529038411, 28.583143554425966 ], [ 82.95937964222685, 28.587792341475232 ], [ 82.954443892065285, 28.593357695110949 ], [ 82.952813753059814, 28.599241629404876 ], [ 82.9556436341134, 28.605331483860791 ], [ 82.956997963047371, 28.608091623956383 ], [ 82.957863841767391, 28.611718802094671 ], [ 82.964238443803836, 28.613813638320757 ], [ 82.966182973938615, 28.614908940378697 ], [ 82.972107570839512, 28.620555130321751 ], [ 82.974564016018789, 28.625883737037888 ], [ 82.978418999522489, 28.629086684878885 ], [ 82.979810740653178, 28.629559598863658 ], [ 82.984306056894567, 28.630385150136956 ], [ 82.984707946693518, 28.630036188107994 ], [ 82.987715387365483, 28.628227085796127 ], [ 82.990368573730763, 28.62585578019225 ], [ 82.9937988427031, 28.62686254942583 ], [ 82.995455957364143, 28.625487512607023 ], [ 82.998042269212732, 28.623577975975362 ], [ 83.002784688920698, 28.623773151503901 ], [ 83.005296056621873, 28.622767467989569 ], [ 83.009987597205622, 28.623555213200941 ], [ 83.015830464944955, 28.621930759905151 ], [ 83.019127274230613, 28.621738137842673 ], [ 83.024758739965947, 28.626463971285471 ], [ 83.032423469064469, 28.62581745433252 ], [ 83.034438450238554, 28.625671621952659 ], [ 83.041115539927532, 28.629594419661458 ], [ 83.042820865378786, 28.629983221043215 ], [ 83.051005464573706, 28.62584272125725 ], [ 83.053597801103592, 28.622576434827479 ], [ 83.057525130058792, 28.620126967481458 ], [ 83.06391529563831, 28.622054820049087 ], [ 83.067258818597523, 28.623478737371538 ], [ 83.074792485081858, 28.623798754760305 ], [ 83.080879256055951, 28.625617800571884 ], [ 83.084312008122993, 28.630863179650706 ], [ 83.090331398050836, 28.633488837728688 ], [ 83.09422916778145, 28.63443080762304 ], [ 83.097218624319325, 28.635269648821055 ], [ 83.102699413547924, 28.633790114900343 ], [ 83.111116133599154, 28.631571754316582 ], [ 83.111940219008133, 28.631094435292098 ], [ 83.114984936451805, 28.63095418005614 ], [ 83.115876493560663, 28.631503642421613 ], [ 83.116021600824467, 28.634746158302299 ], [ 83.116138727939045, 28.637129065462958 ], [ 83.116136663943493, 28.637223806703943 ], [ 83.115857929316647, 28.638408568483648 ], [ 83.115776854396003, 28.639655452417529 ], [ 83.11546110207874, 28.642051352058523 ], [ 83.115580918089094, 28.644339517965673 ], [ 83.118695801785762, 28.648163086035922 ], [ 83.118885379750822, 28.649310233091313 ], [ 83.119730749174707, 28.650200038420021 ], [ 83.119853476875946, 28.650507574369705 ], [ 83.123017049523526, 28.653900557829409 ], [ 83.123135582886917, 28.654602869837426 ], [ 83.124456630561554, 28.65923352485979 ], [ 83.124494399767627, 28.661270775156162 ], [ 83.124835015732216, 28.662637716644252 ], [ 83.123958825604205, 28.66574054288597 ], [ 83.121661535516537, 28.667722076731778 ], [ 83.121611974666706, 28.667990176297437 ], [ 83.118653269154294, 28.670215490519396 ], [ 83.118625084567725, 28.670262673259156 ], [ 83.118490953629717, 28.671543053280718 ], [ 83.118604987673081, 28.672240865620985 ], [ 83.118692719619233, 28.672573023782761 ], [ 83.120571654463035, 28.675874246886529 ], [ 83.121336920224195, 28.676199478072689 ], [ 83.121621380159624, 28.676291536237514 ], [ 83.123027558363546, 28.676679645981856 ], [ 83.123136546413605, 28.676533723523917 ], [ 83.12405231333581, 28.67571631223948 ], [ 83.124591374258102, 28.675259612205956 ], [ 83.125608621313944, 28.674772171985325 ], [ 83.130622332227404, 28.674154802085322 ], [ 83.133260171636877, 28.673761126890124 ], [ 83.135979910011841, 28.674831942910068 ], [ 83.139068294719991, 28.675449431109396 ], [ 83.140007587092938, 28.676436666335675 ], [ 83.140320098837591, 28.676896566010818 ], [ 83.141850613024445, 28.678469568383974 ], [ 83.142924518634217, 28.679117024398732 ], [ 83.14461733249469, 28.680208261055057 ], [ 83.146396242138806, 28.682236100138908 ], [ 83.145841617105262, 28.68288909433771 ], [ 83.145408659175843, 28.683754820704749 ], [ 83.145009139028744, 28.68436588353504 ], [ 83.144377256307138, 28.685981600354843 ], [ 83.144275748197302, 28.687140429543806 ], [ 83.142936076790789, 28.689238841509773 ], [ 83.142405075782463, 28.689774596855372 ], [ 83.142454179184341, 28.690571211632715 ], [ 83.142625588386551, 28.690847501167255 ], [ 83.142909480845077, 28.691207972085614 ], [ 83.142967846106501, 28.691307526260829 ], [ 83.143175734178769, 28.692445861854349 ], [ 83.146995618361416, 28.694491166652675 ], [ 83.147779759016942, 28.694685597696918 ], [ 83.148869729214596, 28.695105262450532 ], [ 83.14933666108945, 28.695381181343155 ], [ 83.149873454508224, 28.695871768966835 ], [ 83.150214944788374, 28.697263520649891 ], [ 83.150433718944313, 28.697734105464562 ], [ 83.150585813449666, 28.69826512123192 ], [ 83.150626242777278, 28.698409795984809 ], [ 83.150686416342793, 28.698719205838458 ], [ 83.151377233854959, 28.700146959310175 ], [ 83.152432137482705, 28.701033330524822 ], [ 83.152220279553987, 28.701643271187422 ], [ 83.151887693177599, 28.701972798437264 ], [ 83.151408864892488, 28.702919516640208 ], [ 83.151237510928581, 28.703028941543124 ], [ 83.150068459141295, 28.704190129868351 ], [ 83.149957532869038, 28.704387922507507 ], [ 83.150133936632102, 28.704916876316439 ], [ 83.150529231457242, 28.706345062913069 ], [ 83.150450484402143, 28.710071093182904 ], [ 83.150505538029748, 28.710148149383169 ], [ 83.151069054880352, 28.711857062546947 ], [ 83.15021601807436, 28.713279606379011 ], [ 83.149859311527038, 28.713525515980315 ], [ 83.148739754683717, 28.714601275387825 ], [ 83.148141811820679, 28.715847214234852 ], [ 83.148085004435927, 28.715982200954699 ], [ 83.147089115267462, 28.717225634205285 ], [ 83.14657254284316, 28.718131480603443 ], [ 83.145464960513308, 28.720474998257512 ], [ 83.145371152937201, 28.720884959074361 ], [ 83.145533056904227, 28.721506341634701 ], [ 83.145667719477586, 28.721865810452258 ], [ 83.145948108646181, 28.722424763004412 ], [ 83.145956974714068, 28.722835412759679 ], [ 83.145015513071911, 28.724219021364966 ], [ 83.144768228712337, 28.724494929797245 ], [ 83.144332773830584, 28.72521623189423 ], [ 83.144218783091603, 28.725540387827081 ], [ 83.144217830929705, 28.726325377909085 ], [ 83.144340054151471, 28.726872016778188 ], [ 83.144513959937242, 28.727310791352728 ], [ 83.145213271954248, 28.728966398880424 ], [ 83.146046193656346, 28.730478521597686 ], [ 83.14612367741762, 28.730785806887965 ], [ 83.143003740030778, 28.733202350797299 ], [ 83.142897500499117, 28.733406955368007 ], [ 83.142658581339631, 28.73414307146604 ], [ 83.143070489228236, 28.736083398505436 ], [ 83.142946981488194, 28.737377464819275 ], [ 83.142920730608864, 28.737611880309849 ], [ 83.14284508957995, 28.73900318835107 ], [ 83.142672224386146, 28.739719432243799 ], [ 83.142728181236862, 28.741607883843606 ], [ 83.142894391451165, 28.742529301270409 ], [ 83.143073730933267, 28.743130435937431 ], [ 83.143524329797444, 28.744608618661033 ], [ 83.143553571001036, 28.744865970346062 ], [ 83.143580941243641, 28.744922528028866 ], [ 83.145432211933453, 28.747158411360857 ], [ 83.154088906963423, 28.747828726371555 ], [ 83.163296753368854, 28.746478423457006 ], [ 83.167019776589854, 28.745143476218921 ], [ 83.173721075888267, 28.74433177442603 ], [ 83.186244525240113, 28.743654395783786 ], [ 83.197691282436367, 28.737688551713209 ], [ 83.198920771053139, 28.736137087866659 ], [ 83.206402766529294, 28.732621584553758 ], [ 83.209952862668587, 28.731979133501312 ], [ 83.218211625871319, 28.7352055824805 ], [ 83.222516138132534, 28.74022024591309 ], [ 83.226842323056161, 28.742564030980361 ], [ 83.229297423457012, 28.742889349643303 ], [ 83.237219042862606, 28.739613643428314 ], [ 83.23942758419517, 28.734922858496986 ], [ 83.244801902029579, 28.732701705003411 ], [ 83.248006576102796, 28.730411775870163 ], [ 83.255685289800041, 28.727199122780295 ], [ 83.259418179891298, 28.72624514078867 ], [ 83.263982436423319, 28.72642569149399 ], [ 83.270560573147975, 28.725209338215002 ], [ 83.276944149321693, 28.721983979766325 ], [ 83.282020769416206, 28.725712836070855 ], [ 83.294061755395262, 28.729872818138297 ], [ 83.298539362484007, 28.731953380104741 ], [ 83.308253478051768, 28.732641835419276 ], [ 83.312446860761014, 28.735386019586468 ], [ 83.320076505514777, 28.736162248572267 ], [ 83.324742846209602, 28.737766982329966 ], [ 83.331283206424615, 28.738219100135826 ], [ 83.345933032051704, 28.735642304974313 ], [ 83.350719944303179, 28.735924912499783 ], [ 83.356262865173647, 28.73370007483555 ], [ 83.362020705304104, 28.734185303164356 ], [ 83.364063005388985, 28.736789156081283 ], [ 83.374349221222218, 28.744549843890294 ], [ 83.37669100549698, 28.749131019058133 ], [ 83.377664405551229, 28.754026144912221 ], [ 83.383365714979703, 28.756504376391007 ], [ 83.38851783175086, 28.763105782208015 ], [ 83.39218571974331, 28.762734371095839 ], [ 83.400286353390115, 28.76078542146962 ], [ 83.410444924629076, 28.760672208418686 ], [ 83.427005459533532, 28.766358244164131 ], [ 83.42937819949546, 28.766510390593098 ], [ 83.436436079324125, 28.768820658178512 ], [ 83.441615052736211, 28.769676844217646 ], [ 83.446106649141868, 28.768955415380887 ], [ 83.453872226748686, 28.772271538507383 ], [ 83.458773114361932, 28.776277367742637 ], [ 83.461187340028161, 28.780119612322025 ], [ 83.464155876095873, 28.780201399257649 ], [ 83.470218465994151, 28.781806717175712 ], [ 83.477914487789732, 28.78201937546962 ], [ 83.483461848813604, 28.782888941051826 ], [ 83.484394267901678, 28.787043259714412 ], [ 83.486930232765829, 28.790587846120403 ], [ 83.486755337214447, 28.796098210653071 ], [ 83.488074816823314, 28.800885601722687 ], [ 83.487598314454999, 28.804323965144047 ], [ 83.485500585596114, 28.808144144005293 ], [ 83.485131992937227, 28.812266508455536 ], [ 83.480108386632324, 28.817205477685931 ], [ 83.479711054076319, 28.824233136271666 ], [ 83.48273360589306, 28.829570814506006 ], [ 83.48314702871312, 28.833903671175548 ], [ 83.480664757483666, 28.836134115690676 ], [ 83.481656519723998, 28.844728150516858 ], [ 83.484385068912999, 28.845789781120285 ], [ 83.492572391757221, 28.846371288113243 ], [ 83.497970736300871, 28.842660336562659 ], [ 83.501837958934274, 28.846200568278796 ], [ 83.502068319967549, 28.851757434262598 ], [ 83.506006079372057, 28.856128027953204 ], [ 83.505840786921922, 28.865888375179999 ], [ 83.503096294526713, 28.871664488490229 ], [ 83.501240326273049, 28.873254751320538 ], [ 83.49945567660447, 28.877252230629885 ], [ 83.501481563141667, 28.878685441418334 ], [ 83.503891727419685, 28.882454754959536 ], [ 83.506868394396776, 28.885371155735701 ], [ 83.515233613974516, 28.890005666760072 ], [ 83.520422228344401, 28.89635178447238 ], [ 83.523970505821751, 28.899258632300601 ], [ 83.527539183874381, 28.903915881417181 ], [ 83.52863113081365, 28.908699831419366 ], [ 83.533307039510689, 28.9098981664837 ], [ 83.539890864757012, 28.91499867029172 ], [ 83.541612762822567, 28.917930300763878 ], [ 83.546224063626255, 28.921893629727386 ], [ 83.549497585901989, 28.926948587698615 ], [ 83.556518318171314, 28.933775438858639 ], [ 83.557878428860818, 28.93790807797853 ], [ 83.55723861242285, 28.942514580530826 ], [ 83.55867230979176, 28.944903694194352 ], [ 83.561599218969633, 28.945344135396084 ], [ 83.566990030113686, 28.943401271487307 ], [ 83.569297501253629, 28.944942601690332 ], [ 83.572174975852576, 28.948761855251654 ], [ 83.574904380894296, 28.953956604574266 ], [ 83.578967684550591, 28.955149118650375 ], [ 83.58159058225371, 28.958261371131261 ], [ 83.582629819038601, 28.961346039608266 ], [ 83.581634391143382, 28.964510107341418 ], [ 83.585467747802596, 28.967761302868084 ], [ 83.587125328715658, 28.971350871595231 ], [ 83.586629430929079, 28.975912880281513 ], [ 83.592087728952166, 28.983707555914723 ], [ 83.598543441679581, 28.985818146691361 ], [ 83.602883231917502, 28.982614133623702 ], [ 83.60428127478751, 28.980382798455867 ], [ 83.609289975681193, 28.98031175625237 ], [ 83.610230045801956, 28.983007896591801 ], [ 83.614458086706904, 28.986884290505127 ], [ 83.615576134359046, 28.992671398086273 ], [ 83.614449994178827, 28.997976078492854 ], [ 83.616986051669954, 29.006237291575715 ], [ 83.614281281740503, 29.009901974321778 ], [ 83.612198834674331, 29.015122647783937 ], [ 83.616514934216283, 29.018577394412709 ], [ 83.614129930199425, 29.022416690827807 ], [ 83.61533937264295, 29.026564076067402 ], [ 83.614968805596035, 29.029326315182352 ], [ 83.612652527068036, 29.033937291271123 ], [ 83.612624549460421, 29.036159148020108 ], [ 83.61613949055949, 29.040441680876356 ], [ 83.619011059112566, 29.045827664433016 ], [ 83.61819160931833, 29.055202660410146 ], [ 83.620419140487087, 29.060546137989224 ], [ 83.626601892315733, 29.062503489001607 ], [ 83.631032419356004, 29.062504431622255 ], [ 83.63131142721025, 29.066518252349333 ], [ 83.629537877704138, 29.071636252097427 ], [ 83.631072251739795, 29.080158300151687 ], [ 83.627864448774758, 29.082603712489735 ], [ 83.627166564657955, 29.084663511356496 ], [ 83.623432433528137, 29.088332302504622 ], [ 83.620329577057177, 29.089611574267099 ], [ 83.615001202046713, 29.094374114875116 ], [ 83.616435926278839, 29.098515316292278 ], [ 83.620631935218256, 29.097861878380233 ], [ 83.622451133017861, 29.100715954728734 ], [ 83.625911811123274, 29.102841561064213 ], [ 83.628791223400512, 29.106569322828285 ], [ 83.636331251130159, 29.10741336017621 ], [ 83.646210606590358, 29.104177935720216 ], [ 83.649923223240023, 29.10453733436475 ], [ 83.652562522783469, 29.109274499198662 ], [ 83.650586867254958, 29.114796020722306 ], [ 83.651683686745926, 29.119569845967991 ], [ 83.655029751704461, 29.121870309482428 ], [ 83.662579673755118, 29.124813028100544 ], [ 83.667595837165351, 29.123397673509594 ], [ 83.676566241495721, 29.123877516865488 ], [ 83.678857220131235, 29.125110125547454 ], [ 83.679707683964281, 29.130571133480604 ], [ 83.678687087320199, 29.132925962468853 ], [ 83.674951196107273, 29.137096894219589 ], [ 83.675794728990113, 29.142273678249659 ], [ 83.675201747553174, 29.145358133761373 ], [ 83.676479410950122, 29.147316909665605 ], [ 83.672783931422401, 29.152509747379213 ], [ 83.663324706534667, 29.15576392590124 ], [ 83.662148239371433, 29.165219345247046 ], [ 83.665760178720816, 29.16886693814757 ], [ 83.665656972711659, 29.170493036052342 ], [ 83.662474467173354, 29.173521331831903 ], [ 83.657403849291157, 29.176170258705842 ], [ 83.662222287972639, 29.18107519119712 ], [ 83.663583043364383, 29.18411936779885 ], [ 83.658133836779044, 29.187513969749496 ], [ 83.657794589425095, 29.192807349429412 ], [ 83.658554313896602, 29.195204889114152 ], [ 83.657775539755164, 29.19855269214397 ], [ 83.655972815788886, 29.200057212606229 ], [ 83.655907183037556, 29.204018032307427 ], [ 83.660119677501029, 29.203958915066636 ], [ 83.667956114880567, 29.207271916336936 ], [ 83.675034398443856, 29.207772041489605 ], [ 83.684243046355874, 29.213158247056498 ], [ 83.688869713154986, 29.217303809461853 ], [ 83.696697785879678, 29.226383089340263 ], [ 83.700886802626144, 29.234716194672966 ], [ 83.706333390713709, 29.237250169061241 ], [ 83.709016659762966, 29.240030577966841 ], [ 83.711281198868988, 29.244628187076977 ], [ 83.718289095234766, 29.243088937968714 ], [ 83.721857267726378, 29.241612129923439 ], [ 83.72791047632839, 29.243397558164869 ], [ 83.730617204184099, 29.244957268073385 ], [ 83.738515402326101, 29.244190211351157 ], [ 83.740645338047145, 29.245504935056172 ], [ 83.746393789802283, 29.243467712751897 ], [ 83.749506230815285, 29.244134511705905 ], [ 83.754530838197368, 29.242332506437702 ], [ 83.756753032546783, 29.242600453559081 ], [ 83.761407016208793, 29.240120755325488 ], [ 83.767600789161449, 29.240876093909435 ], [ 83.770558143094661, 29.243802368798594 ], [ 83.770933103552622, 29.246349763714846 ], [ 83.77669467083021, 29.247800906231841 ], [ 83.781391416634577, 29.244438602988726 ], [ 83.790553617170346, 29.247491712551405 ], [ 83.792129498323661, 29.249023595182372 ], [ 83.797212290561149, 29.250066765067956 ], [ 83.797097121763457, 29.253003553830798 ], [ 83.801816866831999, 29.255713063797145 ], [ 83.799060130342255, 29.264190485841496 ], [ 83.795316792574411, 29.271906150495525 ], [ 83.79387283020651, 29.273512229272963 ], [ 83.794519725537938, 29.277453999197739 ], [ 83.797362689366565, 29.281875071365565 ], [ 83.802541292926136, 29.282324922771824 ], [ 83.803998870855864, 29.284181273489146 ], [ 83.807865500614028, 29.285919297674607 ], [ 83.810919924996782, 29.290870449057977 ], [ 83.807971870497951, 29.294714546997763 ], [ 83.811876781302786, 29.297745014547733 ], [ 83.812763760602479, 29.30209981237461 ], [ 83.817237454005323, 29.302812003608331 ], [ 83.823139780710306, 29.302840280508974 ], [ 83.826015328820432, 29.299798857141329 ], [ 83.830162551212865, 29.298180071798491 ], [ 83.835035961557466, 29.300940392102376 ], [ 83.838984171351768, 29.298190958432663 ], [ 83.844610020478328, 29.298960100001942 ], [ 83.849118367041427, 29.298060691219913 ], [ 83.854168673412929, 29.301684434422132 ], [ 83.856085006546962, 29.309446245303711 ], [ 83.864137368416792, 29.311899893880739 ], [ 83.870523119961675, 29.312415945962695 ], [ 83.873552857076461, 29.314426494608576 ], [ 83.880147180386444, 29.316171748649506 ], [ 83.887408742412262, 29.32017749127564 ], [ 83.898039145094828, 29.318870903919731 ], [ 83.900808611921988, 29.323594259771951 ], [ 83.904782842586457, 29.325787431425038 ], [ 83.91000287142684, 29.323501475096542 ], [ 83.915044144409009, 29.322685942261323 ], [ 83.919809737424785, 29.32332502037513 ], [ 83.927490860326145, 29.318522460851021 ], [ 83.933627255454098, 29.319784377873276 ], [ 83.941080692581139, 29.316408807652955 ], [ 83.948497238781869, 29.317111109224609 ], [ 83.955727826224702, 29.326177195829167 ], [ 83.961103135034861, 29.330566248935192 ], [ 83.964875802185446, 29.331086135197143 ], [ 83.975857430247018, 29.328692967367726 ], [ 83.984830689598311, 29.323993419035283 ], [ 83.988434390682613, 29.320932759275159 ], [ 83.992241329359715, 29.320184138634303 ], [ 83.995550332442363, 29.316532278957514 ], [ 83.999197188316529, 29.31478412334409 ], [ 84.001105040056416, 29.309458396497185 ], [ 83.999258353140846, 29.306356779494397 ], [ 83.99275085510601, 29.303401575444305 ], [ 83.989639463946361, 29.303344969137019 ], [ 83.987783334725819, 29.300536449873199 ], [ 83.98984678572522, 29.298481610106236 ], [ 83.994241586414987, 29.297548015795844 ], [ 83.999798825673182, 29.295005963706572 ], [ 84.004411558704092, 29.295937512732667 ], [ 84.010766608374865, 29.294342323133588 ], [ 84.015753169127279, 29.289034080584425 ], [ 84.019383980414361, 29.289570463254083 ], [ 84.024331704276804, 29.288750867213093 ], [ 84.026522972240144, 29.285646564071261 ], [ 84.02947018082817, 29.292629651930774 ], [ 84.032662390384857, 29.294913990971633 ], [ 84.043868130376779, 29.300850118776406 ], [ 84.052867545252397, 29.297580563705811 ], [ 84.052901726632967, 29.294618775809894 ], [ 84.056330286531619, 29.290480337978714 ], [ 84.063741304123056, 29.28960853593296 ], [ 84.068525618262854, 29.285487242961267 ], [ 84.070110410559536, 29.285186420884241 ], [ 84.07765166341558, 29.287214665197364 ], [ 84.080940687912957, 29.288746575596697 ], [ 84.085797286347571, 29.294615234656213 ], [ 84.090280878204013, 29.294154348392304 ], [ 84.100255675509572, 29.290229057246048 ], [ 84.102273094050247, 29.287042509013034 ], [ 84.108546973247556, 29.285185530344954 ], [ 84.114114505264752, 29.280547610179703 ], [ 84.118070645267721, 29.27818464152509 ], [ 84.117572618075073, 29.27670308312717 ], [ 84.121788236434, 29.273694678268164 ], [ 84.121662759272894, 29.27038335746785 ], [ 84.117829957085448, 29.264659513364361 ], [ 84.113109814139605, 29.263073272620804 ], [ 84.112882455723522, 29.260727485903931 ], [ 84.114849743978482, 29.258127195029932 ], [ 84.111939971310065, 29.254017466321297 ], [ 84.113661408506232, 29.251864067704542 ], [ 84.112399205875022, 29.248731899737241 ], [ 84.116342391989718, 29.244221566709022 ], [ 84.119729412437209, 29.245321581258072 ], [ 84.128846982713313, 29.242894950243276 ], [ 84.132671687955167, 29.241267098914431 ], [ 84.141586651372961, 29.23626595267605 ], [ 84.149564996057336, 29.240107849392544 ], [ 84.153790835370657, 29.241476852548804 ], [ 84.159779397738518, 29.241720175285607 ], [ 84.167751836039344, 29.24107204950101 ], [ 84.172766141145317, 29.238956574773351 ], [ 84.179358838483239, 29.237806473487321 ], [ 84.183457326851482, 29.241863476397562 ], [ 84.192636977543501, 29.244230403956667 ], [ 84.1958534630283, 29.242098589695281 ], [ 84.201021869744594, 29.240117105163627 ], [ 84.20278933828412, 29.236169185574607 ], [ 84.198975021576757, 29.231027349771782 ], [ 84.197828541888683, 29.225439222700395 ], [ 84.197605230709172, 29.220792773325627 ], [ 84.199203695068533, 29.21814435590781 ], [ 84.199738209194294, 29.213981748873636 ], [ 84.196436990948513, 29.212809117089073 ], [ 84.191954913389907, 29.209508663030487 ], [ 84.188320917029543, 29.205818945938272 ], [ 84.181213894545323, 29.207897265912525 ], [ 84.177529912994132, 29.206839742482366 ], [ 84.177030888853636, 29.205214009692376 ], [ 84.172602827083665, 29.200791722700487 ], [ 84.168544766959556, 29.199926175635621 ], [ 84.163842957805002, 29.19413251097755 ], [ 84.166815759818448, 29.190366218496461 ], [ 84.165670398249304, 29.188109596179718 ], [ 84.162287224574229, 29.185305363888808 ], [ 84.165083408877706, 29.179308337007853 ], [ 84.167031121006715, 29.177508096644761 ], [ 84.166915394327802, 29.1741020342632 ], [ 84.169259867929725, 29.172183936065505 ], [ 84.165940730160656, 29.164180122223588 ], [ 84.167912425283561, 29.156981755446537 ], [ 84.170795403225881, 29.154365917632092 ], [ 84.173399020350985, 29.149855562714983 ], [ 84.17400674075148, 29.144283024106294 ], [ 84.172811342486028, 29.141092674531993 ], [ 84.174346353904099, 29.136565554112831 ], [ 84.1739231509642, 29.134012595451914 ], [ 84.176284483481638, 29.129732527802016 ], [ 84.185213529468584, 29.126760943638125 ], [ 84.193064692792504, 29.125145967262029 ], [ 84.200592942881855, 29.124467211945543 ], [ 84.199914525550398, 29.112753969011646 ], [ 84.201086498791511, 29.109424919636812 ], [ 84.201714529341217, 29.103834132672318 ], [ 84.195214114987124, 29.096647754646948 ], [ 84.195812795908054, 29.093048970969754 ], [ 84.190754084971246, 29.084757217710017 ], [ 84.186133100947103, 29.080798009457126 ], [ 84.187878426831816, 29.077835872697339 ], [ 84.186364011918698, 29.074490469588937 ], [ 84.18669279737054, 29.067564675706098 ], [ 84.188724518636334, 29.064775964938189 ], [ 84.188446648365371, 29.057232905736402 ], [ 84.189572214435671, 29.052722026772532 ], [ 84.189682754518273, 29.046996618616511 ], [ 84.196440665284015, 29.046619197944995 ], [ 84.201565348123609, 29.049785549902513 ], [ 84.207613297651463, 29.052174175693629 ], [ 84.209025200895212, 29.053719493193459 ], [ 84.22084773726661, 29.053603566454228 ], [ 84.22382966051164, 29.053018980150153 ], [ 84.229502588770174, 29.049779056222519 ], [ 84.232588985291017, 29.046773507125451 ], [ 84.236513255951181, 29.044407099947684 ], [ 84.240014960877815, 29.044962541906244 ], [ 84.243895233143093, 29.042808052020369 ], [ 84.246954734872304, 29.037907364536458 ], [ 84.24975683292439, 29.036084014503277 ], [ 84.24664789189346, 29.029243345118733 ], [ 84.250785802342321, 29.024766948091813 ], [ 84.252242978605622, 29.021860988837339 ], [ 84.251405998704854, 29.017240401002859 ], [ 84.248061288317004, 29.012874874837852 ], [ 84.24381612338702, 29.009147025670185 ], [ 84.240864643131886, 29.000124559487123 ], [ 84.239498194502175, 28.997440347414688 ], [ 84.241069463304001, 28.992319031274722 ], [ 84.238702979956585, 28.988741010593294 ], [ 84.239007092830306, 28.981244392916533 ], [ 84.241806757795686, 28.976177341138904 ], [ 84.239039788376047, 28.97149247840844 ], [ 84.239333235537643, 28.96909620357086 ], [ 84.235613058852351, 28.968577129884515 ], [ 84.235304500961746, 28.96427583329903 ], [ 84.232232222120984, 28.961438795686373 ], [ 84.230751439940732, 28.957471074816738 ], [ 84.230536675967642, 28.950403909137052 ], [ 84.228264987711555, 28.9439832138711 ], [ 84.226032921824142, 28.940483625488906 ], [ 84.224888227287835, 28.933068351985497 ], [ 84.225087925311911, 28.928181867096242 ], [ 84.222577483916339, 28.92347357293858 ], [ 84.223124902739585, 28.920785953769851 ], [ 84.220480924639574, 28.915689818142493 ], [ 84.220905127076392, 28.912165523937933 ], [ 84.225466189142836, 28.903592509304094 ], [ 84.224722914889924, 28.897424002192412 ], [ 84.225909511937033, 28.894042706793449 ], [ 84.229667229018446, 28.892353483951933 ], [ 84.235087122430215, 28.892520116787551 ], [ 84.237572938594681, 28.891288581788238 ], [ 84.245280169324303, 28.890496526458826 ], [ 84.25455548483248, 28.890542481471243 ], [ 84.258258446466968, 28.895602075029586 ], [ 84.263250170901657, 28.897679025660711 ], [ 84.266041795801073, 28.897682569549715 ], [ 84.268684942246693, 28.894553024064557 ], [ 84.272294061056911, 28.892542578517538 ], [ 84.27402450955411, 28.886752763028628 ], [ 84.278640163731737, 28.88557256961532 ], [ 84.286182680650327, 28.88105404186016 ], [ 84.28741009387268, 28.87723903684542 ], [ 84.29252246430616, 28.874453436319975 ], [ 84.298996017416073, 28.8721359393802 ], [ 84.304562289338392, 28.871189552113957 ], [ 84.311421971906498, 28.869179658090388 ], [ 84.315621144362382, 28.869848913268687 ], [ 84.320844491316194, 28.867492775118503 ], [ 84.323620528740037, 28.862728569273738 ], [ 84.326707619703257, 28.862463955102719 ], [ 84.332714897018221, 28.86447274104777 ], [ 84.334780026605827, 28.865967761561468 ], [ 84.335120989160814, 28.868608524446365 ], [ 84.340708909284146, 28.872490381752364 ], [ 84.344566648317965, 28.872151224253479 ], [ 84.347496394249333, 28.868412489221512 ], [ 84.352679836715609, 28.86471978579474 ], [ 84.356646204773782, 28.860434492405091 ], [ 84.360495894081822, 28.859530949129958 ], [ 84.36568127691045, 28.861777325408639 ], [ 84.369583206507841, 28.861006458318123 ], [ 84.374755692595556, 28.864394042164715 ], [ 84.377095696430871, 28.864130353658219 ], [ 84.382416531378453, 28.861742220214154 ], [ 84.388917856014331, 28.861270179688464 ], [ 84.397237231848351, 28.858604369592506 ], [ 84.404574714847399, 28.85410239990977 ], [ 84.408606307127869, 28.853700001181121 ], [ 84.409032777505104, 28.846288250760161 ], [ 84.406897401275216, 28.84204916823791 ], [ 84.402976080077423, 28.840705166537667 ], [ 84.399901983358546, 28.83811335537882 ], [ 84.400625234679069, 28.83029014732163 ], [ 84.40579557152698, 28.828806115922351 ], [ 84.409407897956427, 28.828876417074806 ], [ 84.418330143153838, 28.831686926534012 ], [ 84.420474558153813, 28.830949340933415 ], [ 84.425178541240783, 28.825405549645517 ], [ 84.435312343279975, 28.820604339391171 ], [ 84.431177440674688, 28.815490055003984 ], [ 84.42999427800126, 28.81288383767679 ], [ 84.432059110301594, 28.801498664840913 ], [ 84.438856559965899, 28.796091956635678 ], [ 84.445366433551683, 28.793223823548558 ], [ 84.443950132805398, 28.786693212217024 ], [ 84.445938888559439, 28.782565184920589 ], [ 84.439794899466932, 28.776501267796068 ], [ 84.437493096017931, 28.772829442683484 ], [ 84.436592287256303, 28.769398992779344 ], [ 84.441605595036947, 28.767336574273855 ], [ 84.451911202645476, 28.764825531336363 ], [ 84.454475265382086, 28.760255553584319 ], [ 84.457606837231396, 28.757623657254022 ], [ 84.458829266852561, 28.753076218474444 ], [ 84.461182427751865, 28.751189116447712 ], [ 84.464807360670676, 28.752101528206303 ], [ 84.468354031094506, 28.751092177315968 ], [ 84.475626515533705, 28.747004730454279 ], [ 84.480306322052712, 28.747191913064491 ], [ 84.483687178246029, 28.741274509175913 ], [ 84.486511513690388, 28.739991671817794 ], [ 84.489551637282986, 28.735449948915054 ], [ 84.494321803414948, 28.735801930416688 ], [ 84.497454907404176, 28.740719592573821 ], [ 84.502278249769162, 28.744306591154473 ], [ 84.510172046103975, 28.745326061586457 ], [ 84.514727117885514, 28.748620332759018 ], [ 84.523877555296153, 28.743728364879967 ], [ 84.52490294848117, 28.742246704506375 ], [ 84.528948328386633, 28.743004699896563 ], [ 84.53370357894218, 28.745422367183199 ], [ 84.539764855451864, 28.744162079778096 ], [ 84.544369956638917, 28.745706949651279 ], [ 84.551524959816405, 28.750586680057427 ], [ 84.556715230863489, 28.752214426800688 ], [ 84.557252703954148, 28.747010162030978 ], [ 84.559113676742811, 28.745337657564679 ], [ 84.567352589122521, 28.741542887340049 ], [ 84.571680952556065, 28.735224035401114 ], [ 84.586811438506601, 28.734629083000435 ], [ 84.592374151792612, 28.736646362776192 ], [ 84.597413745491224, 28.735748900994768 ], [ 84.599645910583902, 28.734468991568146 ], [ 84.605775735221556, 28.733480618179325 ], [ 84.615357884709738, 28.736733224732397 ], [ 84.617768329621057, 28.735880779082329 ], [ 84.626341730747598, 28.736527108060045 ], [ 84.629415835621373, 28.732720755976565 ], [ 84.632722346421914, 28.731949567352672 ], [ 84.639905962337977, 28.72820721315032 ], [ 84.643915375105109, 28.724617168819083 ], [ 84.644471209095855, 28.719996850539292 ], [ 84.647735173159504, 28.718745017714159 ], [ 84.650746921173322, 28.714473832059134 ], [ 84.650057043919787, 28.709997042984131 ], [ 84.650633560678912, 28.702457429470524 ], [ 84.655702550510796, 28.700373389331308 ], [ 84.661514117585398, 28.698815625546587 ], [ 84.664311951837405, 28.694784226881826 ], [ 84.666509105516042, 28.694292994754584 ], [ 84.668591205491225, 28.691108694551065 ], [ 84.667700748549976, 28.68573967114742 ], [ 84.668348084409118, 28.683451328332715 ], [ 84.676048894593578, 28.679088601468322 ], [ 84.682254265365827, 28.678439385972737 ], [ 84.688214084066871, 28.678871630178143 ], [ 84.691646977593123, 28.676932175419928 ], [ 84.696440817000507, 28.671843218040966 ], [ 84.704496809556488, 28.671474444406314 ], [ 84.705036690227857, 28.670733958313338 ], [ 84.701139097687403, 28.664180681800072 ], [ 84.700819851633909, 28.660027056254961 ], [ 84.69739318501216, 28.654001301598825 ], [ 84.69875257281555, 28.650646630100724 ], [ 84.701540122687106, 28.648349322526506 ], [ 84.700931841262857, 28.644747579306834 ], [ 84.698095639931196, 28.639594066894553 ], [ 84.69478683432196, 28.636486797398803 ], [ 84.700805632851399, 28.634515699594271 ], [ 84.71379373962148, 28.633024420505787 ], [ 84.715842695424556, 28.630987889628074 ], [ 84.720012490439245, 28.629059570618448 ], [ 84.722734566279982, 28.625938774638854 ], [ 84.72518928491651, 28.620671795333269 ], [ 84.73092583938157, 28.620246176891534 ], [ 84.737205133779355, 28.616812654428475 ], [ 84.742693456492717, 28.617109778528821 ], [ 84.746885370270761, 28.618356794954142 ], [ 84.755315404623659, 28.613611052157179 ], [ 84.763813848840812, 28.612767204246254 ], [ 84.76756745483182, 28.61059621321726 ], [ 84.777040510511796, 28.610156469286391 ], [ 84.781495310638007, 28.609174381114983 ], [ 84.856897412638858, 28.570814167459385 ], [ 84.857280889009957, 28.572487833563315 ], [ 84.86527534288912, 28.580442988093541 ], [ 84.86887100801583, 28.582463862300539 ], [ 84.87399798286512, 28.580813471278738 ], [ 84.879516459845291, 28.582541841017001 ], [ 84.886064582124362, 28.582702245560338 ], [ 84.890137977763032, 28.588579088491212 ], [ 84.892484831198971, 28.589567474108829 ], [ 84.899539437516566, 28.590244964863349 ], [ 84.901012238885528, 28.593323458132097 ], [ 84.905364814076634, 28.588841437889862 ], [ 84.910396208607153, 28.588658911638504 ], [ 84.91773276085118, 28.593105313440098 ], [ 84.918711964286146, 28.595052276882654 ], [ 84.932257056405803, 28.593831859479785 ], [ 84.938801705079115, 28.59574022996178 ], [ 84.945346540321239, 28.594715742919469 ], [ 84.947371857075098, 28.590566779337262 ], [ 84.94698551723053, 28.58837228559365 ], [ 84.949013164556661, 28.5803704232451 ], [ 84.964776549716788, 28.586832529614753 ], [ 84.971850856520334, 28.586782087567236 ], [ 84.975282268072576, 28.59001253680637 ], [ 84.980840456422953, 28.590358221383244 ], [ 84.987705959350265, 28.59419285939499 ], [ 84.992385356020421, 28.599119112081834 ], [ 84.992810383958869, 28.601033444541674 ], [ 84.987979356639343, 28.603272598647539 ], [ 84.985840329166948, 28.606263540871385 ], [ 84.988833538790843, 28.612945918204552 ], [ 85.000438959897096, 28.623239545141161 ], [ 85.001165499576359, 28.625647899961887 ], [ 85.004971395775357, 28.630180861631644 ], [ 85.008918971986517, 28.637128605409895 ], [ 85.017125076421593, 28.639492212319912 ], [ 85.023006028098266, 28.648978443922019 ], [ 85.026253182972852, 28.650706589764358 ], [ 85.031943421374109, 28.656697512049195 ], [ 85.040339021980756, 28.658038653083601 ], [ 85.041023249183823, 28.660701858944687 ], [ 85.041424713099886, 28.668720196634862 ], [ 85.051265316063137, 28.669688520639752 ], [ 85.054580834062307, 28.677429244217429 ], [ 85.053709448749515, 28.680451954065806 ], [ 85.058592941292929, 28.682468788203636 ], [ 85.061778307623911, 28.680506207364637 ], [ 85.068495240874483, 28.679675081656203 ], [ 85.072734028038511, 28.677762576168181 ], [ 85.074836420575991, 28.675492442992695 ], [ 85.08042282029605, 28.671583891841696 ], [ 85.083936801098133, 28.670998628318895 ], [ 85.088807261403858, 28.671679146797086 ], [ 85.091915182217889, 28.676463324365326 ], [ 85.09402680221622, 28.678135769264784 ], [ 85.101882924633983, 28.681834561944569 ], [ 85.110402628862843, 28.683400372739104 ], [ 85.115378396663914, 28.686587352012566 ], [ 85.117014958903326, 28.685146073093065 ], [ 85.125244023582511, 28.680422077844575 ], [ 85.129103603216009, 28.678905717626563 ], [ 85.132589831561305, 28.675684756658843 ], [ 85.134414862715772, 28.671593409986812 ], [ 85.134440127265151, 28.667821691800061 ], [ 85.136572318423546, 28.666028578142594 ], [ 85.139806081126764, 28.66571034828937 ], [ 85.145663649217155, 28.661029997141036 ], [ 85.145141251863251, 28.656554646435456 ], [ 85.154366061428007, 28.648793444385618 ], [ 85.159090357592135, 28.643447697461827 ], [ 85.163550650453416, 28.642841014272719 ], [ 85.167254879459165, 28.644097148797293 ], [ 85.171072191809387, 28.643669438657099 ], [ 85.176303341627062, 28.644948284009025 ], [ 85.181173201529418, 28.644499843281185 ], [ 85.183055922949691, 28.642857024257523 ], [ 85.188486928359623, 28.640871857896183 ], [ 85.184812226493534, 28.632303139998911 ], [ 85.18629799185112, 28.631083338308855 ], [ 85.190867886148595, 28.630903368140842 ], [ 85.198016334034577, 28.626744053341064 ], [ 85.197331675634913, 28.620876326419559 ], [ 85.194877379648915, 28.617868559580145 ], [ 85.193209533624781, 28.612289165015032 ], [ 85.189709190096778, 28.609256695547941 ], [ 85.189299136663351, 28.605533902764829 ], [ 85.183204572093445, 28.602708933849502 ], [ 85.178606014094782, 28.599011194274254 ], [ 85.173663893098791, 28.597486438646808 ], [ 85.175229359328497, 28.59220357066285 ], [ 85.178446339586685, 28.590596645330674 ], [ 85.181209718168645, 28.58780032076757 ], [ 85.182552261043909, 28.58325013229987 ], [ 85.181364378703236, 28.579290473079183 ], [ 85.184407562225218, 28.575097655224674 ], [ 85.189205986183751, 28.572107444490275 ], [ 85.191557550127584, 28.569057448604291 ], [ 85.184807198645444, 28.560305695699778 ], [ 85.188370734066496, 28.553938271730978 ], [ 85.188778377724702, 28.544625375896654 ], [ 85.186415848645581, 28.540222612336613 ], [ 85.187007119303175, 28.535541298034634 ], [ 85.185462188950552, 28.5331276795246 ], [ 85.178293654999933, 28.532621606866243 ], [ 85.168932383856955, 28.533503371711561 ], [ 85.166124099881458, 28.532124388214925 ], [ 85.165034805450631, 28.526329709894188 ], [ 85.166102456375185, 28.521344431073587 ], [ 85.163089094090239, 28.519049090052068 ], [ 85.162110934587872, 28.51503100188863 ], [ 85.156850762864693, 28.509019211798087 ], [ 85.157462788172992, 28.503972430936514 ], [ 85.156385360928951, 28.501412270985632 ], [ 85.15668109549334, 28.497326897417036 ], [ 85.152891868076694, 28.49058057336093 ], [ 85.145611125734789, 28.485844133918054 ], [ 85.141333870467392, 28.486441759015552 ], [ 85.133952933550717, 28.48562833627421 ], [ 85.124491522147395, 28.487856665176054 ], [ 85.117841841601461, 28.485089494795574 ], [ 85.116682513329323, 28.481309444481834 ], [ 85.112988621094033, 28.478792862528252 ], [ 85.11262395056994, 28.471399216385279 ], [ 85.106529608880422, 28.463860489108622 ], [ 85.104304172157342, 28.460095669823499 ], [ 85.09950925319626, 28.456901881377167 ], [ 85.100255888946464, 28.451664744796229 ], [ 85.101918415396042, 28.44879328316971 ], [ 85.107597798705015, 28.44511758566432 ], [ 85.114300445851029, 28.443219930862579 ], [ 85.112676244598788, 28.433364112450516 ], [ 85.114181020992405, 28.425553534495801 ], [ 85.117474537139501, 28.415817660779336 ], [ 85.117561140766981, 28.413313014766878 ], [ 85.115917741704536, 28.410001538624602 ], [ 85.116515302775568, 28.406283573715946 ], [ 85.120010953756506, 28.400743946873369 ], [ 85.124878948536235, 28.396918624320161 ], [ 85.126426991290046, 28.391024997549103 ], [ 85.12256552556606, 28.387086666800915 ], [ 85.121158118168424, 28.379692502687298 ], [ 85.122248075736081, 28.374801964674251 ], [ 85.120888766406722, 28.371359504941246 ], [ 85.116339167328448, 28.369197439094357 ], [ 85.114600215758685, 28.366003950525837 ], [ 85.114313965834654, 28.361855572475164 ], [ 85.113015236056356, 28.357210222917967 ], [ 85.109001740010982, 28.349701713754389 ], [ 85.107955381635662, 28.346603977806012 ] ] ] } }
]
}
