{"type": "FeatureCollection", "features": [{"type": "Feature", "geometry": {"type": "Polygon", "coordinates": [[[86.9040946658046, 26.488352314555325], [86.90633964409925, 26.490407360768437], [86.90700404477711, 26.491035129744972], [86.90659643750917, 26.492702539622876], [86.90965929755751, 26.495337986570217], [86.9098771330603, 26.49587294354449], [86.90990536490756, 26.496561258887436], [86.91078442087975, 26.497396763374187], [86.91089938749029, 26.498274688628193], [86.91071227823545, 26.498678587648378], [86.91101585062712, 26.499308287805018], [86.91146135628215, 26.49926567412408], [86.91256789569097, 26.499487486110635], [86.91401532565405, 26.49984047994986], [86.91635779581918, 26.501678734284745], [86.91634190804363, 26.50238279749692], [86.91734725609103, 26.503410162379154], [86.91785966612979, 26.504527510990744], [86.91607785620165, 26.509432427001784], [86.91597291727344, 26.510145487901177], [86.91861445394541, 26.515881094252997], [86.92114026074903, 26.518407729057397], [86.92361515280707, 26.523129983609856], [86.93328955224632, 26.53361916960892], [86.93864302378341, 26.534659607676975], [86.94566000430191, 26.53690103175807], [86.95090487853898, 26.537297836795343], [86.95684237047212, 26.54265928230654], [86.96178089849295, 26.543572349548], [86.96628331089354, 26.546712464700878], [86.96875120024163, 26.551587393385695], [86.97212914458258, 26.554196723192586], [86.9738775228848, 26.558092037668008], [86.98111236229725, 26.562701196317335], [86.98906742725158, 26.569950324107733], [86.99242600257601, 26.572389918489353], [86.99172488618618, 26.57626450522596], [86.98343329630863, 26.584026559223112], [86.98223431411661, 26.58756485424169], [86.98250615568685, 26.590421734081765], [86.98441779825758, 26.595578315953578], [86.98887031097104, 26.603102296903764], [86.9891024380073, 26.60746891896761], [86.98688010572101, 26.613132760349373], [86.9796891320715, 26.62341529969789], [86.97883989097502, 26.625236250778478], [86.9854558904282, 26.628992098384558], [86.98546590688733, 26.63402884533776], [86.98852690841771, 26.63585698801509], [86.98852292293546, 26.641067469488217], [86.99108931910108, 26.64498285850007], [86.99111409256747, 26.64959539274751], [86.99490906682587, 26.65409518924426], [87.00228981167379, 26.656331558121366], [87.00262144150574, 26.65994662242554], [87.0044546046917, 26.66165700430478], [87.00702296942868, 26.667023266352924], [87.01284383605835, 26.670100784819212], [87.01330097742888, 26.675333772119497], [87.01212152757466, 26.677222648919802], [87.01072796071125, 26.68296124747855], [87.01168351166152, 26.68647245654134], [87.01429992374158, 26.689322252166242], [87.01397486751547, 26.696843525467568], [87.01301434625738, 26.70074073010426], [87.00777934839533, 26.709020477086604], [87.0031750125352, 26.70882885189791], [87.00053107121421, 26.707517858602653], [86.99488240482783, 26.70281729787391], [86.99132661234577, 26.703002157860606], [86.99089201406237, 26.698543103423006], [86.98811071712713, 26.700081920693947], [86.98452842082068, 26.7035318692542], [86.98365723735469, 26.705709288502483], [86.98386114502829, 26.71171414098192], [86.9827789658272, 26.714972524361386], [86.98219589904558, 26.715789317747113], [86.9814824751022, 26.716563237640262], [86.978174688661, 26.717887377092836], [86.97565036255108, 26.719234090576055], [86.97422720942204, 26.720420899552305], [86.97205810639231, 26.723794066584222], [86.97099011288758, 26.72997456905794], [86.96993463530313, 26.732411462293143], [86.96890261514704, 26.73377420006617], [86.96606618651907, 26.735966958977503], [86.96289116455763, 26.735812730261216], [86.96110940392118, 26.735437669923762], [86.95613857643528, 26.73417025785096], [86.95313074010275, 26.733088425854085], [86.94882956751967, 26.732202366932828], [86.94631713268652, 26.732720403256888], [86.9444623678528, 26.73298603553413], [86.93851187888518, 26.736458628673038], [86.93250975462864, 26.740729900892685], [86.92479849566686, 26.750000517800427], [86.92488382580112, 26.751582380553213], [86.92783381596446, 26.75751191134536], [86.9256782815622, 26.763450103432657], [86.92505816285559, 26.764000356992884], [86.92339059781, 26.76548201082291], [86.92277123103443, 26.765937460209916], [86.92170498124624, 26.766559762266823], [86.9207509823572, 26.76645769229426], [86.91999152889113, 26.76597209681257], [86.91521418380059, 26.761440412067333], [86.91343987253734, 26.760468966741374], [86.91147045140431, 26.759975851107537], [86.91032867308247, 26.759467438557788], [86.90897103923074, 26.759360487083622], [86.90944974531715, 26.75557651470774], [86.90862979724807, 26.752276914996415], [86.9088278374284, 26.746258758688274], [86.91139367704642, 26.741083819100226], [86.91055119940819, 26.739305085585702], [86.90355763002921, 26.735328939031827], [86.90409031730279, 26.732093419380604], [86.89822182409878, 26.726479498291983], [86.89427982140393, 26.724233565019823], [86.88986635110528, 26.720405324901048], [86.88877772975968, 26.718066636256527], [86.8865792750248, 26.714671021227016], [86.8860897227332, 26.714241862951965], [86.88495141594349, 26.71210846795246], [86.88303005859667, 26.71125619721368], [86.88180808785545, 26.711465032950027], [86.87777270367637, 26.713029951559925], [86.8766800475007, 26.71235199226278], [86.87310250367597, 26.712750520992884], [86.87267211421704, 26.713120231201643], [86.87062514580299, 26.712380448475454], [86.86715075732704, 26.710720909432645], [86.86676518989147, 26.710368558717906], [86.86642219510271, 26.709278273429454], [86.86614430582819, 26.70870713124151], [86.86544599805613, 26.706869592876398], [86.86566785126278, 26.700652954162013], [86.86515791246875, 26.700889424698588], [86.86481333146156, 26.700925165663797], [86.86407286600559, 26.70088384410438], [86.86161710342998, 26.70177959852284], [86.85926312051339, 26.700655781734856], [86.85393828009653, 26.69627263732805], [86.85267432028806, 26.696223932466662], [86.85074894046448, 26.696454316822432], [86.8504824870901, 26.695887674437508], [86.85049806599422, 26.69501887586629], [86.85116294943266, 26.6934963957063], [86.85087924365486, 26.69314860883935], [86.8475891924155, 26.6921363912854], [86.84695868306126, 26.693491949168585], [86.84620152625024, 26.693734789928264], [86.8448394022227, 26.693189501931375], [86.8430945213487, 26.69236391946241], [86.84223891855963, 26.69066149157104], [86.84204588271241, 26.6905868698116], [86.84175240844885, 26.691170938591963], [86.84089788345365, 26.69168900356404], [86.84045962554103, 26.691799111417453], [86.8418192398252, 26.695767724251546], [86.8413604586502, 26.69710084952945], [86.84057904896888, 26.697627977450583], [86.83999893263488, 26.700773066783906], [86.84010769353864, 26.702540038719786], [86.83997607042117, 26.703257473563852], [86.83993492779568, 26.704340565393675], [86.8392877931666, 26.70581117537653], [86.8386920979712, 26.706875571854955], [86.83844087682981, 26.707053551951127], [86.83752904205367, 26.707794908845845], [86.8375711470807, 26.70847872460373], [86.83766313029507, 26.708706768680507], [86.83776528662159, 26.709550821413902], [86.83651380278103, 26.710560336479666], [86.83468883627032, 26.711318676260593], [86.82336130729807, 26.71429272172436], [86.81875394852837, 26.709331515578278], [86.81543830923015, 26.709688302628315], [86.81332006085432, 26.70785092757914], [86.80822813347609, 26.709098793655567], [86.80525113851301, 26.712369018479926], [86.79995575761605, 26.712673026385175], [86.7977867697604, 26.71065035427324], [86.79485484150868, 26.71049494285706], [86.79248263554395, 26.708212352588973], [86.7895019694547, 26.70778146452339], [86.78442450333729, 26.704867383516667], [86.7815183839986, 26.70176691841068], [86.77560151275782, 26.70247981750324], [86.77152343425733, 26.698736388857153], [86.76913060343904, 26.69952909105197], [86.76372634090698, 26.694901029944823], [86.76039151030918, 26.6955611027551], [86.7565603876045, 26.689425763187774], [86.7539842410566, 26.68853898462315], [86.75282790977778, 26.690626594332784], [86.75314739608604, 26.695232758226823], [86.7423664104896, 26.7017103189858], [86.74205619315049, 26.705035896927892], [86.7396636146374, 26.705722046011665], [86.74008160311989, 26.709617648805345], [86.73838858783637, 26.711884671064418], [86.73312552156762, 26.711902017489248], [86.72841342370825, 26.710022289789798], [86.72560948007443, 26.70981382289947], [86.72446156987837, 26.709667191247938], [86.72343833620432, 26.709272583479166], [86.7225511312176, 26.709643160873892], [86.72236015600133, 26.709645094957185], [86.72191059664092, 26.709303429797732], [86.72098343675722, 26.707780672668097], [86.71920147901336, 26.70786969706475], [86.7154465879416, 26.708067553382392], [86.71466306026295, 26.70828258369586], [86.71370656349157, 26.70809789614998], [86.71289362386449, 26.707281641471198], [86.71040745476199, 26.70691550636221], [86.70989895586415, 26.707034174808836], [86.70900906778316, 26.707212769017236], [86.70837364708522, 26.70736943197362], [86.7059227240233, 26.70697405004136], [86.70573731524404, 26.706754753638457], [86.70567126812853, 26.70643190585093], [86.7058151977936, 26.705915453620882], [86.70580877804478, 26.70511208651702], [86.70523516907886, 26.704923655812024], [86.70491708620327, 26.70488684114089], [86.70402352445093, 26.70443142843379], [86.70295530414637, 26.70071036185439], [86.70247758387832, 26.699278729378978], [86.69871978039863, 26.698302813731306], [86.69728189080378, 26.695997991588833], [86.6971317276249, 26.695769759068927], [86.69642702157256, 26.695064184027334], [86.69523263550695, 26.694057439605817], [86.69454942542156, 26.693410609774965], [86.69365368241779, 26.692670784499345], [86.6929664208431, 26.691525248363174], [86.69183371989408, 26.690250028550583], [86.68890299524986, 26.689327497295906], [86.68718310366943, 26.688858821756373], [86.68482536350578, 26.688104535468188], [86.68412713805685, 26.688281195627845], [86.67930161881071, 26.689306148879805], [86.67852395012606, 26.690247615577384], [86.67253924850681, 26.692253588101206], [86.67220527701014, 26.69296364512363], [86.67140287155524, 26.693428903192324], [86.67070396074674, 26.693508509362335], [86.67036706057, 26.69381685159115], [86.6702418832836, 26.694105386645933], [86.67019297165373, 26.69615195619079], [86.66982772123103, 26.69843256232673], [86.66907304392949, 26.69964256832888], [86.66889671212007, 26.70165282638534], [86.66815717634212, 26.701982722393808], [86.66653865768764, 26.70396245868018], [86.66581968334935, 26.704215736762066], [86.66476031853597, 26.704337395629935], [86.66445756347913, 26.703476903537155], [86.66411206350614, 26.702638908744664], [86.66372587573132, 26.702067077397857], [86.66179830093517, 26.69970662694427], [86.66151909606502, 26.699286284112173], [86.66121889430646, 26.69884775502082], [86.66010425749126, 26.697382864727132], [86.65986648875686, 26.696770789426733], [86.65990630413239, 26.696387261266125], [86.65934976464368, 26.695760869323188], [86.65815088721364, 26.69437015859137], [86.65761709116397, 26.693915314476374], [86.65673075366635, 26.691663372130975], [86.65222958950486, 26.691634360976963], [86.64954135340865, 26.68975710525427], [86.64347836095797, 26.69718410070065], [86.63423053456326, 26.698564198081648], [86.63119832233556, 26.69470211086646], [86.6282080312298, 26.694342341891492], [86.62759419473191, 26.69034886960406], [86.62509438921643, 26.69061530396077], [86.6212516416092, 26.693470925812285], [86.61655553053363, 26.69510789023452], [86.613498826906, 26.693969063582784], [86.61111810812034, 26.689354678509186], [86.60720595655195, 26.69104308920542], [86.60493807892857, 26.693315913850974], [86.6008752826345, 26.699871144632187], [86.59879059839061, 26.697739671612236], [86.59566245767402, 26.69702668142064], [86.58833415228803, 26.69743658425809], [86.58572892236752, 26.700725876427395], [86.58327109665434, 26.70170249918819], [86.58316118201296, 26.704281458322615], [86.58120335572991, 26.708152397786428], [86.58304590220699, 26.712397868452292], [86.58035592400716, 26.713145882351114], [86.57985104044963, 26.71669393714277], [86.57747649198296, 26.718839646067178], [86.57357815142025, 26.720524932226603], [86.57174505373168, 26.72464435185779], [86.57292540317484, 26.730472047204085], [86.57173218909254, 26.733187538444398], [86.57392433242589, 26.739582388470357], [86.56973691704852, 26.740670972109765], [86.56718876392729, 26.7429264183685], [86.5630166526758, 26.74432178780974], [86.55611873241557, 26.744584648317144], [86.55326780028831, 26.747125626865515], [86.55781436228781, 26.751722861947464], [86.55818470874816, 26.753768438371623], [86.56328480349424, 26.759326285859547], [86.56611284979786, 26.763410224570844], [86.56781617269223, 26.76426386579051], [86.56885070843171, 26.76806023698685], [86.572641491479, 26.769777650040844], [86.57722570673972, 26.77575995153209], [86.5769813592024, 26.781921780576873], [86.57794455858142, 26.78431427397618], [86.57323053239318, 26.785022256996744], [86.57079280023713, 26.78440339520471], [86.5684827846457, 26.781607289550053], [86.56502170788993, 26.782909991489618], [86.56538436196736, 26.788209406546798], [86.55756265005435, 26.79024765758053], [86.55633222959834, 26.78813401020172], [86.55099058659131, 26.78639319808504], [86.54816735987234, 26.78194791639536], [86.53631097730789, 26.784396250914927], [86.53674474908433, 26.786627124497326], [86.53127597750769, 26.78883177577362], [86.53108284145796, 26.79055962051104], [86.530340304268, 26.79098363317966], [86.53012782717634, 26.79121085960418], [86.53041140293655, 26.791798500190772], [86.53238724246232, 26.793143165233996], [86.53355619472823, 26.79412184886067], [86.53619273147628, 26.796860902387593], [86.535991310524, 26.79732273335546], [86.53539025546378, 26.7977201882402], [86.53449518014087, 26.79792934222855], [86.53668083499076, 26.800815812668105], [86.53759878966748, 26.80025693983938], [86.53889026447077, 26.79939922461005], [86.53979952871465, 26.799034334567335], [86.53998026354265, 26.79863549770886], [86.54038396818304, 26.79829159728206], [86.54073034096425, 26.79922683334976], [86.54092649471829, 26.799617927253955], [86.541843375399, 26.799614130572408], [86.54202846468787, 26.800167585005536], [86.54542977495082, 26.802994643731054], [86.54509451962714, 26.805329057677024], [86.54481591042584, 26.806305217081622], [86.54697572753987, 26.80757351698166], [86.54986700233412, 26.812274027252098], [86.55011782797314, 26.813069149027807], [86.55028398643266, 26.813421620821693], [86.55077785285269, 26.813743663333018], [86.55172854010543, 26.81381211088207], [86.55328107084718, 26.814624878113275], [86.5534948983642, 26.815559736967693], [86.55199132932987, 26.819242137505967], [86.5518964197668, 26.8214757518415], [86.55232815453262, 26.82249929406812], [86.55186713641284, 26.823244783165684], [86.55183766951654, 26.82482645597148], [86.55241733719849, 26.825150999713316], [86.55269997753086, 26.82564377362628], [86.55275646120674, 26.82607048702778], [86.55362995113646, 26.827084100096638], [86.55418851296392, 26.829601887955373], [86.55339976307327, 26.83151064411659], [86.55140900964975, 26.83211586966982], [86.55221732454405, 26.832939810823614], [86.55201992692882, 26.835238542653478], [86.55158091490554, 26.835557569645147], [86.54837631167317, 26.836540241434953], [86.5475088590009, 26.8366909009996], [86.5445734955017, 26.836494181167087], [86.54271236529317, 26.836382159553057], [86.54046966759469, 26.835898789179463], [86.53804372204962, 26.833474149097597], [86.53744192548318, 26.83347220159588], [86.53737301279678, 26.83271826679658], [86.53738852774201, 26.831910525659936], [86.53637097224633, 26.83193650617341], [86.53552077676093, 26.831638205561287], [86.53062823081585, 26.83143701559136], [86.52669116522132, 26.83219781960084], [86.52510917790542, 26.83247908061656], [86.52437033850714, 26.832390888399832], [86.52258802418702, 26.831628925372847], [86.51963541023056, 26.831562506355716], [86.51980480973903, 26.83232131741486], [86.52006269828253, 26.833053257333578], [86.52059492080885, 26.834036617250895], [86.51973258807368, 26.83737555872931], [86.51995396412823, 26.838928800717404], [86.5185384550573, 26.842191427046597], [86.51554450357874, 26.843575754585686], [86.51420254245953, 26.841120510607603], [86.51135044788329, 26.842487154611344], [86.5109719838676, 26.843122217301335], [86.5120736732356, 26.84512749683043], [86.51190467319586, 26.846178463931775], [86.51146934329884, 26.84673203283378], [86.509046541837, 26.846358087349515], [86.5082576432198, 26.84642531810843], [86.50629782467671, 26.84696904963712], [86.50530073071296, 26.84870306759985], [86.50572098030825, 26.85206896577274], [86.505727840394, 26.85273690706364], [86.50555004420715, 26.853063500298408], [86.50534448018473, 26.854412128052324], [86.50529341789994, 26.85471885017638], [86.50457160461373, 26.856259764773366], [86.50376438997645, 26.85660890789116], [86.50120326776144, 26.857488912136635], [86.49609488883837, 26.85663821332453], [86.4955599421627, 26.857419322994097], [86.49446917568343, 26.859022038410924], [86.49333875097999, 26.859476041839553], [86.49320919173701, 26.860125482446268], [86.49287746647046, 26.863985136854346], [86.48779541552844, 26.868193180360084], [86.4817202341781, 26.86989499039902], [86.4795586374183, 26.873041551686367], [86.47963219358789, 26.875864679174327], [86.47740471089715, 26.882919207439166], [86.4801260890581, 26.886708856907177], [86.47835254979847, 26.88768386603972], [86.47093682636653, 26.887814291883267], [86.46708047324809, 26.886903932052192], [86.45687266742347, 26.887463023110886], [86.45191947390306, 26.88874363922324], [86.44532058897195, 26.89150459711666], [86.44029254640476, 26.894998079406335], [86.43841491253825, 26.895175657113363], [86.4333875669974, 26.898213117113418], [86.42824339739316, 26.90253152468824], [86.42336689866114, 26.902996839029253], [86.4136070901635, 26.906887394115437], [86.40744482530538, 26.907182076916175], [86.40401609576357, 26.909656488482398], [86.40115431149748, 26.908227378886934], [86.39652844740179, 26.909663049447502], [86.39485175673602, 26.90832007720822], [86.38267953415556, 26.908226755819737], [86.38295229841981, 26.90285310940585], [86.37706424893645, 26.8971162040144], [86.37702798264958, 26.892138329943855], [86.37448538726592, 26.888645407810547], [86.37431967571575, 26.887839163632727], [86.37392237938863, 26.88355915940996], [86.37357036858394, 26.883282302917117], [86.37274985360771, 26.883138801802303], [86.37262905913649, 26.883029934375763], [86.37207589005617, 26.882610024623194], [86.37122482805813, 26.881915759066505], [86.3707360939033, 26.881216375041145], [86.36949146524441, 26.880186382488386], [86.36869850946657, 26.877032834772002], [86.36968216124278, 26.875590853423898], [86.36732069679427, 26.873671358071988], [86.36700868306802, 26.873284074488563], [86.36534360536244, 26.872439496038186], [86.36225920640523, 26.87489866497494], [86.36012910512852, 26.875096611806754], [86.3594485065632, 26.875089101059086], [86.35876965941901, 26.875002472318105], [86.35800363380194, 26.8750283321967], [86.3573611483967, 26.875350355529587], [86.35576226836798, 26.876602155838242], [86.35379932098343, 26.877367117976764], [86.35311046861113, 26.87759414890984], [86.35011278700622, 26.878081305710072], [86.3462989225959, 26.87745448458831], [86.34456494205328, 26.87837837405706], [86.34344101570805, 26.878880873410388], [86.34192607293184, 26.879620720280467], [86.33932964931822, 26.880213312024676], [86.33652877158083, 26.879884294137696], [86.33237607607745, 26.879273590971792], [86.33096788691067, 26.879172138845803], [86.32905876117842, 26.879163045190197], [86.32820874796047, 26.8791206597013], [86.32702178127553, 26.878954779466508], [86.3260135953408, 26.87919367902078], [86.32558339850584, 26.879336034264373], [86.32397092511663, 26.879156835587054], [86.32279008662483, 26.87879922237237], [86.32074629075416, 26.87880068804706], [86.32014361494073, 26.87901440911173], [86.31959905292551, 26.87940211580115], [86.31866985264782, 26.879835437031957], [86.31675608991463, 26.880433164789736], [86.31519669275968, 26.87926130458042], [86.31363063922873, 26.879639557520502], [86.31235659242424, 26.880867615378396], [86.30991099656215, 26.882789467435003], [86.30877502877583, 26.882357424054465], [86.30719793494242, 26.88173820231285], [86.29928152589076, 26.884964222855285], [86.29883225672604, 26.885699837942173], [86.29377704954537, 26.885309162930188], [86.29319074380638, 26.885658122343287], [86.29275904643688, 26.885836474393216], [86.29185578345114, 26.88611862190559], [86.2907391730534, 26.886413077267907], [86.2894996444452, 26.886551294363453], [86.28855707733497, 26.886677392490416], [86.28693666435385, 26.88665118023485], [86.2864276701627, 26.88656061722407], [86.28579613313353, 26.88629344275077], [86.28554404354406, 26.88617257420564], [86.28320780638798, 26.885188247044795], [86.28241442112267, 26.884649406343048], [86.27840488265618, 26.884613217590076], [86.27452398013266, 26.883241711331646], [86.27265654259668, 26.882941081693218], [86.26997160988451, 26.881525974262605], [86.26860415404768, 26.878962365164], [86.26757881428374, 26.877688960424035], [86.26724348682798, 26.877506720911132], [86.2665664537248, 26.877336224662457], [86.26571587896377, 26.877252842833016], [86.26419189796647, 26.876886162271635], [86.26254795753246, 26.875318398195297], [86.26181125075911, 26.874856489169336], [86.25852364846808, 26.873354566885727], [86.2575740927176, 26.872977271849003], [86.25478902566721, 26.869625396190994], [86.25156166151474, 26.8683153955036], [86.25023259568233, 26.8677984189773], [86.24686561693044, 26.863847586494444], [86.24399909827928, 26.8647055255593], [86.24225943393826, 26.865497239233743], [86.24106057092352, 26.866438448721425], [86.23858283732142, 26.869191477035365], [86.23734078353456, 26.870563460284597], [86.23531250361349, 26.8727209236228], [86.23422268204911, 26.873992168289313], [86.23425041796179, 26.874497749131837], [86.23417798389913, 26.87478840977397], [86.2325334380988, 26.87529396277832], [86.23191575819193, 26.87580284508368], [86.23088474575073, 26.87686673402418], [86.23006989742609, 26.877697209662482], [86.22923529916199, 26.878649361731583], [86.22827821853639, 26.879521893787878], [86.22768227640688, 26.88048436141632], [86.22664109092976, 26.880914118652605], [86.22475800812096, 26.881693581008776], [86.22420439094815, 26.88178756349901], [86.22334599624119, 26.882114520352513], [86.21807917835048, 26.882378846878957], [86.21705430885837, 26.882537878289487], [86.21487794611102, 26.883595311237535], [86.21407297633165, 26.88419330755711], [86.21380138444044, 26.884306855515344], [86.21293280530375, 26.88455025707967], [86.21139304786398, 26.885563766994686], [86.20968344252357, 26.88633948257712], [86.20891809738217, 26.886705250056536], [86.20778954429217, 26.887330676071336], [86.20598426858582, 26.8878824098381], [86.20443808388528, 26.888442334691515], [86.20320823994082, 26.888661044931656], [86.20125672528393, 26.88960230437893], [86.20054095236833, 26.889185266799615], [86.200244367296, 26.889127142000685], [86.20004582402457, 26.889450922612518], [86.19980289848729, 26.890406271722828], [86.19916089805182, 26.89145866812796], [86.19837260820374, 26.892318391611653], [86.19455644519752, 26.894074610598246], [86.19262219501724, 26.894208066662756], [86.18922450818046, 26.894475174107807], [86.18704960014963, 26.89469505605015], [86.187114676623, 26.89663144863243], [86.1867049770498, 26.896780241184487], [86.18662279357333, 26.897104773659425], [86.18659701531602, 26.89863445064344], [86.18646671317859, 26.898956295055182], [86.18473009465076, 26.900543813496064], [86.18310842687035, 26.900764642046532], [86.18174468722532, 26.89980901628552], [86.18009309584149, 26.899546699514016], [86.17851597989387, 26.90000238307006], [86.17394128336348, 26.908179897296986], [86.17200140096779, 26.908701006542607], [86.17051369747423, 26.90980469683794], [86.16940558134276, 26.910330694468282], [86.16879362465015, 26.91210284025573], [86.1686195560864, 26.913496276767418], [86.16432229578459, 26.913937978877062], [86.163640447249, 26.91394296711373], [86.16182405302898, 26.914257096700872], [86.16076937549212, 26.914393004682452], [86.16029617855263, 26.91481664689816], [86.15903781455748, 26.916190067165097], [86.15843120162187, 26.91641653708516], [86.157426570582, 26.917010842898343], [86.15690275531226, 26.917431859504276], [86.15600690656392, 26.91880059869773], [86.15599020898655, 26.91939392099693], [86.15748317170419, 26.920833381097736], [86.15781285747079, 26.921857483584194], [86.15737839693541, 26.922694277431653], [86.15624647710084, 26.925970531638427], [86.15708916960658, 26.929472923637604], [86.15748879425728, 26.92998750980133], [86.1585293657927, 26.92599762965488], [86.163186913189, 26.924504588940795], [86.17107560150225, 26.91996618348455], [86.17853224082842, 26.914486166517676], [86.18123108360382, 26.91108794905141], [86.18685694401424, 26.90648582405228], [86.19194557677571, 26.904197735730268], [86.19996650160066, 26.90553631340386], [86.20369056569056, 26.900081107095136], [86.20793208910963, 26.89936711570628], [86.2158993634125, 26.89624583638816], [86.21632987759983, 26.892845581261987], [86.21810126201143, 26.89027633756917], [86.22099792044614, 26.888507541930768], [86.22324085535683, 26.88958267185337], [86.22395844495587, 26.89280421189743], [86.2221136166867, 26.8991593700965], [86.2245233268216, 26.903996795606172], [86.23611163945961, 26.903360482365496], [86.24196032810961, 26.905661939167075], [86.24430370300988, 26.91200591811564], [86.24624688472142, 26.915116613361295], [86.25240171719247, 26.911572966439085], [86.25646005856788, 26.91175458063068], [86.25925263789361, 26.914454388878223], [86.25968448408887, 26.919143169596488], [86.2594714351732, 26.919828043066513], [86.25950397269582, 26.920825518034114], [86.25974871804159, 26.922519122575256], [86.26012608854747, 26.923371741089447], [86.26257701317046, 26.92663605627445], [86.26450635334332, 26.92821882373821], [86.27168022281627, 26.93152783891634], [86.27332149608618, 26.932125188602946], [86.27637213711789, 26.933237516381897], [86.2781432555482, 26.93445375109777], [86.27847032893035, 26.934881843764153], [86.27891100316427, 26.935757336321892], [86.27956881679113, 26.940582671197294], [86.2810591283721, 26.943286644828785], [86.28121408953041, 26.947179741089172], [86.28347112785848, 26.949192663576], [86.29275363406758, 26.950712872211152], [86.29696123322182, 26.952579652809966], [86.30330576257518, 26.956399671729997], [86.30489983450155, 26.957953186239386], [86.307831775152, 26.96042026749103], [86.30927869405917, 26.961241969175504], [86.31236832151855, 26.962755324821636], [86.31401878424361, 26.963198813332884], [86.32836620402395, 26.964125347248075], [86.32975489978766, 26.964025879345094], [86.33260676195843, 26.96476598686383], [86.33337453791316, 26.964708692315703], [86.33723186548242, 26.96381527349207], [86.34396379459739, 26.964029555151242], [86.34439261616674, 26.963907510633284], [86.34694984942851, 26.963686885583588], [86.34915718382503, 26.9638030999149], [86.35082833496685, 26.964074854004444], [86.35370974966888, 26.96510799870881], [86.35434715127647, 26.965832945409435], [86.35485938343672, 26.966476084729724], [86.35509602707154, 26.967095471513986], [86.3567540156584, 26.96924212233162], [86.35724642386452, 26.970555327147178], [86.35765654714616, 26.971064914043858], [86.35814240415155, 26.97187941278804], [86.35982190508241, 26.97330181542567], [86.361562708512, 26.97481927320306], [86.36273083779747, 26.976284413467905], [86.36571933607486, 26.98160499387527], [86.36596822170314, 26.982528978960335], [86.36623616573081, 26.983529770081955], [86.36638794547834, 26.984146530664827], [86.36646771381214, 26.985755639889536], [86.3665278132573, 26.986599816341478], [86.36669025667256, 26.988286107636167], [86.36671023796713, 26.989053352705245], [86.36684316435525, 26.991734555618535], [86.36731163614319, 26.993142439148293], [86.36781092317437, 26.99422772669106], [86.36817841179861, 26.99546137390833], [86.36786245950682, 26.998131570214174], [86.36760941733134, 26.998737387435806], [86.3696034065981, 27.001731531522694], [86.37017245027313, 27.002065824077576], [86.373102723259, 27.00358386434431], [86.37405986667622, 27.00865830717682], [86.37220900077443, 27.01080489883209], [86.3740071488098, 27.013405511871053], [86.37199148966674, 27.01565971622188], [86.37544105522997, 27.02084225395231], [86.37409256220553, 27.022941483216684], [86.37773235567802, 27.027989411030212], [86.37937038150864, 27.03144663314369], [86.37916452868132, 27.034640784884395], [86.37522685224849, 27.034794892326225], [86.370948924454, 27.037126989042232], [86.3667927665138, 27.037760425455332], [86.36411902086944, 27.0422724815305], [86.36423259660678, 27.04984993858867], [86.36349104989945, 27.05370277295391], [86.36090055196125, 27.05483725394981], [86.35604659291748, 27.05926696790341], [86.35116161892203, 27.061631801403813], [86.35034311853536, 27.063762536678432], [86.34688961516001, 27.064576906424826], [86.34577112063528, 27.068292496465535], [86.34692955084002, 27.070355646032546], [86.35122042764233, 27.070355218443737], [86.35148613205112, 27.073840227203622], [86.35439002640614, 27.075676801265075], [86.35538245740521, 27.081696910542203], [86.35827934217683, 27.084029690603234], [86.35702772895922, 27.094195707674768], [86.36243979459647, 27.099033246120413], [86.3578688255802, 27.09922002737523], [86.35583093844053, 27.10057124840372], [86.35490610588947, 27.10429002874694], [86.34972864372878, 27.104949820421304], [86.34813282536163, 27.106228555321227], [86.34405524500028, 27.105677097771647], [86.34040452043531, 27.106354976157515], [86.33406583915385, 27.100891727643134], [86.33193351525205, 27.099830160610367], [86.32783203623421, 27.100550715171806], [86.32493538086318, 27.099198785962425], [86.31766796079549, 27.101936733647264], [86.3111944102342, 27.1029769699846], [86.30643059597273, 27.108898990553993], [86.31189618056608, 27.10953058925409], [86.3132374767031, 27.110884179550915], [86.32450308596988, 27.109950514647302], [86.3290286182929, 27.115931249144104], [86.33073386877984, 27.117191666358615], [86.33215334200413, 27.12151711994974], [86.33519318790563, 27.127759056233586], [86.33433723997692, 27.13059585314927], [86.33766777362179, 27.135020455194375], [86.33643458768167, 27.136664038850395], [86.34102264306226, 27.14114871931614], [86.3411895411179, 27.144942448739634], [86.34367216579965, 27.147341278305642], [86.34483858394314, 27.143996031718437], [86.35030820743975, 27.142755671512514], [86.35556538369887, 27.143292025437166], [86.36030722141895, 27.13937863959432], [86.36352649233866, 27.142130262973602], [86.36818397207689, 27.140892263885913], [86.36862904178714, 27.14371020946475], [86.37110276641282, 27.14734730436263], [86.37422239805498, 27.14843301107232], [86.37046052171522, 27.151065151842907], [86.37372251255488, 27.154969673898982], [86.37364050677023, 27.158701342110575], [86.37909868109838, 27.16398740404941], [86.37813921078292, 27.165558123705708], [86.38118727802117, 27.170120396384462], [86.38487277705734, 27.173965680864804], [86.38428188913325, 27.175271742683854], [86.38986268531389, 27.179939736464615], [86.38647705171073, 27.180592808685983], [86.38372142152056, 27.183094352888965], [86.38005595795971, 27.192189297625674], [86.37667861033131, 27.194044888455643], [86.36873930541621, 27.192554010882514], [86.36517919402262, 27.196188691019557], [86.35878754992373, 27.20115064303585], [86.35526687665943, 27.201567671411237], [86.35132228344195, 27.200825232853404], [86.34493140484548, 27.20210869835475], [86.34265053043711, 27.204365647218193], [86.33999906671494, 27.2101767748071], [86.34015252457425, 27.214166673780976], [86.34307572485804, 27.219105973015573], [86.3409843506778, 27.22902399589215], [86.33166021384858, 27.231125589063193], [86.32828486338785, 27.23016855423243], [86.31901729303041, 27.23173932051463], [86.31588220971177, 27.231439793997087], [86.30830314841748, 27.23395669253867], [86.30611467840764, 27.237213054232473], [86.29557391146453, 27.238241159728855], [86.29125262250108, 27.243185523110686], [86.2853105188532, 27.246449508107546], [86.28176480990842, 27.245772508216998], [86.2792412995768, 27.247106597215293], [86.27712182402236, 27.250204849035725], [86.27238265235054, 27.25219971695822], [86.2686383208194, 27.25264048958133], [86.26630633682727, 27.254500972609414], [86.26707818288013, 27.25995400180134], [86.26462373915506, 27.2606698968016], [86.26157564298697, 27.257495064523813], [86.25705816557411, 27.257802835912454], [86.2555927638393, 27.253363642575795], [86.24836750604875, 27.248228163791172], [86.24193095440658, 27.2461942981645], [86.23903450700449, 27.240946277462047], [86.2291643119268, 27.237397238479794], [86.2235114546852, 27.239058245859432], [86.21841594000239, 27.2417622325904], [86.21394795344875, 27.24516460541015], [86.21112430963097, 27.245812062902036], [86.20440617056788, 27.24967973153078], [86.20428128403405, 27.253968098797227], [86.20840556393654, 27.259532861798913], [86.21113423915654, 27.260947219716364], [86.21137139703377, 27.26384109182675], [86.21420032916038, 27.26726627293758], [86.2188402734647, 27.27071729478951], [86.21942589731484, 27.273058034360837], [86.22305208284739, 27.274332732347023], [86.22344097436806, 27.277055934642863], [86.22686226188713, 27.277731494881813], [86.22897229554924, 27.28080263282577], [86.23155749717658, 27.28185252074335], [86.23347517907217, 27.28501502233444], [86.24016354502996, 27.288338902659376], [86.2358080283517, 27.295417950535445], [86.23543433646742, 27.297938470403466], [86.23789023051795, 27.302504918876153], [86.23647126361601, 27.306770641067985], [86.2336878576336, 27.3077481947205], [86.23142826342186, 27.314373755563842], [86.22880531731604, 27.316254544183533], [86.2284194722763, 27.320178314111526], [86.22117027552923, 27.32120760020717], [86.21897683505937, 27.323117705963845], [86.22196659466059, 27.3277709055542], [86.21710390244716, 27.32857637684289], [86.21570072390055, 27.333886506309696], [86.21788538393557, 27.33641675588116], [86.21788111074888, 27.34048701911162], [86.21662354626638, 27.342460947442277], [86.2184146351537, 27.35077848850022], [86.21712907222987, 27.352851595008726], [86.21996081240377, 27.356439074016187], [86.22184966866175, 27.36038000566014], [86.21926089824123, 27.362610513602753], [86.22207486184283, 27.367556121555165], [86.22472282530342, 27.37058745937308], [86.22381115080769, 27.378546986290292], [86.22210754028971, 27.38249716872469], [86.22562442182628, 27.38401715560585], [86.2249219490116, 27.387072747008684], [86.22692577657504, 27.388703823399613], [86.22658597812824, 27.39307905357235], [86.2277157899502, 27.39790014396068], [86.23059500592224, 27.399378061302432], [86.2323854571576, 27.402384261781915], [86.23545665117662, 27.40370969595473], [86.2360952575143, 27.40652451893148], [86.23444938234525, 27.407864684331734], [86.23758529752078, 27.410144909686313], [86.23756074602395, 27.412714618203044], [86.24031169901744, 27.415588284248788], [86.24122983523445, 27.418210566566476], [86.24471327833251, 27.41997128154758], [86.24742455914917, 27.419435375228346], [86.24796319306175, 27.424499058932778], [86.25198732851727, 27.42856614044888], [86.25126021441342, 27.43252646327758], [86.25585204606291, 27.43562176589162], [86.25589558044719, 27.439599787706065], [86.25702805584767, 27.445503594151738], [86.2597509366874, 27.448990455168282], [86.26410064408185, 27.456454552427484], [86.26761406127653, 27.459232489981517], [86.27477899003216, 27.462448950670154], [86.27676031853592, 27.464158207287554], [86.28513741948768, 27.466498329188344], [86.29215965975943, 27.470631518513805], [86.29294930538708, 27.476501759546007], [86.29539248814692, 27.479264492813854], [86.3029870465608, 27.48254039327817], [86.30539341157765, 27.48285703115116], [86.30645153659832, 27.48512528482751], [86.31554862337491, 27.49245122557417], [86.31873020874215, 27.498141273444915], [86.32501658770568, 27.500295001650205], [86.32603542417411, 27.504591324129496], [86.33080187134458, 27.509936804774465], [86.33320997279331, 27.510871137784182], [86.3344185224034, 27.515718851896004], [86.33827685971144, 27.520082716908906], [86.34138003864686, 27.521888921716315], [86.34653688929602, 27.52352417691956], [86.3549455072329, 27.52486076445026], [86.35765304945762, 27.529615949995318], [86.35743799594184, 27.53340542141864], [86.35853608923244, 27.539784372259785], [86.36482330269901, 27.546687990338054], [86.36896065019924, 27.548868304666424], [86.37066692224201, 27.55194899710855], [86.36874707705483, 27.556443751372], [86.37163951316128, 27.562079361603814], [86.37515053951023, 27.565565298915512], [86.37629333515457, 27.56807934462046], [86.38182177881441, 27.57181329451765], [86.38774355049746, 27.572444215103026], [86.38974997132988, 27.575485416215923], [86.39272598328613, 27.57710038604277], [86.39824156215798, 27.583319989412253], [86.40781315564618, 27.584489237504645], [86.4109254480243, 27.586756464142898], [86.41345424004497, 27.58680775312538], [86.41795992422283, 27.59139335978013], [86.4198793356241, 27.598264843240855], [86.42467506241411, 27.602007592490313], [86.43022503531998, 27.604248363581835], [86.43479111720954, 27.610288904214592], [86.44637655508303, 27.612201496321326], [86.469694762523, 27.617132147550677], [86.47662256921363, 27.61583407050891], [86.48036711371628, 27.617055214023395], [86.48461211682283, 27.61716359033381], [86.4924980940633, 27.613749593421794], [86.49372557402532, 27.615879487478296], [86.49469515196361, 27.617933946285817], [86.49759718840552, 27.61886278881875], [86.50015349575061, 27.620911650615238], [86.5004926176021, 27.624741690348426], [86.5033657883254, 27.628278487602692], [86.50423205777348, 27.633626651210847], [86.50598742195895, 27.63502049497712], [86.50648187237947, 27.637179186245614], [86.50696074348988, 27.640199737957566], [86.51138567640517, 27.64243561551622], [86.51370624566015, 27.648203829375667], [86.51614864079544, 27.646917298883395], [86.5175858880443, 27.64699225464979], [86.52348318283173, 27.649564440365943], [86.5262178053352, 27.65041541203836], [86.52664201765522, 27.652447488363435], [86.52763449083761, 27.65343235535593], [86.52882872372584, 27.65561818135391], [86.52750840827936, 27.660807508546842], [86.52933051903754, 27.66195312562671], [86.53336864991674, 27.66316933743353], [86.53548288363585, 27.668358974256385], [86.53749771213332, 27.669821004007517], [86.53803388098423, 27.67031240704196], [86.53822417609555, 27.672815187324357], [86.53881017641386, 27.674992128518866], [86.53669269682442, 27.67818218239823], [86.53673642251265, 27.679028420240698], [86.53898691132359, 27.68316477823895], [86.53923608966137, 27.684938999442593], [86.53919698623919, 27.68988224566295], [86.54078277623194, 27.69281163714567], [86.53911447398474, 27.69662358080986], [86.54098909026507, 27.702886367633933], [86.5432639494485, 27.70423628689777], [86.54791075607794, 27.70802621745036], [86.55096241769886, 27.710878953784363], [86.55132353590379, 27.71755405242939], [86.55354894912354, 27.719580535529648], [86.55436911872182, 27.724018904069453], [86.55689843602542, 27.728586853340293], [86.55627264261437, 27.73145021208054], [86.55825929023918, 27.738439560907086], [86.56327636317309, 27.74493756891005], [86.56288725450682, 27.749347231296223], [86.56918237115345, 27.751916487048906], [86.57276265428669, 27.754598997813712], [86.57036098968759, 27.75935440665704], [86.5660715433834, 27.762621540258298], [86.56391827752142, 27.770486550929213], [86.5658868918281, 27.77624163431293], [86.56559953456524, 27.78280404368893], [86.56616967329195, 27.787277591923893], [86.56883192613174, 27.79111917062473], [86.56881508393742, 27.79538785184283], [86.56563072117825, 27.799619543434545], [86.56708299579633, 27.80400786461707], [86.56217427396092, 27.806460684790352], [86.56073815539233, 27.806223743325415], [86.55295493457044, 27.80875500624362], [86.54637911375298, 27.811463586958624], [86.54242632715058, 27.81117079402135], [86.54035258022449, 27.81487755179523], [86.54073214578649, 27.818136767386243], [86.54353314063482, 27.82150776530971], [86.54384266415745, 27.827081522948344], [86.54710987489524, 27.834869322027206], [86.54914052082353, 27.84162869129347], [86.55014180140137, 27.84841404018174], [86.55410264968432, 27.857147016834944], [86.55445014308096, 27.861021989209206], [86.55251418300924, 27.8678790301027], [86.5512601175161, 27.87826233022836], [86.55462245140777, 27.885538051379783], [86.5522628011548, 27.892204164167595], [86.55174971561141, 27.899092789368435], [86.5542489941423, 27.90270626015005], [86.55471602385818, 27.907041818221984], [86.55342389990562, 27.911827492663516], [86.5497887780524, 27.91913452549512], [86.54871838974526, 27.928873135764526], [86.54780272492903, 27.93045847790236], [86.54206435370523, 27.93331837141077], [86.53881216605699, 27.935701226206383], [86.53448378985952, 27.941688052201425], [86.5284548395408, 27.941399034816733], [86.52379517521175, 27.939821781730018], [86.52173224551713, 27.94043506569736], [86.51992833977795, 27.944061147141092], [86.5182207987023, 27.953203799103616], [86.51556950910971, 27.956621571758195], [86.51341102336286, 27.960323077639643], [86.51248414066649, 27.968962913068157], [86.51869626589955, 27.971529792264377], [86.52005070480539, 27.974688595773184], [86.51544280592408, 27.9777384919019], [86.51283686763706, 27.984759380120433], [86.51577905096283, 27.990006211977953], [86.51626035023055, 27.99897604223988], [86.51503951728888, 28.001496295114276], [86.5195457905762, 28.00467746436292], [86.51974143440312, 28.008283394864403], [86.52222910330325, 28.016847296556907], [86.52105471322153, 28.018851158932407], [86.52534498962544, 28.023159410936533], [86.52876626367022, 28.0242992439891], [86.53134571128643, 28.028226875029322], [86.5304108754338, 28.031984646961877], [86.53181784604155, 28.033399544959664], [86.53336953650087, 28.038106588069706], [86.53335022342192, 28.046632323863857], [86.53651208779605, 28.050843877158588], [86.54364738839834, 28.05127615157947], [86.54889620867897, 28.050761040196765], [86.55251857692194, 28.054879047558895], [86.5557966028847, 28.056768998497578], [86.55822494575682, 28.06345494222095], [86.56266648758927, 28.066162902901887], [86.56534063441237, 28.06899382140106], [86.5651359155441, 28.07159445973712], [86.56244404831898, 28.073122275320856], [86.56087599575723, 28.076314211588777], [86.55871550447739, 28.077466882661145], [86.55970144461546, 28.082704243136853], [86.56431593948567, 28.086482110960937], [86.5668571092585, 28.091848424806226], [86.56656371516921, 28.094419439154045], [86.56202991141829, 28.101144006232243], [86.56234129770101, 28.1071619721676], [86.56826160045766, 28.111821533972176], [86.57264854189268, 28.110957626468064], [86.574408012775, 28.113061281451607], [86.58837359727167, 28.108088599251463], [86.58941203939062, 28.104581244541954], [86.60248381484176, 28.101923714048066], [86.60436354480535, 28.100144531788946], [86.60801586845713, 28.09216168688153], [86.60697941881698, 28.0904350107765], [86.60260724662353, 28.087568502796184], [86.60418316726596, 28.081869603852944], [86.60835712421536, 28.07601795200187], [86.6125704927481, 28.073868531615926], [86.61596417843933, 28.073532871736656], [86.6211725266015, 28.074801787738974], [86.6255212164443, 28.07424966418836], [86.63480969769316, 28.070732581233088], [86.63897090210044, 28.073408102791525], [86.64997467102314, 28.07484666896189], [86.65794854271577, 28.081102687513532], [86.66118024024287, 28.09503993383839], [86.66255888780253, 28.097073838594028], [86.66864249942971, 28.10094210006064], [86.6727271801479, 28.102334860341788], [86.68044501002495, 28.103616507671475], [86.68909769406649, 28.10866752149858], [86.70382397401387, 28.107287782130047], [86.7109851835715, 28.106082517585435], [86.71545911525519, 28.1079306192153], [86.720961796314, 28.106588212480727], [86.72668385886472, 28.103687074280476], [86.73827845555424, 28.103784147262395], [86.74257976436122, 28.098276092216906], [86.745863830685, 28.098340894979795], [86.74853281980103, 28.094356986807906], [86.747466466511, 28.085806545841713], [86.7508464978223, 28.081347880264257], [86.75337895976129, 28.07935579124758], [86.75932382616702, 28.07831499043209], [86.7649076108166, 28.07470810037817], [86.76342234909961, 28.07281718062628], [86.7561823191817, 28.069284930161626], [86.75314700397178, 28.064961263023086], [86.7514919484611, 28.054947817152026], [86.74930905485282, 28.051889051979234], [86.74713491758732, 28.051260132035555], [86.74719309872162, 28.04567857000841], [86.74933228169701, 28.044491214337558], [86.75074900119276, 28.04036504623348], [86.75291789589748, 28.037934614791777], [86.75906221485182, 28.035080229564663], [86.77291357687106, 28.03800977681425], [86.78020182984659, 28.03143361994746], [86.78056689728483, 28.026335332421088], [86.7857638281105, 28.02405356662762], [86.79009693675938, 28.01893653895901], [86.79412830096966, 28.02084681504246], [86.80501394066259, 28.023236170619676], [86.80701810100534, 28.02108208648994], [86.81182420250674, 28.01906047802522], [86.81660773702919, 28.020125093253107], [86.82019845991994, 28.019798186604866], [86.82594356643739, 28.017628358202934], [86.82809202495524, 28.015273419596948], [86.83581944500877, 28.015350550783896], [86.83876381865286, 28.017635024214677], [86.84746730935692, 28.019961971853252], [86.84822203405663, 28.02496247587238], [86.85075115337105, 28.027086081292335], [86.85407281815286, 28.028125172850288], [86.85930983314289, 28.027428953827055], [86.8674270030258, 28.025264355148177], [86.87250678108994, 28.022157911270046], [86.87281760308022, 28.019944927113855], [86.87121489654713, 28.01630197397284], [86.87110947945004, 28.01326511846995], [86.87304610005464, 28.010512149149708], [86.87888916500243, 28.006873703888807], [86.88132799278029, 28.003103584410066], [86.88904124358741, 27.99973033642797], [86.88992356534992, 27.99697403595886], [86.8996335369176, 27.99435075676277], [86.90951614407867, 27.993017365510426], [86.91594597751599, 27.9906885637978], [86.91803174040577, 27.989069933257888], [86.92133268088175, 27.989112488668372], [86.92535093097175, 27.98788960746052], [86.92590706234763, 27.984401866374803], [86.93200098838288, 27.979951310593027], [86.93316382582078, 27.97763935037278], [86.93247649911741, 27.965753461614668], [86.93347706418821, 27.962613322354763], [86.9494479106879, 27.956864684460786], [86.96465550038796, 27.955829299892482], [86.96759751267295, 27.954798944676224], [86.9731226720626, 27.954375956681282], [86.9823715050118, 27.949576301116558], [86.98777420182866, 27.95096214960568], [86.99220721914553, 27.954836383692022], [87.0027332831019, 27.954489104053287], [87.00570316852891, 27.95338581842421], [87.00950203937906, 27.95363155238539], [87.01571906718176, 27.95773942289483], [87.01841211034952, 27.954059237177148], [87.02158888152817, 27.951299540549396], [87.02476580943735, 27.94988659879913], [87.02890981979729, 27.950253515736406], [87.03229414606673, 27.949363843568737], [87.03578234784545, 27.950590359553424], [87.03913197437893, 27.950435996204387], [87.04320469686326, 27.94467027129816], [87.04392879557732, 27.94166480234827], [87.04668946980155, 27.937338800339834], [87.05027931900106, 27.934271326047572], [87.05110592459002, 27.93037687564461], [87.05338302397125, 27.92663300044506], [87.06151067268414, 27.92544056579333], [87.06577658451583, 27.92396083713044], [87.07540519879407, 27.918405630950843], [87.07861372743801, 27.915152666237248], [87.07702035742857, 27.907672054069494], [87.07781092566317, 27.90288624474599], [87.08198514300837, 27.89951080827104], [87.08606861681528, 27.890905398528204], [87.08855232836673, 27.889279400666517], [87.08779001448893, 27.885507535377346], [87.08882306923788, 27.882654995574313], [87.09441202196498, 27.880013831610334], [87.10476334222052, 27.877736596182817], [87.1075205045793, 27.873964356843256], [87.10812908715457, 27.861390049855167], [87.10878181749491, 27.858506068370964], [87.10812255113777, 27.854795136819583], [87.10987920561342, 27.851635074794196], [87.10963179412889, 27.849178226514532], [87.11166680243467, 27.84534785413934], [87.11590523561402, 27.840376123054916], [87.12194140621808, 27.839328575164085], [87.12614532860952, 27.835031220908352], [87.1325987524103, 27.836927168672204], [87.14098184056355, 27.83697975284531], [87.15366842761715, 27.828830331999338], [87.15673343723286, 27.82451977080273], [87.16495426983472, 27.82302336494546], [87.16828055113827, 27.82173785189745], [87.17904085235526, 27.820742822435868], [87.1831482163146, 27.822303257958087], [87.18773315194585, 27.820731293195994], [87.19318195479752, 27.820019830059767], [87.19977404276474, 27.822156071932852], [87.20563709625439, 27.82177971156616], [87.21781683422333, 27.823631392588716], [87.22361021925903, 27.822825756726427], [87.22584611989905, 27.81984618715358], [87.22931000823192, 27.826742199378213], [87.23705597922827, 27.835559930915593], [87.2386514920019, 27.83951454574462], [87.24248587342655, 27.841867843605378], [87.24749380368246, 27.843569158272835], [87.24943300004354, 27.843015180255154], [87.2537943717634, 27.845507100417283], [87.25675227759221, 27.849068649982684], [87.26123327190746, 27.85098256125375], [87.26517769532299, 27.85088251686995], [87.27557835669647, 27.847173223342065], [87.28001773152786, 27.846372375311596], [87.28478052474892, 27.844564435209524], [87.28790583213905, 27.846019987699083], [87.29244509777477, 27.84396856519637], [87.30412146200263, 27.84321234506088], [87.30445978240046, 27.835526971792696], [87.31556929420474, 27.828886826748306], [87.31772281663231, 27.82653544991977], [87.32552467124285, 27.82651728121119], [87.33001863055465, 27.82717667954721], [87.3381718745655, 27.82996145581475], [87.34220307410982, 27.828252556180416], [87.34552146058414, 27.82790139792319], [87.3479640195426, 27.8304560280429], [87.35138556595315, 27.8280084329332], [87.35524201117205, 27.827479612807288], [87.3606651432336, 27.828929833001443], [87.36571561072236, 27.83690346691618], [87.36854719418518, 27.838897154040904], [87.37230895008946, 27.844385422710566], [87.37588132057485, 27.845991157868205], [87.37948309605973, 27.846134710985154], [87.38763995818734, 27.849191713623117], [87.39111914171244, 27.84860207967967], [87.39771558569566, 27.851541064342328], [87.40184941598191, 27.851711874869473], [87.40739020134461, 27.85666372395705], [87.41920500191637, 27.860603715495497], [87.42403925931742, 27.859968548074704], [87.4256474502764, 27.85883542822893], [87.42595018971276, 27.85220133556829], [87.429851651531, 27.850711414453805], [87.43317825755463, 27.84624962173851], [87.43115393933331, 27.841745859586226], [87.42644971176182, 27.840357146666456], [87.42199415003887, 27.8411943031521], [87.4106409897882, 27.83936494511558], [87.4044524829995, 27.836826994701397], [87.4036195297683, 27.83411522029637], [87.41164298661789, 27.833847890943403], [87.41328685050904, 27.833141296299008], [87.42483595157323, 27.83103275760878], [87.43889018387517, 27.825319022518386], [87.4455169306434, 27.823134150494017], [87.44979995119859, 27.822357672976267], [87.45840331599099, 27.825499301947193], [87.47118180818542, 27.834632100854456], [87.47473867806396, 27.83635720056092], [87.47574859098694, 27.83979891358261], [87.47969549505451, 27.840547857137338], [87.48207113783683, 27.84255203538772], [87.48590148113918, 27.84388105033328], [87.49009755868896, 27.84651720598172], [87.49197398749268, 27.844407802760912], [87.49836076142995, 27.8450999838252], [87.50139883314726, 27.846435983641666], [87.50477610115038, 27.84549187961382], [87.5079324001735, 27.847138604049032], [87.51591494287582, 27.846123028701214], [87.52080055016735, 27.843618403502596], [87.52435789438033, 27.843760581425364], [87.52751369712931, 27.84525119478513], [87.53217870797022, 27.845440826441376], [87.53543202741473, 27.842991603778295], [87.54420742722945, 27.849021792960777], [87.54769793461782, 27.853256356551842], [87.55057844937556, 27.857910684132964], [87.55213157574414, 27.86520981494393], [87.557154322005, 27.866694463423286], [87.5624336853014, 27.867085901207872], [87.56941422621684, 27.863740764596162], [87.57097794551994, 27.86166085308523], [87.5787937901241, 27.862043401110753], [87.58258037628623, 27.855913327588716], [87.58635401644666, 27.85288991562704], [87.58598601105074, 27.849834367425114], [87.58713917596016, 27.847031887381974], [87.58813568781409, 27.840960819392663], [87.5902091736587, 27.838000932783963], [87.59110981930077, 27.832088286386142], [87.58890120695665, 27.827849371539187], [87.58972997704849, 27.822358873795356], [87.5910949905359, 27.819501214937365], [87.59513366919104, 27.82137456093125], [87.60091604026233, 27.82131567302381], [87.60660475270167, 27.817874958284733], [87.61094909943967, 27.810857223313818], [87.61416327862088, 27.811970996500207], [87.61478223127196, 27.815882723638502], [87.61737531220496, 27.81931852947594], [87.62328479062215, 27.821979027928062], [87.62736701879267, 27.82149583382369], [87.63253831245653, 27.8254858882986], [87.63252408389208, 27.832651502679656], [87.63581786205998, 27.83442765619752], [87.64216458077189, 27.835061655079002], [87.6470444735669, 27.833777671870536], [87.6517363239686, 27.83534843208159], [87.65898278325278, 27.83670607109791], [87.66334279709892, 27.835823355241235], [87.66508149216773, 27.83647826693793], [87.66951219990266, 27.834931673768754], [87.66974409510374, 27.830120479580195], [87.66303877086274, 27.82265570439821], [87.66522442139193, 27.82005966253815], [87.66371574220963, 27.817445303784044], [87.66538419908974, 27.812661071243244], [87.66461924694296, 27.809549020364116], [87.66546594802458, 27.80692101895403], [87.6735508116539, 27.807705349352347], [87.67546318985352, 27.810247659533033], [87.67999529395433, 27.809896024766484], [87.68361658684495, 27.81189291500809], [87.6871360527077, 27.81241237179572], [87.6939282632148, 27.810936753637566], [87.69865605318765, 27.812230539291733], [87.70472817883483, 27.81039031512295], [87.70718907701072, 27.811692995425158], [87.71079455595955, 27.811180357837046], [87.71880668840257, 27.808918894595752], [87.72345703737878, 27.805478848280302], [87.72535273063377, 27.805344832896], [87.73268768525612, 27.80909188739335], [87.73632317983856, 27.813063603210914], [87.73386610690261, 27.81916370459458], [87.73595684687425, 27.823926509046743], [87.7417820083245, 27.82990108815943], [87.74331794653197, 27.834623948302045], [87.7449949400388, 27.836218963212684], [87.75018809697589, 27.835274893623513], [87.75416510557717, 27.836751274430632], [87.7572772404111, 27.842958782426525], [87.75911304995415, 27.848819109864692], [87.76462666206538, 27.855940456643808], [87.76617018718999, 27.859575538297005], [87.76797585429969, 27.86104312943513], [87.77351952322857, 27.862943439521487], [87.77555214536017, 27.865059539939846], [87.77865053242725, 27.865946769181388], [87.77709517371778, 27.868556821302754], [87.77863801783104, 27.871916427357796], [87.77550484112612, 27.875539360192775], [87.7754113575727, 27.87800126521786], [87.77746538026604, 27.881556550941372], [87.77801184773456, 27.885197050927374], [87.7801414566063, 27.889972417383508], [87.78249746878897, 27.89230312980266], [87.78410492503976, 27.89848017470064], [87.78586990049479, 27.900340417778086], [87.79378292982693, 27.902975269732394], [87.79726403024898, 27.905928698030408], [87.80365931765859, 27.908671012139624], [87.8058599148507, 27.91090291796467], [87.80550271217747, 27.91350630543125], [87.80942896372527, 27.918171402832787], [87.81356790634031, 27.92151530889097], [87.81888089571542, 27.921700392097776], [87.82294161682697, 27.91901626875543], [87.82516327928212, 27.921013195861505], [87.82583693524398, 27.926525157239762], [87.82722175202798, 27.929253441287244], [87.82641833026989, 27.93300115635779], [87.82450098082569, 27.93456923131043], [87.82531996260799, 27.93872000354995], [87.82940084747109, 27.94742412063846], [87.83138605524269, 27.948808660109886], [87.83180565242627, 27.952923365499544], [87.83414725195424, 27.9516503349106], [87.84109318516239, 27.950484568818762], [87.845248596106, 27.94718787680703], [87.84755106079389, 27.94654428965981], [87.85022897469713, 27.948596532984865], [87.85647235074298, 27.948438289406358], [87.85728265105267, 27.947133732837898], [87.85793710837292, 27.940097619096832], [87.85926314074136, 27.93672106843021], [87.85723257272967, 27.93234116860978], [87.85402182640237, 27.928794360240556], [87.85740173895373, 27.927061014931315], [87.86031555678181, 27.92398815461276], [87.86064683490355, 27.920992301418796], [87.86316700061575, 27.91859187406422], [87.86444159548842, 27.912871592552996], [87.86589970369211, 27.910834238027554], [87.872144440899, 27.913887897245488], [87.87705296548677, 27.91482234421045], [87.88785935277507, 27.91020264435979], [87.89944755429441, 27.911722540230283], [87.9078512700139, 27.91696679625501], [87.91079583692944, 27.916394652415416], [87.91551613617025, 27.91732897105183], [87.91990709494763, 27.916000234026356], [87.9306467075211, 27.918035193672836], [87.93351197703929, 27.917266815781833], [87.93632140952948, 27.91260034468261], [87.94166458890727, 27.909924370009648], [87.95321608672619, 27.909725418076587], [87.9560801088317, 27.908859548824644], [87.96649643619618, 27.893242940923496], [87.97643979217477, 27.889470712632253], [87.98329656521594, 27.887707435725456], [87.98645633933981, 27.8877638029201], [87.99102926200683, 27.889583103261856], [87.99507103473, 27.892726026414433], [87.99770091870522, 27.893690615735384], [88.00095683579866, 27.897691760581317], [88.00377107567411, 27.898449559216182], [88.01531781389079, 27.89870781730603], [88.02181020013444, 27.89682129468089], [88.02725053290875, 27.905486693131504], [88.03007309125323, 27.90595070551904], [88.0366164582198, 27.90459313715918], [88.04174427574897, 27.899968081202204], [88.04765409457599, 27.898853916818783], [88.05419255093278, 27.896410444516512], [88.0561300505377, 27.89111663720551], [88.05830164421556, 27.88844235250933], [88.0645413807083, 27.88637077911242], [88.07200866680142, 27.89378470228993], [88.07687044915377, 27.894678527969536], [88.07833885489094, 27.895837890762238], [88.08322446613434, 27.89592141362402], [88.08809032899089, 27.890850017191177], [88.08950328826687, 27.887486466574657], [88.0904140158945, 27.878283922879493], [88.09017415524502, 27.87378737852903], [88.09099041755813, 27.87145053819508], [88.09580776576061, 27.867254563201932], [88.10329865064607, 27.867844590738805], [88.1073216947998, 27.867604750845704], [88.11196157219204, 27.868359272260562], [88.11562641966793, 27.870441282792896], [88.11917534584727, 27.87507337814658], [88.12618939992882, 27.88159912194214], [88.12759232835948, 27.88217191047288], [88.13509836107922, 27.88173359202583], [88.14020103073749, 27.878233123639745], [88.14413158142624, 27.878225386628802], [88.14876713650274, 27.876819724146834], [88.15274583474934, 27.873025885294073], [88.15382518410448, 27.87085109809752], [88.15672099323785, 27.870901336291126], [88.16286192382402, 27.869123922848388], [88.16679605253634, 27.86586691066159], [88.172538365189, 27.86336149148085], [88.17676500737636, 27.85796986098092], [88.17858330119533, 27.856702320132282], [88.18538110135722, 27.85679519146353], [88.18838621675499, 27.853929126981875], [88.1957251200661, 27.854601145013586], [88.19673702350092, 27.85314404304446], [88.19800553677774, 27.84575165780629], [88.20143397605199, 27.84272367814888], [88.20125987425119, 27.837520759402818], [88.19521856793581, 27.836181325072257], [88.19158694019124, 27.832571637214393], [88.19091153224326, 27.82980718101808], [88.18733104371991, 27.82532838340263], [88.18170989834346, 27.822818373071406], [88.17971059143196, 27.8230114429657], [88.17320355570074, 27.82073645757523], [88.17363582820049, 27.817463879832566], [88.17893524024035, 27.81583056240184], [88.18515361551736, 27.810757878682008], [88.18614068491843, 27.807730914744372], [88.18603679511553, 27.80371395494287], [88.18813056089984, 27.7995269269454], [88.19378271638126, 27.796265759890776], [88.19729057688983, 27.790886551478916], [88.19529875282912, 27.786552021172145], [88.18815386676783, 27.781485894929986], [88.18512242705418, 27.777184966895557], [88.18198166391448, 27.77653052745816], [88.18138257132942, 27.77062053766079], [88.18333421576847, 27.767046202674223], [88.18158204454657, 27.76284703993394], [88.17667967364011, 27.75800012451452], [88.1787314662966, 27.750307842181016], [88.17855169170484, 27.747096872054694], [88.17624944957377, 27.746225342741088], [88.17383051943891, 27.743401108491067], [88.16972778206251, 27.74167168321457], [88.16252874829401, 27.740428406345647], [88.15842377199576, 27.740857665632163], [88.15626615446037, 27.736607312213874], [88.15466940713391, 27.72950759577823], [88.15455284908145, 27.72212018271198], [88.15540903609191, 27.717485982676532], [88.15351981156931, 27.713628224632675], [88.14939885201278, 27.70821199926891], [88.14745566589897, 27.70303704385077], [88.15065215595438, 27.699134698464295], [88.15083557144055, 27.696441814382528], [88.15478069477328, 27.69073507970465], [88.14905390140017, 27.68447502324158], [88.14678313799175, 27.67907708115564], [88.14650309849083, 27.674400425610685], [88.14462205080868, 27.665689720334935], [88.13588627260866, 27.656832273427185], [88.13127103179949, 27.655396812780214], [88.12928103929511, 27.65282312703125], [88.12437837740175, 27.649641377399576], [88.1198475736097, 27.64513668889878], [88.12063722946623, 27.639524010896505], [88.11847118765844, 27.634724892924773], [88.11724758758811, 27.629850424346753], [88.11949260609956, 27.62731231529369], [88.11529161334474, 27.62105409995876], [88.11366632094274, 27.610680295678453], [88.10857934012758, 27.606127725879265], [88.10562124634947, 27.602575483071096], [88.10082609295547, 27.60106140117648], [88.09713724814098, 27.598920332849403], [88.09367234185251, 27.59814446100432], [88.08964449819346, 27.595175584248594], [88.0850867695507, 27.590256994276125], [88.07869835666472, 27.579405454936396], [88.07837520304584, 27.577106776298827], [88.07525791988756, 27.571853992819978], [88.07940283620343, 27.56847380579583], [88.08105070662089, 27.56489865152791], [88.07918752054559, 27.56186063402412], [88.07323128701422, 27.55688702260825], [88.06888826449465, 27.555271333364256], [88.06812527770926, 27.550970322704543], [88.06853851786512, 27.54646622696248], [88.06515631014493, 27.544757251476288], [88.06090497193713, 27.54011970500722], [88.05900664802068, 27.535161730847197], [88.05905601019334, 27.532783441107206], [88.06160323984597, 27.53021458993498], [88.06527483916948, 27.529629272755013], [88.06695705457751, 27.527130149223694], [88.06223538188877, 27.52600890942029], [88.05997816672404, 27.523713631630326], [88.05731062900514, 27.51614893487066], [88.06086585443492, 27.513507046418123], [88.06089153111348, 27.511171814875407], [88.05758381204018, 27.509525210324032], [88.05484646812562, 27.50472476895473], [88.04962316784558, 27.503821188209837], [88.04688881988473, 27.501829312308995], [88.04457176233801, 27.49847162688916], [88.04387304344122, 27.49037738842825], [88.04395028433358, 27.48502079858181], [88.04527125913351, 27.481453012104446], [88.04396268463125, 27.478556929878412], [88.04846424090522, 27.472562416235075], [88.05047442541589, 27.472220171405976], [88.05621934040894, 27.468029959781187], [88.06045563862445, 27.46118876551588], [88.06705035842998, 27.457955048118027], [88.06608749174022, 27.454941482547696], [88.06724502767221, 27.449675842077998], [88.0724763200452, 27.44557017576112], [88.06774696103456, 27.43909309415033], [88.07280317415812, 27.434007323103454], [88.0786223390321, 27.432085288271008], [88.08012081734846, 27.43004993263311], [88.07970382690175, 27.426623913376996], [88.07657579171195, 27.42677896629266], [88.06713855042457, 27.425333167020888], [88.05812644215445, 27.418527409276056], [88.0543464599885, 27.417364815885787], [88.05055442975886, 27.41298487999137], [88.04939940883106, 27.406935889929635], [88.04691576552716, 27.405467785100196], [88.04831189398809, 27.400250144528865], [88.04576027525792, 27.395436644822396], [88.04584208306831, 27.392512028259247], [88.04410386737301, 27.384655623461146], [88.04501254363339, 27.380093666068234], [88.04228871685362, 27.37443304997344], [88.04181037688606, 27.37024015928075], [88.04716177480988, 27.363618965334652], [88.05015100160789, 27.358714264129475], [88.05314599890525, 27.358251673014728], [88.05762022804248, 27.3557044799634], [88.05882373194994, 27.351530556283382], [88.0616484164709, 27.346676472467596], [88.06148522839548, 27.34493137259943], [88.06472457834172, 27.341396180700656], [88.06648596883012, 27.33630409788525], [88.06352402239835, 27.334399959834638], [88.06019218099026, 27.33005059198787], [88.06014103554504, 27.32853259924188], [88.05251692911699, 27.324571992430563], [88.04942752683624, 27.318799129025923], [88.04957497103469, 27.315009901741266], [88.04852997211573, 27.31273226964856], [88.04506866870216, 27.310145557259208], [88.04111439725028, 27.303562186360026], [88.04104076603049, 27.301554798597078], [88.04480614648095, 27.2937722387343], [88.04297705734382, 27.29167857590506], [88.03907430672736, 27.2919626035168], [88.03530066110783, 27.28970054437289], [88.03171789256615, 27.286284090045005], [88.03304745142508, 27.281714515513794], [88.03027590897487, 27.272107806611995], [88.03167790496892, 27.26445581611689], [88.03019094340375, 27.254950121995808], [88.03085859492467, 27.250078623954316], [88.02769370826499, 27.249404686881412], [88.02688788108489, 27.246457242839334], [88.0242188282815, 27.242090763666877], [88.02496394488227, 27.238288048304454], [88.02108365302662, 27.23752229356466], [88.01923986624968, 27.23593608596437], [88.01978319814356, 27.232060435734024], [88.01888560082068, 27.22509534207815], [88.01588780562692, 27.222231412597647], [88.01218493375326, 27.21582571796745], [88.01563672555419, 27.21089577631814], [88.01185087263111, 27.20412967416554], [88.01544269350029, 27.199859739681326], [88.01601508401608, 27.19327876429633], [88.0139089134853, 27.190830189863252], [88.01247171778587, 27.17760332186922], [88.01867946075478, 27.172858664578342], [88.01835248610031, 27.17088901852373], [88.01433803481035, 27.166938165349425], [88.01117140220657, 27.166083431723415], [88.01102764502646, 27.159076542624877], [88.01033270371538, 27.155015822844803], [88.0083103983627, 27.149802679449348], [88.0086725739776, 27.14828388160035], [88.00701515475743, 27.143246354532863], [88.00067235715589, 27.140275122666896], [87.9986516455756, 27.133687724564965], [87.99121373683397, 27.13084114917614], [87.99083433509266, 27.125990629265612], [87.98893519378036, 27.12380641046805], [87.98862278824762, 27.118741098054983], [87.99104766039603, 27.110646663590238], [87.99094070846482, 27.10643946727926], [87.99525065519117, 27.103514240080923], [88.0034087643267, 27.104478305954277], [88.00822497288063, 27.100910519310645], [88.00820183004133, 27.099098927371163], [88.01206081165017, 27.09720072701231], [88.01263206921321, 27.09365654756692], [88.01582445837253, 27.088660730852027], [88.02110604556609, 27.087756094771226], [88.02092900256761, 27.082468741427807], [88.01604994607207, 27.077050687891496], [88.0162649293017, 27.07384978426179], [88.01855102750781, 27.070299949257798], [88.021062532726, 27.06952812548588], [88.02295101821888, 27.064963559352723], [88.0225934179327, 27.063181458575997], [88.02605879038515, 27.057375717427895], [88.0258915605391, 27.05471900908924], [88.02757311453159, 27.051058422520796], [88.03009252809505, 27.04879272943343], [88.03360563172022, 27.043539253255172], [88.03497446082636, 27.043269677012688], [88.0376338311179, 27.036657303814987], [88.03926975834598, 27.036054136635407], [88.04577471387861, 27.036730197327458], [88.04846547392326, 27.03474498284026], [88.05786545080564, 27.031797913466654], [88.05934931621547, 27.02930265879559], [88.06444717533698, 27.031220335197798], [88.06929835744528, 27.031350538234417], [88.07222442963622, 27.03349877951164], [88.077389090554, 27.0355057619231], [88.08143827902758, 27.03171804247621], [88.08315681481068, 27.02865215447043], [88.08370175309886, 27.02283586002036], [88.08851535730201, 27.01569838460815], [88.08771999826764, 27.011320627216623], [88.08985062643292, 27.007355637706482], [88.0924874151959, 27.004433753931195], [88.09916675436787, 27.003774872123504], [88.10438947307286, 26.99751807714556], [88.10881414338886, 26.995136866610586], [88.10905591233852, 26.992953124174818], [88.11508079069411, 26.98883984431108], [88.11822535353534, 26.987458960337158], [88.12877610714408, 26.987801250183935], [88.13448077740159, 26.98639041611534], [88.13554523602852, 26.984926563500217], [88.13071308097767, 26.980773336677316], [88.12371652333066, 26.97095150201964], [88.1219663158764, 26.965340584243197], [88.12311509959193, 26.960130809895006], [88.12152607027856, 26.956738826477928], [88.12045297386337, 26.95064190099265], [88.12870685075404, 26.939500212270712], [88.13211262793831, 26.938209387599382], [88.1377571347686, 26.93337622555378], [88.13938440338677, 26.92885289990578], [88.14604016026104, 26.921053327498562], [88.14397844933461, 26.9173336762138], [88.14501697958849, 26.915617282454235], [88.14212676612837, 26.911220737384006], [88.1386861132201, 26.904554192503433], [88.13915761358285, 26.90188124662351], [88.1363831686273, 26.898747093656578], [88.14488762006886, 26.891128976543705], [88.15286447755886, 26.88513464567061], [88.15483483652304, 26.885644262567382], [88.15752235955577, 26.883135905576378], [88.1616804343218, 26.880996668514484], [88.16348601394058, 26.87826081507247], [88.16453711428815, 26.873414756501063], [88.16662122449532, 26.870502798490165], [88.17231103299042, 26.86863262867249], [88.17320814353023, 26.864209717833493], [88.17198620593628, 26.860183420899236], [88.1736143503299, 26.858349110597274], [88.17368910398525, 26.85230851287898], [88.16741559460768, 26.84985823568699], [88.16743363342735, 26.848059892578075], [88.17062104500532, 26.84487479102437], [88.16754760392395, 26.837777164781368], [88.17403985247844, 26.83400736237344], [88.17174863486387, 26.829118995651186], [88.17212657809169, 26.826735522531603], [88.17825567545084, 26.817961898757087], [88.17896804176621, 26.814321103639255], [88.17755109261006, 26.803681065744417], [88.179301804068, 26.7982176356877], [88.18072127202326, 26.797077698442035], [88.1813026607582, 26.793192047100106], [88.18555776320353, 26.78109224010314], [88.18796110413273, 26.77174240974875], [88.18725201354381, 26.76053918319065], [88.18586983796236, 26.75686628957829], [88.1871093745354, 26.75099182295954], [88.18595901293759, 26.740451092941026], [88.18638181361126, 26.738577076059173], [88.18451914895151, 26.734393717904442], [88.18480062587282, 26.731067824572857], [88.1823134632194, 26.727584519109676], [88.18269461816327, 26.72410901557875], [88.18204149318295, 26.719565773326565], [88.17650241591897, 26.71037903237345], [88.1730440994814, 26.70816266153308], [88.16954251024204, 26.701691159543856], [88.16714767779973, 26.69964635580135], [88.16784756568977, 26.68408784491167], [88.16407967525056, 26.678617938462818], [88.16494275090444, 26.670375294976306], [88.16293120460718, 26.650750524399086], [88.16306904250338, 26.64608330702713], [88.15799014293839, 26.640174852043458], [88.16048108909865, 26.636659515135847], [88.15815077786685, 26.636058024770865], [88.15737794814619, 26.632930282094186], [88.1542865296411, 26.630351574429184], [88.14690305861869, 26.629668998885986], [88.1420149613727, 26.625879301075756], [88.1403365777694, 26.619227597688017], [88.1405368054227, 26.61353772005763], [88.13876482115086, 26.60633612508669], [88.13564441857311, 26.605979724132784], [88.12989519995752, 26.601393204799034], [88.13168898178371, 26.598050902440246], [88.13191312287091, 26.593283632582793], [88.12948312771675, 26.587540211535238], [88.13009516970779, 26.58495182219282], [88.12731359504012, 26.58197071762331], [88.12988956526242, 26.57966458953011], [88.13020721885215, 26.57380229122714], [88.12525258088496, 26.577731485292095], [88.12520590829686, 26.57455938455437], [88.12296049699658, 26.57235684721732], [88.12076851367719, 26.57582644392797], [88.117614758593, 26.57465755043726], [88.11926031107173, 26.568462180171654], [88.11216246991913, 26.571469102820483], [88.11135358673317, 26.56812700297046], [88.11318154495814, 26.565075613331185], [88.11074755532181, 26.561874784165557], [88.11346062593807, 26.559874756913388], [88.11176934150743, 26.55719158384255], [88.10884233957505, 26.557361078456537], [88.10771659983477, 26.56057390439463], [88.10541126164688, 26.56102051127562], [88.10540867878237, 26.55081264640064], [88.10752547326048, 26.550611202316915], [88.11045078598853, 26.547745441428233], [88.11151645415993, 26.545279924544335], [88.10701930628335, 26.541465548558246], [88.10380856952075, 26.539800384622886], [88.09928198497337, 26.538901255404785], [88.0990514791061, 26.534913721916315], [88.1038036757701, 26.535093605072507], [88.10302051018607, 26.53025294797397], [88.10494174933118, 26.528069734583543], [88.10310343975675, 26.51898167642099], [88.09667355328824, 26.517381823456304], [88.0947250991654, 26.51537058743822], [88.09631413360347, 26.513072627905693], [88.0956948983024, 26.51039453627075], [88.09046606459762, 26.507905157228024], [88.09096685611867, 26.505963084603884], [88.09438431986604, 26.50468463232491], [88.09870704979436, 26.505854046845506], [88.0996586921805, 26.496816659662898], [88.10052683033528, 26.49403004182704], [88.10311019206347, 26.49093916892124], [88.10574700829629, 26.489573959978724], [88.10442086195582, 26.48698259792605], [88.10106573811085, 26.483881118297553], [88.10024423230364, 26.480484835107404], [88.10167302505815, 26.478736387436047], [88.1067019178042, 26.476955570282485], [88.10665943809192, 26.47349905637752], [88.09941436811694, 26.47080222122508], [88.10359919852998, 26.468281140342626], [88.10104210084066, 26.465002003015442], [88.09414542694113, 26.464946695462594], [88.09189544383624, 26.463161059385637], [88.09563355817377, 26.456096926257405], [88.09702818541369, 26.450761101004034], [88.09581583904115, 26.439666602094864], [88.0947873865959, 26.437862552171016], [88.08939058199242, 26.435008826643042], [88.08486744632268, 26.430749238636103], [88.08368982209362, 26.42629497793076], [88.07860642407216, 26.420209412871326], [88.07005435273528, 26.413872119516352], [88.06917791098766, 26.407894683541272], [88.06422505321477, 26.410472371103694], [88.06081293980056, 26.41001484916336], [88.05762728753591, 26.407184036733383], [88.05549116013135, 26.40278394154944], [88.05295133547384, 26.40115766152324], [88.04763832932511, 26.401250870221155], [88.04488904870959, 26.396040521637993], [88.03790592842668, 26.39406050475403], [88.0364948156993, 26.39042204424124], [88.03227539983016, 26.38855712969818], [88.03009260737252, 26.38340559874019], [88.02718563510172, 26.382106408878897], [88.02831049688356, 26.378995698297064], [88.03139623748581, 26.378431927582596], [88.02719181064401, 26.371331716332897], [88.02775109650058, 26.369287903223654], [88.03087075072396, 26.36678561330616], [88.02986092073438, 26.364974126870816], [88.00765104872896, 26.361181056005062], [88.00411136238101, 26.364757620482976], [87.99980368847126, 26.366588447220924], [87.99791852472295, 26.365175535646962], [87.99557367778154, 26.3662410888521], [87.99190931959691, 26.372663592264573], [87.99161910187595, 26.39265804381687], [87.96576876382386, 26.3972665557572], [87.95450166390165, 26.40517898089398], [87.9314497753933, 26.418447918112825], [87.92719702057948, 26.41798819423324], [87.92630219880965, 26.42079199775051], [87.92687185458492, 26.424563431150045], [87.92601670576809, 26.427793448414544], [87.91638181766527, 26.430789016139173], [87.91598738800016, 26.432732090661432], [87.91806593381642, 26.435514574237423], [87.92324890087623, 26.437911459388314], [87.92580542620216, 26.44166099272715], [87.9250750715415, 26.4449917534145], [87.92281994278692, 26.44698753996581], [87.89868875918073, 26.44886531967114], [87.90961940185448, 26.457880733843492], [87.90003045158467, 26.477554918150354], [87.88809122258837, 26.48680452667133], [87.88556052495595, 26.476580305823155], [87.86936486790385, 26.470648217891974], [87.86348543272648, 26.46805727494254], [87.86172706167034, 26.463988158981206], [87.85797911965066, 26.46341951627193], [87.85817268730307, 26.45639387917353], [87.861188341052, 26.45164609490131], [87.86137356302558, 26.449002577487096], [87.85095892225056, 26.445377830718936], [87.84865028877124, 26.436573115574053], [87.82818696975542, 26.44022687088276], [87.82966549441555, 26.450320709187064], [87.82515084564889, 26.452273959151324], [87.81716316075457, 26.459163843810924], [87.80493967559879, 26.46475270323871], [87.79233876980487, 26.46895711361474], [87.78892276444797, 26.469330332820235], [87.78559762912072, 26.46371638583544], [87.7885815415535, 26.461576499737077], [87.78493463039378, 26.459019656662836], [87.78266239893887, 26.454442325940292], [87.77907592374862, 26.451598383879155], [87.77383782156977, 26.449999866848856], [87.77666237972328, 26.44784979121843], [87.77608962879997, 26.44271710142338], [87.77445969247343, 26.440846234756904], [87.77497580247501, 26.435653382019225], [87.77774905422379, 26.43637399384295], [87.77591292886422, 26.430088194036244], [87.77363844295348, 26.431411538762045], [87.77123698175043, 26.426658720896018], [87.77581943767751, 26.424539861213553], [87.77302574212901, 26.421375523533758], [87.77100217730086, 26.42197312321088], [87.76728035914711, 26.418452612445837], [87.7681370663775, 26.415367832764453], [87.76554857198623, 26.413222160383082], [87.76462519063396, 26.410386139973635], [87.75379807009544, 26.408254757539535], [87.74743905247807, 26.41794167927149], [87.73909257167371, 26.417671367049106], [87.73363917666818, 26.407865371051326], [87.72284471329117, 26.412652326790504], [87.72385407950826, 26.415677769672858], [87.71831070808885, 26.4224663947687], [87.71592621338459, 26.42199101874136], [87.7111326496414, 26.427441898170517], [87.69845557796802, 26.428294161999272], [87.69204730437278, 26.43572240360687], [87.67766953905011, 26.435466296192395], [87.67831950745357, 26.4159010062118], [87.65025728012671, 26.405960185523497], [87.65183047156863, 26.39359366166531], [87.62745729483433, 26.393914703742677], [87.61211404051696, 26.39025325113828], [87.60718793376653, 26.38125007087981], [87.60412727238344, 26.380953855204265], [87.58712525023621, 26.382211571832798], [87.58698095805259, 26.385014888426767], [87.58837001731789, 26.388430241351507], [87.58744328885014, 26.392947207868417], [87.57358719442809, 26.396137874559805], [87.55282453822328, 26.40581473159735], [87.54753044386607, 26.418614276602387], [87.5342234071235, 26.421681713742146], [87.51650769857493, 26.430107545363807], [87.5163795080592, 26.431010652116388], [87.49099616701378, 26.436452796133864], [87.47939225824125, 26.437929651785414], [87.4665966680924, 26.440465519566686], [87.459263471096, 26.438449316472695], [87.44462379124602, 26.433023219641022], [87.44302761963282, 26.433150055689975], [87.42776232059741, 26.422502402302012], [87.41913161633494, 26.422796475971516], [87.40417746545138, 26.42080857531845], [87.38851514914047, 26.41914594675971], [87.37608457580261, 26.40711290177546], [87.36867757269282, 26.40815218240999], [87.364170488431, 26.401346383411667], [87.35638221203716, 26.388281884137704], [87.35335044784138, 26.372212978673243], [87.35830735731572, 26.361140714842207], [87.34773929904777, 26.351691040232378], [87.34097375500357, 26.347837070322772], [87.33695069498032, 26.351556614724764], [87.32188589156847, 26.360277157842344], [87.31336820837345, 26.367686678392705], [87.31233394672815, 26.37155907370458], [87.30132373008219, 26.366353960575534], [87.28945166709882, 26.373807419187617], [87.28256207960054, 26.372756016362548], [87.27240745525089, 26.37269897059648], [87.26587970928374, 26.37395918554603], [87.26444327008247, 26.385674016435384], [87.26554708980609, 26.390368064573483], [87.26542245931563, 26.397237589602213], [87.26617049946847, 26.40546626138049], [87.26059982264606, 26.40941438377537], [87.25625765790735, 26.411216276754374], [87.24980540061605, 26.409636740095127], [87.24662471016512, 26.414397083133817], [87.22877859284858, 26.413779015809297], [87.22070090978099, 26.403916547439138], [87.2180832365088, 26.404464454523286], [87.21656200952584, 26.40674822940538], [87.21106991252653, 26.40942608888958], [87.21133592253709, 26.41321013896935], [87.18592374694668, 26.414333102583893], [87.18904659150235, 26.405595729899684], [87.17229361659777, 26.403414443594325], [87.16248074542898, 26.40412540014973], [87.1482713942221, 26.41007594968489], [87.13903860868716, 26.415009236005055], [87.11821928885239, 26.43035297827407], [87.09151050689029, 26.450416270000193], [87.08759500280765, 26.47154785965626], [87.08185193651711, 26.512604178260574], [87.07877926357499, 26.527687058632527], [87.07594329928189, 26.537394412174415], [87.07266999952469, 26.54203351317545], [87.07210373569926, 26.560797676965947], [87.07302988684401, 26.577394680388483], [87.07178180576508, 26.585846357822923], [87.04464185369821, 26.58734232180761], [87.0423254324569, 26.568394125432654], [87.02010391161997, 26.540186582995812], [87.0152848311374, 26.53217163792853], [87.00430014508561, 26.52848727130394], [86.99081619182392, 26.52319975203485], [86.97933957425423, 26.525195693552423], [86.97509554438082, 26.520108627808664], [86.96126719493476, 26.523844752215226], [86.95933558049384, 26.52040508220694], [86.95516904298363, 26.521114636444615], [86.95230267656092, 26.520542762394633], [86.94676244690241, 26.521026000446962], [86.94457912414072, 26.517155051366576], [86.93984287499683, 26.516586707592666], [86.93262074363871, 26.51682043879479], [86.93150549637262, 26.514655733905407], [86.9296809810704, 26.505851722015578], [86.92842364456705, 26.49693279226501], [86.92985823654337, 26.48967838795228], [86.9040946658046, 26.488352314555325]]]}, "properties": {"Province": 1, "TARGET": "Province1", "Level": 0, "DISTRICT": "\u092a\u094d\u0930\u0926\u0947\u0936 \u0928\u0902. \u0967"}}]}